{"type":"FeatureCollection","features":[{"type":"Feature","id":60503,"geometry":{"type":"Polygon","coordinates":[[[-118.32566960000077,33.355434600000081],[-118.32559480000054,33.355037200000879],[-118.32546659999934,33.354633799999647],[-118.3252850000008,33.354257299999517],[-118.32507500000065,33.353928599999563],[-118.32478660000015,33.353569999999308],[-118.32451240000046,33.353298100000757],[-118.32406020000053,33.352939599999445],[-118.32371480000074,33.352712500000052],[-118.32326979999925,33.352509300000747],[-118.32282830000077,33.352353899999798],[-118.32224429999951,33.352210400000331],[-118.32189180000023,33.352147699999477],[-118.32179120000001,33.352140999999392],[-118.32144320000043,33.352117799999178],[-118.3210409000003,33.352129799999602],[-118.32091229999969,33.352141499999561],[-118.32064560000072,33.352165599999353],[-118.32021130000066,33.352231400000164],[-118.31960599999911,33.352398700000776],[-118.31898999999976,33.352667600000132],[-118.31861260000005,33.352870799999437],[-118.31828859999951,33.353115800000523],[-118.3178613,33.353483400000187],[-118.31750880000072,33.35392259999935],[-118.31725600000027,33.354311099999904],[-118.31703519999974,33.354825000000346],[-118.31691420000061,33.355318100000659],[-118.31685339999967,33.355861100000766],[-118.31684069999937,33.355861100000766],[-118.31694699999935,33.356390000000829],[-118.31715299999996,33.357088999999178],[-118.31769200000053,33.35796400000072],[-118.31811379999999,33.358437999999296],[-118.3184786999991,33.358709699999963],[-118.31849329999932,33.358720599999288],[-118.31888090000029,33.358938900000794],[-118.31946199999948,33.359190999999555],[-118.31991799999923,33.359330999999656],[-118.32026849999966,33.359433699999499],[-118.32055600000058,33.359517900000355],[-118.32121770000049,33.359579899999517],[-118.32196219999969,33.359497199999169],[-118.32267900000079,33.35933599999953],[-118.32336500000019,33.359091000000262],[-118.32394299999942,33.35880299999917],[-118.3247680000004,33.358116999999766],[-118.32498900000064,33.35782300000028],[-118.32523500000025,33.357488999999987],[-118.32546399999956,33.357034000000567],[-118.32561700000042,33.3566009999995],[-118.32569300000068,33.356146000000081],[-118.32572199999959,33.355861100000766],[-118.3257236999998,33.355861100000766],[-118.32566960000077,33.355434600000081]]]},"properties":{"OBJL":4,"CATACH":" ","OBJNAM":null,"INFORM":"33 CFR 110.216","SCAMIN":89999,"SORDAT":"200409","SORIND":"US,US,graph,Chart 18757","DSNM":"US4CA1ET.000","APPROACH.ACHARE_POLYGON.FID":60503,"SHAPE.AREA":5.1283680145000003e-05,"SHAPE.LEN":0.025578557593825303}},{"type":"Feature","id":60505,"geometry":{"type":"Polygon","coordinates":[[[-118.30997500000012,33.340211999999156],[-118.30930900000021,33.340234999999666],[-118.30897799999912,33.34028600000056],[-118.30849800000033,33.340403000000151],[-118.30806999999913,33.340548000000126],[-118.3078000000005,33.340661000000182],[-118.30763200000001,33.340766999999687],[-118.30691300000035,33.341253000000506],[-118.3064489999997,33.34168099999988],[-118.30603100000008,33.342147999999725],[-118.30576099999962,33.342751000000135],[-118.30554400000074,33.343451000000641],[-118.30552100000023,33.344084000000294],[-118.30559100000028,33.344584000000395],[-118.30564500000037,33.344855999999709],[-118.30573799999911,33.345128000000841],[-118.30589999999938,33.345439999999144],[-118.30605599999944,33.34571700000015],[-118.30635799999982,33.346118999999817],[-118.30658199999925,33.346364999999423],[-118.30682200000047,33.346599000000424],[-118.3071230000005,33.346819000000323],[-118.3073629999999,33.346981000000596],[-118.30766500000027,33.347137000000657],[-118.30798200000027,33.347298999999111],[-118.30837600000086,33.34744099999989],[-118.30943099999968,33.347669000000678],[-118.30984800000078,33.347675000000891],[-118.31002500000068,33.347713200000726],[-118.31054829999994,33.347665400000551],[-118.31102769999961,33.347577500000625],[-118.31162290000066,33.347429499999635],[-118.31210789999932,33.347239799999443],[-118.31249360000038,33.347031699999206],[-118.31291799999963,33.346744899999976],[-118.3132927000006,33.34645350000028],[-118.31377219999922,33.345940100000007],[-118.31409730000087,33.345412799999394],[-118.31428469999992,33.344982700000401],[-118.31439490000048,33.344524800000727],[-118.31443899999977,33.3440714999997],[-118.31442249999964,33.343696800000544],[-118.3142957,33.342970600000626],[-118.31411939999998,33.342545100000279],[-118.31387689999974,33.342119499999171],[-118.31356830000004,33.341721700000562],[-118.3132100999992,33.341360899999927],[-118.31270860000041,33.340981600000305],[-118.31209130000025,33.340625500000897],[-118.3113087999991,33.340352499999426],[-118.31056480000007,33.340218400000595],[-118.31002500000068,33.340219499999876],[-118.30997500000012,33.340211999999156]]]},"properties":{"OBJL":4,"CATACH":" ","OBJNAM":null,"INFORM":"33 CFR 110.216","SCAMIN":89999,"SORDAT":"200409","SORIND":"US,US,graph,Chart 18757","DSNM":"US4CA1ET.000","APPROACH.ACHARE_POLYGON.FID":60505,"SHAPE.AREA":5.2368174555000002e-05,"SHAPE.LEN":0.025836519103346799}},{"type":"Feature","id":60546,"geometry":{"type":"Polygon","coordinates":[[[-118.169715,33.722899399999733],[-118.16969539999991,33.722837100000106],[-118.16959750000024,33.722526800000196],[-118.16946900000039,33.722156699999687],[-118.16932970000016,33.721789299999728],[-118.16917970000031,33.721424900000784],[-118.16901900000084,33.721063599999979],[-118.16884779999964,33.72070580000036],[-118.16866610000034,33.720351600000868],[-118.16847400000006,33.720001199999388],[-118.16827170000033,33.719654900000023],[-118.1680593000001,33.719312799999898],[-118.16783700000087,33.718975199999477],[-118.16760470000008,33.718642199999522],[-118.16736280000077,33.718314100000498],[-118.1672211999994,33.718132199999673],[-118.16711129999931,33.71799110000029],[-118.16708730000028,33.717961899999864],[-118.16685040000084,33.71767329999966],[-118.16678630000024,33.717599199999313],[-118.16658020000068,33.717360900000131],[-118.16630099999929,33.717054200000348],[-118.16601280000032,33.716753299999255],[-118.16571590000058,33.716458400000192],[-118.16546709999966,33.716223299999911],[-118.16541040000084,33.716169699999227],[-118.1650965000008,33.715887300000759],[-118.16477440000017,33.715611499999795],[-118.16444430000047,33.715342299999975],[-118.16410639999958,33.715079999999944],[-118.16376090000085,33.714824700000463],[-118.16343260000031,33.714593900000182],[-118.16340800000035,33.714576599999418],[-118.16304800000034,33.714335700000447],[-118.16268099999979,33.714102399999319],[-118.16230720000021,33.713876600000731],[-118.16192690000025,33.71365859999969],[-118.16154029999961,33.713448399999834],[-118.16114770000058,33.713246200000867],[-118.16074920000028,33.713052099999913],[-118.16034519999994,33.712866300000314],[-118.15993580000031,33.712688800000251],[-118.15952140000081,33.712519700000485],[-118.15910210000038,33.712359200000719],[-118.15867819999949,33.712207399999897],[-118.15825000000041,33.712064299999838],[-118.15781769999921,33.711929999999484],[-118.15738160000001,33.711804599999596],[-118.15694190000067,33.711688199999116],[-118.15649900000062,33.711580799999865],[-118.15605300000061,33.711482599999727],[-118.15560430000005,33.71139360000052],[-118.15515310000046,33.711313699999664],[-118.15469970000049,33.711243199999444],[-118.15424440000061,33.711181999999098],[-118.15378740000051,33.711130100000446],[-118.15332900000067,33.71108760000061],[-118.15286949999972,33.711054499999591],[-118.15240919999997,33.711030899999969],[-118.15194829999928,33.711016699999163],[-118.1514872000007,33.711011999999755],[-118.15102599999955,33.711016699999163],[-118.15056519999962,33.711030899999969],[-118.1501047999991,33.711054499999591],[-118.14964540000074,33.71108760000061],[-118.14918700000089,33.711130100000446],[-118.1487300000008,33.711181999999098],[-118.14827469999909,33.711243199999444],[-118.14782129999912,33.711313699999664],[-118.14737009999953,33.71139360000052],[-118.14692140000079,33.711482599999727],[-118.14647540000078,33.711580799999865],[-118.14603250000073,33.711688199999116],[-118.14559279999958,33.711804599999596],[-118.14515670000037,33.711929999999484],[-118.14480279999952,33.712068799999543],[-118.14453839999987,33.712196599999515],[-118.14441289999922,33.712257299999692],[-118.14398900000015,33.712409100000514],[-118.14356980000048,33.712569600000279],[-118.14315530000022,33.712738700000045],[-118.14274590000059,33.712916200000109],[-118.14234190000025,33.713101999999708],[-118.14194339999995,33.713296100000662],[-118.1415507999991,33.713498299999628],[-118.14116420000028,33.713708499999484],[-118.14078390000032,33.713926500000525],[-118.14041019999968,33.714152299999114],[-118.14004310000018,33.714385600000242],[-118.13968310000018,33.714626499999213],[-118.13933019999968,33.714874600000257],[-118.13898469999913,33.715129899999738],[-118.13864680000006,33.715392199999769],[-118.13831670000036,33.71566139999959],[-118.13799459999973,33.715937200000553],[-118.13768080000045,33.716219600000841],[-118.13737530000071,33.716508299999987],[-118.13707830000021,33.716803200000868],[-118.13679020000018,33.717104100000142],[-118.13651089999985,33.717410799999925],[-118.13624069999969,33.717723199999455],[-118.13606339999933,33.717988500000502],[-118.13593840000067,33.71811340000022],[-118.13582850000057,33.718254600000364],[-118.13558659999944,33.718582699999388],[-118.13491509999949,33.719312799999898],[-118.13470269999925,33.719654900000023],[-118.13450039999952,33.720001199999388],[-118.13430840000001,33.720351600000868],[-118.13412670000071,33.72070580000036],[-118.13395540000056,33.721063599999979],[-118.13379469999927,33.721424900000784],[-118.13364469999942,33.721789299999728],[-118.13350539999919,33.722156699999687],[-118.13338130000011,33.722853799999939],[-118.13327480000044,33.723228799999561],[-118.1332065000006,33.723498299999846],[-118.13319389999924,33.723547800000233],[-118.13318099999924,33.723599099999774],[-118.13317930000085,33.723605799999859],[-118.1331597999997,33.723693199999616],[-118.13309479999953,33.723984700000074],[-118.13302160000057,33.724365100000796],[-118.13295950000065,33.724747000000207],[-118.13290869999946,33.725130000000718],[-118.13286909999988,33.725513999999748],[-118.13284080000085,33.725898599999709],[-118.13282389999949,33.72628369999984],[-118.13281819999975,33.726668999999674],[-118.13282389999949,33.727054299999509],[-118.13284080000085,33.727439399999639],[-118.13286909999988,33.727824100000362],[-118.13289760000043,33.728100300000733],[-118.13290869999946,33.72820800000045],[-118.13295950000065,33.728590999999142],[-118.13302160000057,33.72897279999961],[-118.13309479999953,33.729353299999275],[-118.13317930000085,33.729732100000547],[-118.13327480000044,33.730109100000846],[-118.13338130000011,33.730483999999706],[-118.13349890000063,33.730856599999242],[-118.13362729999972,33.731226699999752],[-118.13376659999994,33.731594000000769],[-118.13391659999979,33.731958399999712],[-118.13395540000056,33.732365199999549],[-118.13412670000071,33.732722999999169],[-118.13430840000001,33.733077099999718],[-118.13450039999952,33.73342749999938],[-118.13470269999925,33.733773699999801],[-118.13491509999949,33.734115799999927],[-118.13513749999947,33.734453299999586],[-118.1353696999995,33.734786200000599],[-118.13561160000063,33.735114299999623],[-118.13586310000028,33.73543729999983],[-118.13612400000056,33.735754999999699],[-118.13639420000072,33.736067300000286],[-118.13667349999923,33.736373899999307],[-118.13696159999927,33.736674699999639],[-118.13725859999977,33.736969600000521],[-118.13756409999951,33.737258200000724],[-118.13787799999955,33.73754050000025],[-118.13819999999942,33.737816299999395],[-118.13853009999912,33.738085400000273],[-118.138868,33.738347599999543],[-118.13921350000055,33.738602900000842],[-118.13925159999962,33.738629699999365],[-118.13930690000052,33.738626000000295],[-118.13968150000073,33.738748899999337],[-118.14013739999973,33.739093899999716],[-118.14048569999977,33.739394599999287],[-118.14052479999918,33.739464899999803],[-118.14066710000043,33.73955080000087],[-118.14104740000039,33.739768800000093],[-118.14143399999921,33.739978899999187],[-118.14182660000006,33.740180999999211],[-118.14222510000036,33.740374999999403],[-118.1426291000007,33.740560800000821],[-118.14303850000033,33.740738200000123],[-118.14345289999983,33.740907199999128],[-118.14387220000026,33.741067700000713],[-118.14429609999934,33.741219499999715],[-118.14472439999918,33.741362500000832],[-118.14515670000037,33.741496799999368],[-118.14534900000035,33.741552100000263],[-118.14559279999958,33.741622100000313],[-118.14603239999997,33.741738500000793],[-118.14647540000078,33.741845799999282],[-118.14692130000003,33.741943900000479],[-118.14737009999953,33.742033000000447],[-118.14782120000018,33.742112800000541],[-118.14827469999909,33.742183300000761],[-118.1487300000008,33.742244499999288],[-118.14918700000089,33.742296300000817],[-118.14964540000074,33.742338800000653],[-118.15010489999986,33.742371799999091],[-118.15056519999962,33.742395400000532],[-118.15102610000031,33.742409599999519],[-118.1514872000007,33.742414300000746],[-118.15194840000004,33.742409599999519],[-118.15240919999997,33.742395400000532],[-118.15286960000049,33.742371799999091],[-118.15332909999961,33.742338699999891],[-118.15378740000051,33.742296300000817],[-118.15424440000061,33.742244400000345],[-118.15469979999943,33.742183199999999],[-118.15515310000046,33.74211269999978],[-118.15560430000005,33.742032899999685],[-118.15605300000061,33.741943900000479],[-118.15649900000062,33.74184570000034],[-118.15694190000067,33.741738400000031],[-118.15738160000001,33.741621999999552],[-118.15781769999921,33.741496700000425],[-118.15825000000041,33.741362400000071],[-118.15867819999949,33.741219400000773],[-118.15910210000038,33.741067599999951],[-118.15952140000081,33.740907100000186],[-118.15993580000031,33.740738099999362],[-118.16034519999994,33.74056070000006],[-118.16074920000028,33.740374900000461],[-118.16114770000058,33.740180900000269],[-118.16154029999961,33.739978800000245],[-118.16192690000025,33.739768699999331],[-118.16230720000021,33.739550700000109],[-118.16268099999979,33.739325000000463],[-118.16304800000034,33.739091699999335],[-118.16340809999929,33.738850899999306],[-118.16376090000085,33.738602800000081],[-118.16410639999958,33.738347599999543],[-118.16444430000047,33.738085400000273],[-118.16477440000017,33.737816299999395],[-118.1650965000008,33.73754050000025],[-118.16541040000084,33.737258200000724],[-118.16571590000058,33.736969600000521],[-118.16601280000032,33.736674699999639],[-118.16630099999929,33.736373899999307],[-118.16658020000068,33.736067300000286],[-118.16685040000084,33.735754999999699],[-118.16711129999931,33.73543729999983],[-118.16736280000077,33.735114299999623],[-118.16760470000008,33.734786200000599],[-118.16783700000087,33.734453299999586],[-118.1680593000001,33.734115799999927],[-118.16827170000033,33.733773699999801],[-118.16847400000006,33.73342749999938],[-118.16866610000034,33.733077099999718],[-118.16884779999964,33.732722999999169],[-118.16901900000084,33.732365199999549],[-118.16917970000031,33.732003999999506],[-118.16932970000016,33.731639600000562],[-118.16946900000039,33.731272299999546],[-118.16959750000024,33.730902200000855],[-118.169715,33.7305295999995],[-118.16982160000043,33.730154700000639],[-118.16991710000002,33.729777700000341],[-118.17000150000058,33.729398900000888],[-118.17007480000029,33.729018399999404],[-118.17013679999945,33.728636600000755],[-118.17018769999959,33.728253600000244],[-118.17022720000023,33.727869700000156],[-118.17025549999926,33.727484999999433],[-118.17027249999956,33.727099899999303],[-118.17027810000036,33.726714599999468],[-118.17027249999956,33.726329299999634],[-118.17025549999926,33.725944199999503],[-118.17022720000023,33.725559599999542],[-118.17018769999959,33.725175600000512],[-118.17013679999945,33.724792600000001],[-118.17007480000029,33.72441070000059],[-118.17000150000058,33.724030299999868],[-118.16991710000002,33.723651399999653],[-118.16982699999971,33.723295699999653],[-118.16964310000003,33.723295699999653],[-118.16859320000003,33.723295699999653],[-118.16799530000026,33.723295699999653],[-118.16700490000039,33.723295699999653],[-118.16619589999937,33.723295699999653],[-118.16516079999928,33.723295699999653],[-118.1645754000001,33.723295699999653],[-118.16439639999953,33.72329610000088],[-118.1626653000003,33.723300100000415],[-118.16107729999931,33.723303799999485],[-118.15866319999986,33.723309299999528],[-118.15822169999956,33.723309299999528],[-118.15587199999936,33.723309299999528],[-118.15331800000058,33.723309299999528],[-118.15226110000003,33.723313300000882],[-118.15142259999993,33.723316499999783],[-118.15105790000052,33.723317800000586],[-118.14615860000049,33.723336299999573],[-118.14516440000079,33.723336299999573],[-118.14514659999986,33.723336299999573],[-118.13928710000073,33.723336299999573],[-118.13806769999974,33.723336299999573],[-118.13686109999981,33.723336299999573],[-118.13686109999981,33.723282499999186],[-118.13686109999981,33.723243799999182],[-118.13686109999981,33.723220399999263],[-118.13686109999981,33.723163900000145],[-118.13686109999981,33.723146800000904],[-118.13706420000017,33.723146599999382],[-118.1455107999991,33.723139699999592],[-118.14635730000009,33.723144199999297],[-118.14827879999939,33.723154400000567],[-118.15105790000052,33.723169099999723],[-118.15416019999975,33.723173899999892],[-118.16049969999949,33.723173899999892],[-118.16308380000009,33.723173899999892],[-118.16417039999942,33.723173899999892],[-118.16555630000039,33.723193399999218],[-118.16925149999952,33.723190599999725],[-118.16944549999971,33.723190500000783],[-118.16979800000081,33.723191600000064],[-118.169715,33.722899399999733]]]},"properties":{"OBJL":4,"CATACH":"explosives anchorage","OBJNAM":null,"INFORM":"33 CFR 110.214","SCAMIN":119999,"SORDAT":"20090410","SORIND":"US,US,graph,Chart 18746","DSNM":"US4CA60M.000","APPROACH.ACHARE_POLYGON.FID":60546,"SHAPE.AREA":0.00091916387548500098,"SHAPE.LEN":0.174482191474992}},{"type":"Feature","id":60504,"geometry":{"type":"Polygon","coordinates":[[[-118.31542799999988,33.34601450000082],[-118.31481010000061,33.346047299999555],[-118.31395759999941,33.346250799999325],[-118.31326930000068,33.346559300000081],[-118.31272180000087,33.346907200000715],[-118.31221329999971,33.347294600000168],[-118.3116657999999,33.347970700000587],[-118.31152060000022,33.348275399999693],[-118.31129040000087,33.348758399999497],[-118.3111573999995,33.349427999999534],[-118.31114960000014,33.350018799999816],[-118.31124350000027,33.350576799999544],[-118.31149369999912,33.351187300000674],[-118.31191609999951,33.351935599999706],[-118.31215949999932,33.352204200000415],[-118.3123384999999,33.352401699999973],[-118.3130971999999,33.352834900000744],[-118.31395759999941,33.353195899999264],[-118.31449729999986,33.353346899999451],[-118.31531069999983,33.353458499999761],[-118.31598339999982,33.353451900000437],[-118.31663259999914,33.353359999999157],[-118.3173599999991,33.353156499999386],[-118.31796229999964,33.352887400000327],[-118.31861150000077,33.352467299999262],[-118.31902599999921,33.352112799999304],[-118.31940150000082,33.351659899999504],[-118.31974559999981,33.351082200000747],[-118.31992549999995,33.350544000000809],[-118.3200037000006,33.350136999999449],[-118.32001940000009,33.349546199999168],[-118.31994900000063,33.349014499999612],[-118.31974559999981,33.348384299999452],[-118.31962550000026,33.348180599999978],[-118.31938579999951,33.347773800000141],[-118.31937400000061,33.347760599999674],[-118.31889299999966,33.347222300000794],[-118.31880169999931,33.347155499999644],[-118.31864599999972,33.347041700000773],[-118.31810310000037,33.34664469999916],[-118.31732870000087,33.346283599999879],[-118.31660129999909,33.346080100000108],[-118.31542799999988,33.34601450000082]]]},"properties":{"OBJL":4,"CATACH":" ","OBJNAM":"Avalon Bay Anchorage A","INFORM":"33 CFR 110.216","SCAMIN":89999,"SORDAT":"200409","SORIND":"US,US,graph,Chart 18757","DSNM":"US4CA1ET.000","APPROACH.ACHARE_POLYGON.FID":60504,"SHAPE.AREA":5.2022180035000001e-05,"SHAPE.LEN":0.025761655555562701}},{"type":"Feature","id":60548,"geometry":{"type":"Polygon","coordinates":[[[-118.1883056000006,33.718166700000438],[-118.20516669999961,33.718166700000438],[-118.23866669999916,33.707166700000016],[-118.21700000000055,33.680666700000074],[-118.20527779999975,33.684138900000107],[-118.19333329999972,33.70299999999952],[-118.1883056000006,33.718166700000438]]]},"properties":{"OBJL":4,"CATACH":" ","OBJNAM":"Commercial Anchorage G","INFORM":"Vessels are prohibited from entering Anchorage G unless bound for a berth in that anchorage. 33 CFR 110.214","SCAMIN":119999,"SORDAT":"20250909","SORIND":"US,US,reprt,L-383-2025","DSNM":"US4CA60M.000","APPROACH.ACHARE_POLYGON.FID":60548,"SHAPE.AREA":0.0010923277250000001,"SHAPE.LEN":0.13687999070703999}},{"type":"Feature","id":60547,"geometry":{"type":"Polygon","coordinates":[[[-118.13444440000058,33.718083300000217],[-118.17569440000079,33.718055600000298],[-118.16522219999933,33.703694399999222],[-118.15894440000011,33.680916699999216],[-118.12883329999931,33.643388899999991],[-118.1142777999994,33.679000000000087],[-118.13444440000058,33.718083300000217]]]},"properties":{"OBJL":4,"CATACH":" ","OBJNAM":"Commercial Anchorage F","INFORM":"33 CFR 110.214","SCAMIN":119999,"SORDAT":"20250909","SORIND":"US,US,reprt,L-383-2025","DSNM":"US4CA60M.000","APPROACH.ACHARE_POLYGON.FID":60547,"SHAPE.AREA":0.0023548289015449999,"SHAPE.LEN":0.21321590734938201}}]}