{"type":"FeatureCollection","features":[{"type":"Feature","id":28033,"geometry":{"type":"Polygon","coordinates":[[[-118.4849936999999,33.995320300000458],[-118.48533970000062,33.994942499999524],[-118.48575870000059,33.994444100000692],[-118.48609489999944,33.994028299999627],[-118.48615079999945,33.993959100000211],[-118.48643599999923,33.993652299999667],[-118.48649540000042,33.993642400000681],[-118.4866022999995,33.993672099999458],[-118.48674489999939,33.993662200000472],[-118.48678049999944,33.993583100000251],[-118.48673299999973,33.993464299999687],[-118.48663800000031,33.9934147999993],[-118.48648350000076,33.993444499999896],[-118.48576510000021,33.993761699999595],[-118.48540230000071,33.993919599999572],[-118.48463269999957,33.994286999999531],[-118.48419830000057,33.994485900000655],[-118.48455920000015,33.994876000000659],[-118.4849936999999,33.995320300000458]]]},"properties":{"OBJL":122,"CATSLC":"pier","COLOUR":null,"COLPAT":null,"CONDTN":2,"CONRAD":null,"CONVIS":null,"HEIGHT":null,"HORACC":null,"HORCLR":null,"HORLEN":null,"HORWID":null,"NATCON":null,"OBJNAM":null,"VERACC":null,"VERDAT":null,"VERLEN":null,"WATLEV":3,"INFORM":null,"SCAMIN":null,"SORDAT":"20090317","SORIND":"US,US,graph,Chart 18744","DSNM":"US5CA63M.000","HARBOUR.SLCONS_POLYGON.FID":28033,"SHAPE.AREA":1.5695742399999999e-06,"SHAPE.LEN":0.0066636657861484198}},{"type":"Feature","id":28872,"geometry":{"type":"Polygon","coordinates":[[[-118.2705377000002,33.73493899999994],[-118.27053010000054,33.734999000000244],[-118.2705148999994,33.735119400000258],[-118.27045200000066,33.735114299999623],[-118.27044810000007,33.735160199999882],[-118.27040459999989,33.735157799999797],[-118.27040400000078,33.735170399999333],[-118.27043960000083,33.735176300000603],[-118.27061309999954,33.735192500000267],[-118.27090769999995,33.735218699999677],[-118.27091099999961,33.735219000000143],[-118.27093299999979,33.735222299999805],[-118.27111879999939,33.7352434000004],[-118.2711345000007,33.735110999999961],[-118.27113690000078,33.735090300000593],[-118.27102879999984,33.735084899999492],[-118.27095430000008,33.735110300000088],[-118.27090689999932,33.735107399999833],[-118.2708118999999,33.735101700000087],[-118.27070959999946,33.735014600000795],[-118.27066489999925,33.734980499999438],[-118.27059249999911,33.734948100000111],[-118.27056509999966,33.734941400000025],[-118.2705377000002,33.73493899999994]]]},"properties":{"OBJL":122,"CATSLC":"pier","COLOUR":null,"COLPAT":null,"CONDTN":2,"CONRAD":null,"CONVIS":null,"HEIGHT":null,"HORACC":null,"HORCLR":null,"HORLEN":null,"HORWID":null,"NATCON":null,"OBJNAM":null,"VERACC":null,"VERDAT":null,"VERLEN":null,"WATLEV":3,"INFORM":null,"SCAMIN":null,"SORDAT":"20011201","SORIND":"US,US,graph,Chart 18751","DSNM":"US5LGBCD.000","HARBOUR.SLCONS_POLYGON.FID":28872,"SHAPE.AREA":1.03099035e-07,"SHAPE.LEN":0.0018752255633566501}},{"type":"Feature","id":28878,"geometry":{"type":"Polygon","coordinates":[[[-118.2668536000001,33.738269800000126],[-118.26668249999966,33.73798910000005],[-118.2662337999991,33.737266399999498],[-118.26622479999969,33.737250199999835],[-118.26619050000045,33.73726809999971],[-118.26615999999922,33.737283200000093],[-118.26650189999964,33.737924200000634],[-118.26657829999931,33.738057299999127],[-118.2665180999993,33.738081100000272],[-118.26658280000083,33.738191899999947],[-118.26663399999961,33.738278999999238],[-118.26667289999932,33.738344199999119],[-118.26667369999996,33.738345600000684],[-118.26669369999945,33.738379200000054],[-118.26683980000053,33.738323100000343],[-118.26687730000049,33.738308699999834],[-118.2668536000001,33.738269800000126]]]},"properties":{"OBJL":122,"CATSLC":"pier","COLOUR":null,"COLPAT":null,"CONDTN":2,"CONRAD":null,"CONVIS":null,"HEIGHT":null,"HORACC":null,"HORCLR":null,"HORLEN":null,"HORWID":null,"NATCON":null,"OBJNAM":null,"VERACC":null,"VERDAT":null,"VERLEN":null,"WATLEV":3,"INFORM":null,"SCAMIN":null,"SORDAT":"20070926","SORIND":"US,US,reprt,DD-9726","DSNM":"US5LGBCD.000","HARBOUR.SLCONS_POLYGON.FID":28878,"SHAPE.AREA":1.5551709000000001e-07,"SHAPE.LEN":0.00280353855475231}},{"type":"Feature","id":28892,"geometry":{"type":"Polygon","coordinates":[[[-118.26312189999953,33.76603520000026],[-118.26311969999915,33.765933500000756],[-118.26306789999944,33.765928000000713],[-118.26306140000088,33.765766399999848],[-118.26302249999935,33.765766399999848],[-118.26302249999935,33.76578309999968],[-118.26302249999935,33.765922599999612],[-118.2630420000005,33.766073999999207],[-118.26257310000074,33.766108100000565],[-118.26258419999976,33.766253800000413],[-118.26265410000087,33.766250500000751],[-118.26301410000087,33.766233300000749],[-118.26310899999953,33.766228799999226],[-118.26312110000072,33.766228200000114],[-118.26312610000059,33.766224299999521],[-118.26312189999953,33.76603520000026]]]},"properties":{"OBJL":122,"CATSLC":"pier","COLOUR":null,"COLPAT":null,"CONDTN":2,"CONRAD":null,"CONVIS":null,"HEIGHT":null,"HORACC":null,"HORCLR":null,"HORLEN":null,"HORWID":null,"NATCON":null,"OBJNAM":null,"VERACC":null,"VERDAT":null,"VERLEN":null,"WATLEV":3,"INFORM":null,"SCAMIN":null,"SORDAT":"20211111","SORIND":"US,US,graph,GC-11787","DSNM":"US5LGBDD.000","HARBOUR.SLCONS_POLYGON.FID":28892,"SHAPE.AREA":1.0297094999999999e-07,"SHAPE.LEN":0.0020125545343665299}},{"type":"Feature","id":28875,"geometry":{"type":"Polygon","coordinates":[[[-118.25313800000004,33.746445299999323],[-118.25308430000041,33.746527499999502],[-118.25344489999952,33.746667100000195],[-118.25344539999969,33.746666299999561],[-118.25349140000071,33.74658830000044],[-118.25349350000033,33.746584799999255],[-118.25313800000004,33.746445299999323]]]},"properties":{"OBJL":122,"CATSLC":"pier","COLOUR":null,"COLPAT":null,"CONDTN":2,"CONRAD":null,"CONVIS":null,"HEIGHT":null,"HORACC":null,"HORCLR":null,"HORLEN":null,"HORWID":null,"NATCON":null,"OBJNAM":null,"VERACC":null,"VERDAT":null,"VERLEN":null,"WATLEV":3,"INFORM":null,"SCAMIN":null,"SORDAT":"20011201","SORIND":"US,US,graph,Chart 18751","DSNM":"US5LGBCD.000","HARBOUR.SLCONS_POLYGON.FID":28875,"SHAPE.AREA":3.6587330000000001e-08,"SHAPE.LEN":0.00096233464078965096}},{"type":"Feature","id":28874,"geometry":{"type":"Polygon","coordinates":[[[-118.25231709999935,33.74818360000063],[-118.25190789999942,33.748003500000777],[-118.25185679999959,33.748098199999731],[-118.25225560000035,33.748274999999921],[-118.25231189999977,33.748192799999742],[-118.25231709999935,33.74818360000063]]]},"properties":{"OBJL":122,"CATSLC":"pier","COLOUR":null,"COLPAT":null,"CONDTN":2,"CONRAD":null,"CONVIS":null,"HEIGHT":null,"HORACC":null,"HORCLR":null,"HORLEN":null,"HORWID":null,"NATCON":null,"OBJNAM":null,"VERACC":null,"VERDAT":null,"VERLEN":null,"WATLEV":3,"INFORM":null,"SCAMIN":null,"SORDAT":"20011201","SORIND":"US,US,graph,Chart 18751","DSNM":"US5LGBCD.000","HARBOUR.SLCONS_POLYGON.FID":28874,"SHAPE.AREA":4.7684194999999998e-08,"SHAPE.LEN":0.0011011206582047402}},{"type":"Feature","id":28881,"geometry":{"type":"Polygon","coordinates":[[[-118.25775620000059,33.762929399999848],[-118.25772440000037,33.762905199999295],[-118.25765780000074,33.762982399999601],[-118.2576852000002,33.763001900000745],[-118.25778849999915,33.763075700000627],[-118.25782289999916,33.76304379999965],[-118.25786169999992,33.763009399999646],[-118.25775620000059,33.762929399999848]]]},"properties":{"OBJL":122,"CATSLC":"pier","COLOUR":null,"COLPAT":null,"CONDTN":2,"CONRAD":null,"CONVIS":null,"HEIGHT":null,"HORACC":null,"HORCLR":null,"HORLEN":null,"HORWID":null,"NATCON":null,"OBJNAM":null,"VERACC":null,"VERDAT":null,"VERLEN":null,"WATLEV":3,"INFORM":null,"SCAMIN":null,"SORDAT":"200908","SORIND":"US,US,graph,Chart 18751","DSNM":"US5LGBDD.000","HARBOUR.SLCONS_POLYGON.FID":28881,"SHAPE.AREA":1.6481510000000001e-08,"SHAPE.LEN":0.00053367334162619405}},{"type":"Feature","id":28876,"geometry":{"type":"Polygon","coordinates":[[[-118.22206929999993,33.744878999999855],[-118.22205609999946,33.744974699999148],[-118.22205489999942,33.74498339999991],[-118.22205369999938,33.744991999999911],[-118.2220453000009,33.745059099999708],[-118.22213340000053,33.745067199999539],[-118.22224149999965,33.74507690000064],[-118.22225910000088,33.74493959999927],[-118.22226029999911,33.744929899999988],[-118.22226480000063,33.744896800000788],[-118.22217930000079,33.744888699999137],[-118.22206929999993,33.744878999999855]]]},"properties":{"OBJL":122,"CATSLC":"pier","COLOUR":null,"COLPAT":null,"CONDTN":2,"CONRAD":null,"CONVIS":null,"HEIGHT":null,"HORACC":null,"HORCLR":null,"HORLEN":null,"HORWID":null,"NATCON":null,"OBJNAM":null,"VERACC":null,"VERDAT":null,"VERLEN":null,"WATLEV":3,"INFORM":null,"SCAMIN":null,"SORDAT":"20011201","SORIND":"US,US,graph,Chart 18751","DSNM":"US5LGBCD.000","HARBOUR.SLCONS_POLYGON.FID":28876,"SHAPE.AREA":3.5766329999999997e-08,"SHAPE.LEN":0.00075661294490019903}},{"type":"Feature","id":28856,"geometry":{"type":"Polygon","coordinates":[[[-118.22195470000042,33.745562599999175],[-118.22193069999958,33.745742700000847],[-118.22201619999942,33.745750800000678],[-118.22212690000015,33.745760600000722],[-118.22215089999918,33.74558050000087],[-118.22205179999946,33.745571299999938],[-118.22195470000042,33.745562599999175]]]},"properties":{"OBJL":122,"CATSLC":"pier","COLOUR":null,"COLPAT":null,"CONDTN":2,"CONRAD":null,"CONVIS":null,"HEIGHT":null,"HORACC":null,"HORCLR":null,"HORLEN":null,"HORWID":null,"NATCON":null,"OBJNAM":null,"VERACC":null,"VERDAT":null,"VERLEN":null,"WATLEV":3,"INFORM":null,"SCAMIN":null,"SORDAT":"20011201","SORIND":"US,US,graph,Chart 18751","DSNM":"US5LGBCD.000","HARBOUR.SLCONS_POLYGON.FID":28856,"SHAPE.AREA":3.5810179999999999e-08,"SHAPE.LEN":0.00075741501587589597}},{"type":"Feature","id":28884,"geometry":{"type":"Polygon","coordinates":[[[-118.22703189999993,33.755966900000203],[-118.22702869999921,33.755960399999822],[-118.22686059999978,33.755993299999318],[-118.2268853000005,33.756048400000509],[-118.22691909999958,33.756123900000603],[-118.22692339999958,33.756133499999123],[-118.2269510999995,33.756195100000696],[-118.22711969999909,33.756144400000267],[-118.2270824999996,33.756069099999877],[-118.22706830000061,33.75604039999962],[-118.22706599999947,33.756035799999154],[-118.22704300000078,33.755989400000544],[-118.22703189999993,33.755966900000203]]]},"properties":{"OBJL":122,"CATSLC":"pier","COLOUR":null,"COLPAT":null,"CONDTN":2,"CONRAD":null,"CONVIS":null,"HEIGHT":null,"HORACC":null,"HORCLR":null,"HORLEN":null,"HORWID":null,"NATCON":null,"OBJNAM":null,"VERACC":null,"VERDAT":null,"VERLEN":null,"WATLEV":3,"INFORM":null,"SCAMIN":null,"SORDAT":"20130118","SORIND":"US,US,graph,Chart 18751","DSNM":"US5LGBDD.000","HARBOUR.SLCONS_POLYGON.FID":28884,"SHAPE.AREA":3.6275625000000003e-08,"SHAPE.LEN":0.00077378446341492407}},{"type":"Feature","id":28899,"geometry":{"type":"Polygon","coordinates":[[[-118.19934599999942,33.763191300000472],[-118.19939979999981,33.763191300000472],[-118.19939879999947,33.763173100000131],[-118.19939890000023,33.763160200000129],[-118.19939979999981,33.763059900000371],[-118.19939979999981,33.762978400000065],[-118.19939979999981,33.762866400000348],[-118.19939569999951,33.762866400000348],[-118.19930779999959,33.762866400000348],[-118.19929869999942,33.762940500000695],[-118.19929570000022,33.762964600000487],[-118.19929179999963,33.763066499999695],[-118.19929020000018,33.763107299999319],[-118.19928609999988,33.763178699999116],[-118.19928570000047,33.763186199999836],[-118.19932420000077,33.763189499999498],[-118.19934599999942,33.763191300000472]]]},"properties":{"OBJL":122,"CATSLC":"pier","COLOUR":null,"COLPAT":null,"CONDTN":null,"CONRAD":null,"CONVIS":null,"HEIGHT":null,"HORACC":null,"HORCLR":null,"HORLEN":null,"HORWID":null,"NATCON":null,"OBJNAM":null,"VERACC":null,"VERDAT":null,"VERLEN":null,"WATLEV":2,"INFORM":null,"SCAMIN":null,"SORDAT":"20011201","SORIND":"US,US,graph,Chart 18751","DSNM":"US5LGBDE.000","HARBOUR.SLCONS_POLYGON.FID":28899,"SHAPE.AREA":3.4061585000000008e-08,"SHAPE.LEN":0.00085202416223080903}},{"type":"Feature","id":28870,"geometry":{"type":"Polygon","coordinates":[[[-118.26542669999981,33.73649259999911],[-118.26527220000025,33.736538200000723],[-118.26518299999952,33.736564500000895],[-118.26515049999944,33.736574099999416],[-118.26498549999997,33.736622799999168],[-118.26498849999916,33.736627800000861],[-118.26499010000043,33.736630499999592],[-118.26499589999912,33.73663999999917],[-118.26500230000056,33.736651100000017],[-118.26502950000031,33.736698500000784],[-118.26505240000006,33.736738400000831],[-118.26521540000067,33.736688200000572],[-118.26525829999991,33.736675000000105],[-118.26526000000013,33.736674499999936],[-118.26548120000007,33.7366063999998],[-118.26542669999981,33.73649259999911]]]},"properties":{"OBJL":122,"CATSLC":"pier","COLOUR":null,"COLPAT":null,"CONDTN":2,"CONRAD":null,"CONVIS":null,"HEIGHT":null,"HORACC":null,"HORCLR":null,"HORLEN":null,"HORWID":null,"NATCON":null,"OBJNAM":null,"VERACC":null,"VERDAT":null,"VERLEN":null,"WATLEV":3,"INFORM":null,"SCAMIN":null,"SORDAT":"20131103","SORIND":"US,US,graph,H-12617","DSNM":"US5LGBCD.000","HARBOUR.SLCONS_POLYGON.FID":28870,"SHAPE.AREA":5.782476e-08,"SHAPE.LEN":0.00116841229647315}},{"type":"Feature","id":28863,"geometry":{"type":"Polygon","coordinates":[[[-118.26360009999917,33.734624599999734],[-118.26373280000007,33.734624599999734],[-118.26388170000064,33.734417100000428],[-118.26391990000047,33.73436380000021],[-118.26401889999943,33.734226399999898],[-118.26402609999968,33.734216700000616],[-118.26398660000086,33.734195600000021],[-118.26397399999951,33.734188700000232],[-118.26393020000069,33.734164800000144],[-118.26392250000026,33.734176100000695],[-118.26388530000077,33.734227700000702],[-118.26377870000033,33.734375699999873],[-118.26375799999914,33.73440440000013],[-118.26369949999935,33.734485999999379],[-118.26360009999917,33.734624599999734]]]},"properties":{"OBJL":122,"CATSLC":"pier","COLOUR":null,"COLPAT":null,"CONDTN":2,"CONRAD":null,"CONVIS":null,"HEIGHT":null,"HORACC":null,"HORCLR":null,"HORLEN":null,"HORWID":null,"NATCON":null,"OBJNAM":null,"VERACC":null,"VERDAT":null,"VERLEN":null,"WATLEV":3,"INFORM":null,"SCAMIN":null,"SORDAT":"20011201","SORIND":"US,US,graph,Chart 18751","DSNM":"US5LGBCD.000","HARBOUR.SLCONS_POLYGON.FID":28863,"SHAPE.AREA":5.7559150000000001e-08,"SHAPE.LEN":0.0013101751235484601}},{"type":"Feature","id":28867,"geometry":{"type":"Polygon","coordinates":[[[-118.24407330000031,33.711040300000604],[-118.2439716000008,33.711082399999214],[-118.24394740000025,33.711090200000399],[-118.24394709999979,33.711090299999341],[-118.24332800000047,33.711288500000592],[-118.24329430000034,33.711299299999155],[-118.24334230000022,33.711379099999249],[-118.24335839999912,33.711415300000226],[-118.24336489999951,33.711430499999551],[-118.24337000000014,33.711440099999891],[-118.24337659999946,33.711452699999427],[-118.24341090000053,33.711439700000483],[-118.24386640000012,33.711279499999364],[-118.24407389999942,33.711206500000117],[-118.24414640000032,33.711179899999479],[-118.24414179999985,33.711169700000028],[-118.24414120000074,33.711168600000747],[-118.24412110000048,33.711123099999895],[-118.24407330000031,33.711040300000604]]]},"properties":{"OBJL":122,"CATSLC":"pier","COLOUR":null,"COLPAT":null,"CONDTN":2,"CONRAD":null,"CONVIS":null,"HEIGHT":null,"HORACC":null,"HORCLR":null,"HORLEN":null,"HORWID":null,"NATCON":null,"OBJNAM":null,"VERACC":null,"VERDAT":null,"VERLEN":null,"WATLEV":3,"INFORM":null,"SCAMIN":null,"SORDAT":"20011201","SORIND":"US,US,graph,Chart 18751","DSNM":"US5LGBCD.000","HARBOUR.SLCONS_POLYGON.FID":28867,"SHAPE.AREA":1.3086438499999999e-07,"SHAPE.LEN":0.00197013534191577}},{"type":"Feature","id":28871,"geometry":{"type":"Polygon","coordinates":[[[-118.22190220000084,33.745856300000014],[-118.22187830000075,33.746036399999866],[-118.22207449999951,33.74605370000063],[-118.22209780000048,33.745873600000778],[-118.22201099999984,33.745865999999296],[-118.22190220000084,33.745856300000014]]]},"properties":{"OBJL":122,"CATSLC":"pier","COLOUR":null,"COLPAT":null,"CONDTN":2,"CONRAD":null,"CONVIS":null,"HEIGHT":null,"HORACC":null,"HORCLR":null,"HORLEN":null,"HORWID":null,"NATCON":null,"OBJNAM":null,"VERACC":null,"VERDAT":null,"VERLEN":null,"WATLEV":3,"INFORM":null,"SCAMIN":null,"SORDAT":"20011201","SORIND":"US,US,graph,Chart 18751","DSNM":"US5LGBCD.000","HARBOUR.SLCONS_POLYGON.FID":28871,"SHAPE.AREA":3.5682330000000001e-08,"SHAPE.LEN":0.00075660469522417198}},{"type":"Feature","id":28888,"geometry":{"type":"Polygon","coordinates":[[[-118.22256179999931,33.765909300000203],[-118.22255419999965,33.765909100000499],[-118.22249670000019,33.765897900000709],[-118.22248770000078,33.765899300000456],[-118.22238020000077,33.765915899999527],[-118.22248620000028,33.76612539999951],[-118.2225610000005,33.766222399999606],[-118.22258560000046,33.76621139999952],[-118.22260339999957,33.76620340000045],[-118.22262380000029,33.766194300000279],[-118.22271089999958,33.766155200000867],[-118.22270919999937,33.766151699999682],[-118.22269179999967,33.76611690000027],[-118.22259139999915,33.765915899999527],[-118.22258850000071,33.76591019999978],[-118.22258069999953,33.765910000000076],[-118.22256179999931,33.765909300000203]]]},"properties":{"OBJL":122,"CATSLC":"pier","COLOUR":null,"COLPAT":null,"CONDTN":2,"CONRAD":null,"CONVIS":null,"HEIGHT":null,"HORACC":null,"HORCLR":null,"HORLEN":null,"HORWID":null,"NATCON":null,"OBJNAM":null,"VERACC":null,"VERDAT":null,"VERLEN":null,"WATLEV":4,"INFORM":null,"SCAMIN":null,"SORDAT":"20011201","SORIND":"US,US,graph,Chart 18751","DSNM":"US5LGBDD.000","HARBOUR.SLCONS_POLYGON.FID":28888,"SHAPE.AREA":5.9002520000000002e-08,"SHAPE.LEN":0.0010062097353632101}},{"type":"Feature","id":28891,"geometry":{"type":"Polygon","coordinates":[[[-118.21616080000058,33.768924600000901],[-118.21615039999961,33.768928400000732],[-118.21610929999952,33.768943299999592],[-118.21609659999922,33.768949200000861],[-118.21611649999977,33.768986700000823],[-118.21612129999994,33.768995700000232],[-118.21612640000058,33.769005300000572],[-118.21612769999956,33.769019400000616],[-118.21619629999987,33.768986400000358],[-118.21618110000054,33.768959900000482],[-118.21616080000058,33.768924600000901]]]},"properties":{"OBJL":122,"CATSLC":"pier","COLOUR":null,"COLPAT":null,"CONDTN":2,"CONRAD":null,"CONVIS":null,"HEIGHT":null,"HORACC":null,"HORCLR":null,"HORLEN":null,"HORWID":null,"NATCON":null,"OBJNAM":null,"VERACC":null,"VERDAT":null,"VERLEN":null,"WATLEV":3,"INFORM":null,"SCAMIN":null,"SORDAT":"20070926","SORIND":"US,US,reprt,DD-9726","DSNM":"US5LGBDD.000","HARBOUR.SLCONS_POLYGON.FID":28891,"SHAPE.AREA":5.2015449999999997e-09,"SHAPE.LEN":0.00029387218574774204}},{"type":"Feature","id":28887,"geometry":{"type":"Polygon","coordinates":[[[-118.21589200000017,33.769033000000491],[-118.21588469999915,33.769035799999983],[-118.21586650000063,33.769042699999773],[-118.21580370000083,33.769069199999649],[-118.21582750000016,33.76910560000033],[-118.21583549999923,33.769117800000458],[-118.21578950000003,33.769134000000122],[-118.21582769999986,33.769192399999156],[-118.21595680000064,33.769140500000503],[-118.21592810000038,33.769093499999144],[-118.21592120000059,33.76908209999965],[-118.21591409999928,33.769070099999226],[-118.21589200000017,33.769033000000491]]]},"properties":{"OBJL":122,"CATSLC":"pier","COLOUR":null,"COLPAT":null,"CONDTN":2,"CONRAD":null,"CONVIS":null,"HEIGHT":null,"HORACC":null,"HORCLR":null,"HORLEN":null,"HORWID":null,"NATCON":null,"OBJNAM":null,"VERACC":null,"VERDAT":null,"VERLEN":null,"WATLEV":3,"INFORM":null,"SCAMIN":null,"SORDAT":"20070926","SORIND":"US,US,reprt,DD-9726","DSNM":"US5LGBDD.000","HARBOUR.SLCONS_POLYGON.FID":28887,"SHAPE.AREA":1.4782839999999999e-08,"SHAPE.LEN":0.00053674113148877102}},{"type":"Feature","id":28890,"geometry":{"type":"Polygon","coordinates":[[[-118.21013149999999,33.776254700000209],[-118.21011849999923,33.776236899999276],[-118.21010190000015,33.776244200000292],[-118.21006540000053,33.776260299999194],[-118.20999780000056,33.776288700000805],[-118.20994380000047,33.7763118999992],[-118.2099386000009,33.776314099999581],[-118.20990139999958,33.776257600000463],[-118.20989709999958,33.776251100000081],[-118.20980050000071,33.776287799999409],[-118.20979240000088,33.776290899999367],[-118.20983270000033,33.776382800000647],[-118.20992780000051,33.776341999999204],[-118.20999069999925,33.77631509999992],[-118.2101032999999,33.776266799999576],[-118.21013149999999,33.776254700000209]]]},"properties":{"OBJL":122,"CATSLC":"pier","COLOUR":null,"COLPAT":null,"CONDTN":2,"CONRAD":null,"CONVIS":null,"HEIGHT":null,"HORACC":null,"HORCLR":null,"HORLEN":null,"HORWID":null,"NATCON":null,"OBJNAM":null,"VERACC":null,"VERDAT":null,"VERLEN":null,"WATLEV":null,"INFORM":null,"SCAMIN":null,"SORDAT":"20181025","SORIND":"US,US,graph,GC-11573","DSNM":"US5LGBDD.000","HARBOUR.SLCONS_POLYGON.FID":28890,"SHAPE.AREA":1.5923625e-08,"SHAPE.LEN":0.000830710972855834}},{"type":"Feature","id":28896,"geometry":{"type":"Polygon","coordinates":[[[-118.19550600000002,33.762509500000306],[-118.19547649999913,33.762436999999409],[-118.19534159999967,33.762104999999792],[-118.19527689999995,33.762123399999837],[-118.19541329999993,33.762457999999242],[-118.19543999999951,33.762523499999588],[-118.19547170000078,33.762515899999926],[-118.19550600000002,33.762509500000306]]]},"properties":{"OBJL":122,"CATSLC":"pier","COLOUR":null,"COLPAT":null,"CONDTN":null,"CONRAD":null,"CONVIS":null,"HEIGHT":null,"HORACC":null,"HORCLR":null,"HORLEN":null,"HORWID":null,"NATCON":null,"OBJNAM":null,"VERACC":null,"VERDAT":null,"VERLEN":null,"WATLEV":2,"INFORM":null,"SCAMIN":null,"SORDAT":"20011201","SORIND":"US,US,graph,Chart 18751","DSNM":"US5LGBDE.000","HARBOUR.SLCONS_POLYGON.FID":28896,"SHAPE.AREA":2.8907090000000001e-08,"SHAPE.LEN":0.00100345462208663}},{"type":"Feature","id":28901,"geometry":{"type":"Polygon","coordinates":[[[-118.19350999999915,33.761597200000324],[-118.19354039999962,33.761608000000706],[-118.19356730000072,33.7615607000007],[-118.19362030000048,33.761467800000901],[-118.19374690000041,33.761245699999563],[-118.1937453999999,33.76124499999969],[-118.19368869999926,33.761218100000406],[-118.19350230000055,33.761536600000909],[-118.1934743999991,33.761584199999561],[-118.19350999999915,33.761597200000324]]]},"properties":{"OBJL":122,"CATSLC":"pier","COLOUR":null,"COLPAT":null,"CONDTN":null,"CONRAD":null,"CONVIS":null,"HEIGHT":null,"HORACC":null,"HORCLR":null,"HORLEN":null,"HORWID":null,"NATCON":null,"OBJNAM":null,"VERACC":null,"VERDAT":null,"VERLEN":null,"WATLEV":2,"INFORM":null,"SCAMIN":null,"SORDAT":"20011201","SORIND":"US,US,graph,Chart 18751","DSNM":"US5LGBDE.000","HARBOUR.SLCONS_POLYGON.FID":28901,"SHAPE.AREA":2.8016665000000001e-08,"SHAPE.LEN":0.00097580051454496108}},{"type":"Feature","id":28877,"geometry":{"type":"Polygon","coordinates":[[[-118.26561679999941,33.736936999999671],[-118.26567319999958,33.736917000000176],[-118.26561290000063,33.736812600000121],[-118.26532869999937,33.736931600000389],[-118.26537260000077,33.737006600000313],[-118.26538029999938,33.737019899999723],[-118.26538120000077,33.737021400000231],[-118.26561679999941,33.736936999999671]]]},"properties":{"OBJL":122,"CATSLC":"pier","COLOUR":null,"COLPAT":null,"CONDTN":2,"CONRAD":null,"CONVIS":null,"HEIGHT":null,"HORACC":null,"HORCLR":null,"HORLEN":null,"HORWID":null,"NATCON":null,"OBJNAM":null,"VERACC":null,"VERDAT":null,"VERLEN":null,"WATLEV":3,"INFORM":null,"SCAMIN":null,"SORDAT":"20011201","SORIND":"US,US,graph,Chart 18751","DSNM":"US5LGBCD.000","HARBOUR.SLCONS_POLYGON.FID":28877,"SHAPE.AREA":3.4248160000000001e-08,"SHAPE.LEN":0.0008427945299173021}},{"type":"Feature","id":28857,"geometry":{"type":"Polygon","coordinates":[[[-118.22084820000055,33.745877900000778],[-118.2208241999997,33.74605800000063],[-118.22093239999958,33.746068300000843],[-118.22102040000027,33.746075900000505],[-118.2210443999993,33.745895800000653],[-118.22096020000026,33.745888199999172],[-118.22084820000055,33.745877900000778]]]},"properties":{"OBJL":122,"CATSLC":"pier","COLOUR":null,"COLPAT":null,"CONDTN":2,"CONRAD":null,"CONVIS":null,"HEIGHT":null,"HORACC":null,"HORCLR":null,"HORLEN":null,"HORWID":null,"NATCON":null,"OBJNAM":null,"VERACC":null,"VERDAT":null,"VERLEN":null,"WATLEV":3,"INFORM":null,"SCAMIN":null,"SORDAT":"20011201","SORIND":"US,US,graph,Chart 18751","DSNM":"US5LGBCD.000","HARBOUR.SLCONS_POLYGON.FID":28857,"SHAPE.AREA":3.5799230000000002e-08,"SHAPE.LEN":0.00075741578137925101}},{"type":"Feature","id":28895,"geometry":{"type":"Polygon","coordinates":[[[-118.19787240000005,33.757018399999652],[-118.19787370000086,33.756985399999394],[-118.19749500000034,33.757000600000538],[-118.19750399999975,33.757132500000807],[-118.19783420000022,33.757119600000806],[-118.19788019999942,33.757119600000806],[-118.19787589999942,33.757063299999572],[-118.19787240000005,33.757018399999652]]]},"properties":{"OBJL":122,"CATSLC":"pier","COLOUR":null,"COLPAT":null,"CONDTN":2,"CONRAD":null,"CONVIS":null,"HEIGHT":null,"HORACC":null,"HORCLR":null,"HORLEN":null,"HORWID":null,"NATCON":null,"OBJNAM":null,"VERACC":null,"VERDAT":null,"VERLEN":null,"WATLEV":3,"INFORM":null,"SCAMIN":null,"SORDAT":"20011201","SORIND":"US,US,graph,Chart 18751","DSNM":"US5LGBDE.000","HARBOUR.SLCONS_POLYGON.FID":28895,"SHAPE.AREA":4.9839420000000002e-08,"SHAPE.LEN":0.00102218927722025}},{"type":"Feature","id":28893,"geometry":{"type":"Polygon","coordinates":[[[-118.19474719999926,33.762524100000519],[-118.19478479999998,33.76252999999997],[-118.19480889999977,33.762460199999623],[-118.19492010000067,33.76213800000005],[-118.19484630000079,33.762115800000174],[-118.19473509999989,33.762440599999536],[-118.19470969999929,33.762514899999587],[-118.19474719999926,33.762524100000519]]]},"properties":{"OBJL":122,"CATSLC":"pier","COLOUR":null,"COLPAT":null,"CONDTN":null,"CONRAD":null,"CONVIS":null,"HEIGHT":null,"HORACC":null,"HORCLR":null,"HORLEN":null,"HORWID":null,"NATCON":null,"OBJNAM":null,"VERACC":null,"VERDAT":null,"VERLEN":null,"WATLEV":2,"INFORM":null,"SCAMIN":null,"SORDAT":"20011201","SORIND":"US,US,graph,Chart 18751","DSNM":"US5LGBDE.000","HARBOUR.SLCONS_POLYGON.FID":28893,"SHAPE.AREA":3.2054249999999997e-08,"SHAPE.LEN":0.00099026141400340999}},{"type":"Feature","id":28034,"geometry":{"type":"Polygon","coordinates":[[[-118.48385769999913,33.993899799999781],[-118.48370199999954,33.993957000000592],[-118.48377690000052,33.994037799999205],[-118.48385769999913,33.993899799999781]]]},"properties":{"OBJL":122,"CATSLC":"pier","COLOUR":null,"COLPAT":null,"CONDTN":2,"CONRAD":null,"CONVIS":null,"HEIGHT":null,"HORACC":null,"HORCLR":null,"HORLEN":null,"HORWID":null,"NATCON":null,"OBJNAM":null,"VERACC":null,"VERDAT":null,"VERLEN":null,"WATLEV":3,"INFORM":null,"SCAMIN":null,"SORDAT":"20090317","SORIND":"US,US,graph,Chart 18744","DSNM":"US5CA63M.000","HARBOUR.SLCONS_POLYGON.FID":28034,"SHAPE.AREA":8.4324200000000005e-09,"SHAPE.LEN":0.00043596445935995502}},{"type":"Feature","id":28854,"geometry":{"type":"Polygon","coordinates":[[[-118.27864969999973,33.706371700000091],[-118.27866109999923,33.706364300000132],[-118.27880069999992,33.706194799999139],[-118.27898300000015,33.705932700000631],[-118.27987930000018,33.7048051999991],[-118.28001980000045,33.704620099999374],[-118.28001980000045,33.704560899999706],[-118.28001980000045,33.704558600000382],[-118.28001980000045,33.704539000000295],[-118.28001849999964,33.704538399999365],[-118.27999210000053,33.704524599999786],[-118.27995940000073,33.704507500000545],[-118.27995630000078,33.704505899999276],[-118.2799200999998,33.704487000000881],[-118.27985930000068,33.704489199999443],[-118.27977509999982,33.704570899999453],[-118.27916329999971,33.705375499999718],[-118.2788072000003,33.70583330000045],[-118.27871880000021,33.705939900000885],[-118.27834919999987,33.706425700000182],[-118.27817010000035,33.706661199999871],[-118.27804119999928,33.706827399999383],[-118.27739690000089,33.707662099999652],[-118.27730750000046,33.707777800000258],[-118.2773257000008,33.7077747000003],[-118.27742150000086,33.707758299999114],[-118.27742770000077,33.707757199999833],[-118.2774313000009,33.707752500000424],[-118.27748769999926,33.707678900000246],[-118.27750910000032,33.707656200000201],[-118.27755769999931,33.707599900000787],[-118.2780858999995,33.706903099999181],[-118.2782358000004,33.706730899999457],[-118.27850629999921,33.706381199999669],[-118.27855249999993,33.706321499999831],[-118.27858539999943,33.706335799999579],[-118.27864969999973,33.706371700000091]]]},"properties":{"OBJL":122,"CATSLC":"groin","COLOUR":null,"COLPAT":null,"CONDTN":null,"CONRAD":null,"CONVIS":null,"HEIGHT":null,"HORACC":null,"HORCLR":null,"HORLEN":null,"HORWID":null,"NATCON":null,"OBJNAM":null,"VERACC":null,"VERDAT":null,"VERLEN":null,"WATLEV":3,"INFORM":null,"SCAMIN":null,"SORDAT":"20011201","SORIND":"US,US,graph,Chart 18751","DSNM":"US5LGBCC.000","HARBOUR.SLCONS_POLYGON.FID":28854,"SHAPE.AREA":6.4886792500000006e-07,"SHAPE.LEN":0.00869936820730975}},{"type":"Feature","id":28883,"geometry":{"type":"Polygon","coordinates":[[[-118.25805659999969,33.762624799999685],[-118.25803919999998,33.762613799999599],[-118.25802339999973,33.762609199999133],[-118.25782919999983,33.762801200000467],[-118.25784489999933,33.762816500000554],[-118.25785840000026,33.762826000000132],[-118.25797500000044,33.762908000000607],[-118.25799019999977,33.762894600000436],[-118.25818609999988,33.762706299999991],[-118.25805659999969,33.762624799999685]]]},"properties":{"OBJL":122,"CATSLC":"pier","COLOUR":null,"COLPAT":null,"CONDTN":2,"CONRAD":null,"CONVIS":null,"HEIGHT":null,"HORACC":null,"HORCLR":null,"HORLEN":null,"HORWID":null,"NATCON":null,"OBJNAM":null,"VERACC":null,"VERDAT":null,"VERLEN":null,"WATLEV":3,"INFORM":null,"SCAMIN":null,"SORDAT":"20040727","SORIND":"US,US,reprt,CL-1071/04","DSNM":"US5LGBDD.000","HARBOUR.SLCONS_POLYGON.FID":28883,"SHAPE.AREA":5.1809849999999997e-08,"SHAPE.LEN":0.00093610518397310109}},{"type":"Feature","id":28864,"geometry":{"type":"Polygon","coordinates":[[[-118.25337500000023,33.746271699999852],[-118.2533328999998,33.746360400000412],[-118.25363959999959,33.746468900000764],[-118.25363970000035,33.746468699999241],[-118.25364760000048,33.746454000000085],[-118.25368549999985,33.746387099999993],[-118.25337500000023,33.746271699999852]]]},"properties":{"OBJL":122,"CATSLC":"pier","COLOUR":null,"COLPAT":null,"CONDTN":2,"CONRAD":null,"CONVIS":null,"HEIGHT":null,"HORACC":null,"HORCLR":null,"HORLEN":null,"HORWID":null,"NATCON":null,"OBJNAM":null,"VERACC":null,"VERDAT":null,"VERLEN":null,"WATLEV":3,"INFORM":null,"SCAMIN":null,"SORDAT":"20211111","SORIND":"US,US,graph,GC-11787","DSNM":"US5LGBCD.000","HARBOUR.SLCONS_POLYGON.FID":28864,"SHAPE.AREA":3.1219140000000001e-08,"SHAPE.LEN":0.00084856308295369902}},{"type":"Feature","id":28873,"geometry":{"type":"Polygon","coordinates":[[[-118.2533328999998,33.746953199999552],[-118.25304479999977,33.746833100000003],[-118.25300659999994,33.746893699999418],[-118.25276710000071,33.746790400000464],[-118.25273209999978,33.746869299999162],[-118.25328699999955,33.747098100000585],[-118.25336210000023,33.746968299999935],[-118.2533328999998,33.746953199999552]]]},"properties":{"OBJL":122,"CATSLC":"pier","COLOUR":null,"COLPAT":null,"CONDTN":2,"CONRAD":null,"CONVIS":null,"HEIGHT":null,"HORACC":null,"HORCLR":null,"HORLEN":null,"HORWID":null,"NATCON":null,"OBJNAM":null,"VERACC":null,"VERDAT":null,"VERLEN":null,"WATLEV":3,"INFORM":null,"SCAMIN":null,"SORDAT":"20011201","SORIND":"US,US,graph,Chart 18751","DSNM":"US5LGBCD.000","HARBOUR.SLCONS_POLYGON.FID":28873,"SHAPE.AREA":7.4380430000000006e-08,"SHAPE.LEN":0.0015139612616452503}},{"type":"Feature","id":28882,"geometry":{"type":"Polygon","coordinates":[[[-118.21913569999924,33.767589700000826],[-118.21886830000039,33.767674599999737],[-118.21887539999989,33.767688199999611],[-118.21890890000032,33.76775280000038],[-118.21891300000061,33.767760599999747],[-118.2189273999993,33.767755799999577],[-118.21908629999962,33.767702499999359],[-118.21918229999937,33.767670299999736],[-118.21913569999924,33.767589700000826]]]},"properties":{"OBJL":122,"CATSLC":"pier","COLOUR":null,"COLPAT":null,"CONDTN":2,"CONRAD":null,"CONVIS":null,"HEIGHT":null,"HORACC":null,"HORCLR":null,"HORLEN":null,"HORWID":null,"NATCON":null,"OBJNAM":null,"VERACC":null,"VERDAT":null,"VERLEN":null,"WATLEV":3,"INFORM":null,"SCAMIN":null,"SORDAT":"20011201","SORIND":"US,US,graph,Chart 18751","DSNM":"US5LGBDD.000","HARBOUR.SLCONS_POLYGON.FID":28882,"SHAPE.AREA":2.6356665000000001e-08,"SHAPE.LEN":0.00075461558256475104}},{"type":"Feature","id":28898,"geometry":{"type":"Polygon","coordinates":[[[-118.19896730000073,33.762582999999722],[-118.19896730000073,33.762724700000035],[-118.1990552999996,33.762724700000035],[-118.1990552999996,33.76240130000042],[-118.19905499999913,33.76240130000042],[-118.19896730000073,33.76240130000042],[-118.19896730000073,33.762573199999679],[-118.19896730000073,33.762582999999722]]]},"properties":{"OBJL":122,"CATSLC":"pier","COLOUR":null,"COLPAT":null,"CONDTN":null,"CONRAD":null,"CONVIS":null,"HEIGHT":null,"HORACC":null,"HORCLR":null,"HORLEN":null,"HORWID":null,"NATCON":null,"OBJNAM":null,"VERACC":null,"VERDAT":null,"VERLEN":null,"WATLEV":2,"INFORM":null,"SCAMIN":null,"SORDAT":"20011201","SORIND":"US,US,graph,Chart 18751","DSNM":"US5LGBDE.000","HARBOUR.SLCONS_POLYGON.FID":28898,"SHAPE.AREA":2.8459200000000001e-08,"SHAPE.LEN":0.00082280000000000005}},{"type":"Feature","id":28853,"geometry":{"type":"Polygon","coordinates":[[[-118.27577200000087,33.718912800000908],[-118.27577070000007,33.718912199999977],[-118.27574800000002,33.718981500000154],[-118.27576029999909,33.718984200000705],[-118.27586049999991,33.719004700000369],[-118.27607560000069,33.719048599999951],[-118.27609309999934,33.718977099999393],[-118.27583090000007,33.718923000000359],[-118.27577200000087,33.718912800000908]]]},"properties":{"OBJL":122,"CATSLC":"pier","COLOUR":null,"COLPAT":null,"CONDTN":2,"CONRAD":null,"CONVIS":null,"HEIGHT":null,"HORACC":null,"HORCLR":null,"HORLEN":null,"HORWID":null,"NATCON":null,"OBJNAM":null,"VERACC":null,"VERDAT":null,"VERLEN":null,"WATLEV":3,"INFORM":null,"SCAMIN":null,"SORDAT":"20011201","SORIND":"US,US,graph,Chart 18751","DSNM":"US5LGBCC.000","HARBOUR.SLCONS_POLYGON.FID":28853,"SHAPE.AREA":2.4443069999999998e-08,"SHAPE.LEN":0.00080986761759726405}},{"type":"Feature","id":28866,"geometry":{"type":"Polygon","coordinates":[[[-118.26449999999932,33.734620799999902],[-118.26458549999916,33.734622899999522],[-118.26472140000078,33.734432499999457],[-118.26473909999913,33.734407699999792],[-118.26476419999926,33.734372499999154],[-118.26476720000028,33.734368199999153],[-118.26492599999983,33.734144199999719],[-118.26485610000054,33.734124200000224],[-118.2647706000007,33.734243700000661],[-118.26468419999946,33.734364100000676],[-118.26461869999912,33.734455399999206],[-118.26449999999932,33.734620799999902]]]},"properties":{"OBJL":122,"CATSLC":"pier","COLOUR":null,"COLPAT":null,"CONDTN":2,"CONRAD":null,"CONVIS":null,"HEIGHT":null,"HORACC":null,"HORCLR":null,"HORLEN":null,"HORWID":null,"NATCON":null,"OBJNAM":null,"VERACC":null,"VERDAT":null,"VERLEN":null,"WATLEV":3,"INFORM":null,"SCAMIN":null,"SORDAT":"20070926","SORIND":"US,US,reprt,DD-9726","DSNM":"US5LGBCD.000","HARBOUR.SLCONS_POLYGON.FID":28866,"SHAPE.AREA":4.1829135000000004e-08,"SHAPE.LEN":0.0013567587552104801}},{"type":"Feature","id":28860,"geometry":{"type":"Polygon","coordinates":[[[-118.2396305000002,33.718608200000745],[-118.23855569999978,33.718327900000077],[-118.2375080999991,33.718623299999308],[-118.23468599999978,33.71941920000063],[-118.2341252999995,33.719583100000818],[-118.23420819999956,33.719788700000208],[-118.23749710000084,33.727654800000892],[-118.23750889999974,33.727651100000003],[-118.23960989999978,33.72699509999984],[-118.24033159999999,33.726769799999602],[-118.24108650000016,33.726537200000166],[-118.24123189999955,33.726493000000119],[-118.24230630000056,33.726166599999488],[-118.24261239999942,33.726066999999603],[-118.24263389999942,33.726060000000871],[-118.24269389999972,33.726065400000152],[-118.2427432000004,33.726069799999095],[-118.2396305000002,33.718608200000745]]]},"properties":{"OBJL":122,"CATSLC":"groin","COLOUR":null,"COLPAT":null,"CONDTN":null,"CONRAD":null,"CONVIS":null,"HEIGHT":null,"HORACC":null,"HORCLR":null,"HORLEN":null,"HORWID":null,"NATCON":null,"OBJNAM":null,"VERACC":null,"VERDAT":null,"VERLEN":null,"WATLEV":3,"INFORM":"Submerged material storage site","SCAMIN":null,"SORDAT":"20030325","SORIND":"US,US,reprt,11thCGD,LNM 12/03","DSNM":"US5LGBCD.000","HARBOUR.SLCONS_POLYGON.FID":28860,"SHAPE.AREA":4.7098730549999999e-05,"SHAPE.LEN":0.028036510356598501}},{"type":"Feature","id":28868,"geometry":{"type":"Polygon","coordinates":[[[-118.22201750000022,33.745175899999595],[-118.22199419999924,33.745355999999447],[-118.22207960000014,33.745363599999109],[-118.22219030000088,33.745373899999322],[-118.22221370000079,33.745193200000358],[-118.22212170000057,33.745184600000357],[-118.22201750000022,33.745175899999595]]]},"properties":{"OBJL":122,"CATSLC":"pier","COLOUR":null,"COLPAT":null,"CONDTN":2,"CONRAD":null,"CONVIS":null,"HEIGHT":null,"HORACC":null,"HORCLR":null,"HORLEN":null,"HORWID":null,"NATCON":null,"OBJNAM":null,"VERACC":null,"VERDAT":null,"VERLEN":null,"WATLEV":3,"INFORM":null,"SCAMIN":null,"SORDAT":"20011201","SORIND":"US,US,graph,Chart 18751","DSNM":"US5LGBCD.000","HARBOUR.SLCONS_POLYGON.FID":28868,"SHAPE.AREA":3.582513e-08,"SHAPE.LEN":0.00075768904386970201}},{"type":"Feature","id":28858,"geometry":{"type":"Polygon","coordinates":[[[-118.22097880000001,33.745168199999171],[-118.22096799999963,33.745167200000651],[-118.22096749999946,33.745170899999721],[-118.22094920000018,33.745310000000245],[-118.22094839999954,33.745318100000077],[-118.2209440000006,33.745347399999446],[-118.22096299999976,33.745349000000715],[-118.22102040000027,33.745353800000885],[-118.22114019999935,33.745364700000209],[-118.22115090000079,33.745283099999142],[-118.22115339999982,33.745264099999986],[-118.22115569999914,33.745246200000111],[-118.2211642000002,33.745184600000357],[-118.22111109999969,33.745180199999595],[-118.2210625000007,33.745175899999595],[-118.22097880000001,33.745168199999171]]]},"properties":{"OBJL":122,"CATSLC":"pier","COLOUR":null,"COLPAT":null,"CONDTN":2,"CONRAD":null,"CONVIS":null,"HEIGHT":null,"HORACC":null,"HORCLR":null,"HORLEN":null,"HORWID":null,"NATCON":null,"OBJNAM":null,"VERACC":null,"VERDAT":null,"VERLEN":null,"WATLEV":3,"INFORM":null,"SCAMIN":null,"SORDAT":"20011201","SORIND":"US,US,graph,Chart 18751","DSNM":"US5LGBCD.000","HARBOUR.SLCONS_POLYGON.FID":28858,"SHAPE.AREA":3.5641270000000001e-08,"SHAPE.LEN":0.00075742725148722002}},{"type":"Feature","id":28861,"geometry":{"type":"Polygon","coordinates":[[[-118.22081000000071,33.746158100000684],[-118.22078599999986,33.746338799999648],[-118.22098220000044,33.746356100000412],[-118.22100619999947,33.74617600000056],[-118.2209258999992,33.746168400000897],[-118.22081000000071,33.746158100000684]]]},"properties":{"OBJL":122,"CATSLC":"pier","COLOUR":null,"COLPAT":null,"CONDTN":2,"CONRAD":null,"CONVIS":null,"HEIGHT":null,"HORACC":null,"HORCLR":null,"HORLEN":null,"HORWID":null,"NATCON":null,"OBJNAM":null,"VERACC":null,"VERDAT":null,"VERLEN":null,"WATLEV":3,"INFORM":null,"SCAMIN":null,"SORDAT":"20011201","SORIND":"US,US,graph,Chart 18751","DSNM":"US5LGBCD.000","HARBOUR.SLCONS_POLYGON.FID":28861,"SHAPE.AREA":3.5843755000000005e-08,"SHAPE.LEN":0.00075795577733045211}},{"type":"Feature","id":28897,"geometry":{"type":"Polygon","coordinates":[[[-118.19425430000047,33.762091099999452],[-118.1941298999991,33.762176099999124],[-118.1941525000002,33.762198300000819],[-118.19417059999978,33.762216600000102],[-118.19426960000055,33.762149300000601],[-118.19454810000025,33.761959800000113],[-118.19452889999957,33.761938100000407],[-118.19450990000041,33.761916499999643],[-118.19441580000057,33.761980799999947],[-118.19425430000047,33.762091099999452]]]},"properties":{"OBJL":122,"CATSLC":"pier","COLOUR":null,"COLPAT":null,"CONDTN":null,"CONRAD":null,"CONVIS":null,"HEIGHT":null,"HORACC":null,"HORCLR":null,"HORLEN":null,"HORWID":null,"NATCON":null,"OBJNAM":null,"VERACC":null,"VERDAT":null,"VERLEN":null,"WATLEV":2,"INFORM":null,"SCAMIN":null,"SORDAT":"20011201","SORIND":"US,US,graph,Chart 18751","DSNM":"US5LGBDE.000","HARBOUR.SLCONS_POLYGON.FID":28897,"SHAPE.AREA":2.605752e-08,"SHAPE.LEN":0.0010319355171990901}},{"type":"Feature","id":28894,"geometry":{"type":"Polygon","coordinates":[[[-118.19253380000009,33.761644599999272],[-118.19250400000055,33.761607300000833],[-118.19245880000017,33.761550799999895],[-118.19225569999981,33.761296599999696],[-118.19221169999946,33.761324099999911],[-118.19219420000081,33.761334999999235],[-118.19225740000002,33.761411600000429],[-118.19240069999978,33.761585500000365],[-118.19245670000055,33.761653400000796],[-118.19247490000089,33.76167549999991],[-118.19250400000055,33.761661399999866],[-118.19253380000009,33.761644599999272]]]},"properties":{"OBJL":122,"CATSLC":"pier","COLOUR":null,"COLPAT":null,"CONDTN":null,"CONRAD":null,"CONVIS":null,"HEIGHT":null,"HORACC":null,"HORCLR":null,"HORLEN":null,"HORWID":null,"NATCON":null,"OBJNAM":null,"VERACC":null,"VERDAT":null,"VERLEN":null,"WATLEV":2,"INFORM":null,"SCAMIN":null,"SORDAT":"20011201","SORIND":"US,US,graph,Chart 18751","DSNM":"US5LGBDE.000","HARBOUR.SLCONS_POLYGON.FID":28894,"SHAPE.AREA":3.0425895000000007e-08,"SHAPE.LEN":0.0010258047408116099}},{"type":"Feature","id":28900,"geometry":{"type":"Polygon","coordinates":[[[-118.18331249999937,33.756596999999601],[-118.18335160000061,33.756565199999386],[-118.18336780000027,33.756523599999127],[-118.18335529999968,33.75650350000069],[-118.18335099999967,33.756496600000901],[-118.18334449999929,33.756496600000901],[-118.18331539999963,33.756496600000901],[-118.18318910000016,33.756576600000699],[-118.18280650000088,33.756845899999462],[-118.18241019999914,33.757111400000213],[-118.18213250000008,33.757298599999558],[-118.18198940000002,33.757399699999951],[-118.18193000000065,33.757432300000801],[-118.18190390000018,33.757446699999491],[-118.18190209999921,33.757451699999365],[-118.18189619999976,33.757467800000086],[-118.1818942000009,33.757482999999411],[-118.18189879999954,33.757493200000681],[-118.18190390000018,33.757499699999244],[-118.18192079999972,33.757505100000344],[-118.18193369999972,33.757507300000725],[-118.18196159999934,33.757507300000725],[-118.18197189999955,33.757505100000344],[-118.18199300000015,33.757493799999793],[-118.1819959000004,33.757492200000343],[-118.18201659999977,33.757482999999411],[-118.18214479999915,33.757393199999569],[-118.18217840000034,33.757370999999694],[-118.18217849999928,33.757370900000751],[-118.18239859999994,33.75722499999938],[-118.18249359999936,33.757156899999245],[-118.18253089999962,33.757130100000722],[-118.1826089999995,33.757074099999954],[-118.18282460000046,33.756937300000573],[-118.1828559000005,33.756916300000739],[-118.18321830000059,33.756673399999272],[-118.18331249999937,33.756596999999601]]]},"properties":{"OBJL":122,"CATSLC":"breakwater","COLOUR":null,"COLPAT":null,"CONDTN":null,"CONRAD":null,"CONVIS":null,"HEIGHT":null,"HORACC":null,"HORCLR":null,"HORLEN":null,"HORWID":null,"NATCON":null,"OBJNAM":null,"VERACC":null,"VERDAT":null,"VERLEN":null,"WATLEV":2,"INFORM":null,"SCAMIN":null,"SORDAT":"20011201","SORIND":"US,US,graph,Chart 18751","DSNM":"US5LGBDE.000","HARBOUR.SLCONS_POLYGON.FID":28900,"SHAPE.AREA":1.4985037500000002e-07,"SHAPE.LEN":0.00361143203484007}},{"type":"Feature","id":28880,"geometry":{"type":"Polygon","coordinates":[[[-118.08657590000075,33.732194300000629],[-118.08658680000008,33.732271299999411],[-118.08663829999932,33.732255799999621],[-118.08668450000005,33.732245299999704],[-118.08673540000018,33.73224029999983],[-118.08673939999971,33.732240499999534],[-118.08671049999975,33.732195099999444],[-118.08657590000075,33.732194300000629]]]},"properties":{"OBJL":122,"CATSLC":"pier","COLOUR":null,"COLPAT":null,"CONDTN":2,"CONRAD":null,"CONVIS":null,"HEIGHT":null,"HORACC":null,"HORCLR":null,"HORLEN":null,"HORWID":null,"NATCON":null,"OBJNAM":null,"VERACC":null,"VERDAT":null,"VERLEN":null,"WATLEV":4,"INFORM":null,"SCAMIN":null,"SORDAT":"201004","SORIND":"US,US,graph,Chart 18749","DSNM":"US5LGBCF.000","HARBOUR.SLCONS_POLYGON.FID":28880,"SHAPE.AREA":8.5048349999999994e-09,"SHAPE.LEN":0.000422498091632322}},{"type":"Feature","id":27968,"geometry":{"type":"Polygon","coordinates":[[[-117.88396319999993,33.646520000000237],[-117.88386899999932,33.646604800000205],[-117.88395270000001,33.646684800000003],[-117.88408870000058,33.646805200000017],[-117.88408909999998,33.646805500000482],[-117.88413299999957,33.646839200000613],[-117.88418629999978,33.646880700000111],[-117.8841883999994,33.646882400000322],[-117.88429499999984,33.646965199999613],[-117.88439440000002,33.647048200000427],[-117.88443729999926,33.64708409999912],[-117.88443980000011,33.647086200000558],[-117.88445900000079,33.647102200000518],[-117.88452549999965,33.647161799999594],[-117.88458560000072,33.647213599999304],[-117.88469719999921,33.647297299999991],[-117.88479879999977,33.647374899999704],[-117.88489599999957,33.647451999999248],[-117.88489900000059,33.647456000000602],[-117.88501899999937,33.647549999999683],[-117.88513000000057,33.647641999999905],[-117.88523700000042,33.647739000000001],[-117.88531780000085,33.647815899999841],[-117.88531180000064,33.647806400000263],[-117.88524030000008,33.647701800000505],[-117.88515360000019,33.647580200000448],[-117.88506170000073,33.647477799999251],[-117.88502410000001,33.647443100000601],[-117.88501969999925,33.647419599999921],[-117.88502949999929,33.647405300000173],[-117.88493159999962,33.647306499999104],[-117.88464070000009,33.647072600000683],[-117.88458200000059,33.647022400000424],[-117.88450399999965,33.646957299999485],[-117.88450249999914,33.646956099999443],[-117.88438920000044,33.646860700000616],[-117.88425459999962,33.646756000000096],[-117.88419289999911,33.646708000000217],[-117.88412380000045,33.646654300000591],[-117.88405899999998,33.646598999999696],[-117.88396319999993,33.646520000000237]]]},"properties":{"OBJL":122,"CATSLC":"pier","COLOUR":null,"COLPAT":null,"CONDTN":2,"CONRAD":null,"CONVIS":null,"HEIGHT":null,"HORACC":null,"HORCLR":null,"HORLEN":null,"HORWID":null,"NATCON":null,"OBJNAM":null,"VERACC":null,"VERDAT":null,"VERLEN":null,"WATLEV":3,"INFORM":null,"SCAMIN":null,"SORDAT":"201010","SORIND":"US,US,graph,Chart 18754","DSNM":"US5CA1NS.000","HARBOUR.SLCONS_POLYGON.FID":27968,"SHAPE.AREA":2.1718301499999999e-07,"SHAPE.LEN":0.0039206470556421699}},{"type":"Feature","id":28859,"geometry":{"type":"Polygon","coordinates":[[[-118.2741733999992,33.749397300000055],[-118.27390930000001,33.749148499999137],[-118.27380369999992,33.749228000000585],[-118.2740561999999,33.749470799999472],[-118.27406789999986,33.749482699999135],[-118.2741074000005,33.749462199999471],[-118.27418770000077,33.749412400000438],[-118.2741733999992,33.749397300000055]]]},"properties":{"OBJL":122,"CATSLC":"ramp","COLOUR":null,"COLPAT":null,"CONDTN":null,"CONRAD":null,"CONVIS":null,"HEIGHT":null,"HORACC":null,"HORCLR":null,"HORLEN":null,"HORWID":null,"NATCON":null,"OBJNAM":null,"VERACC":null,"VERDAT":null,"VERLEN":null,"WATLEV":3,"INFORM":null,"SCAMIN":null,"SORDAT":"20011201","SORIND":"US,US,graph,Chart 18751","DSNM":"US5LGBCD.000","HARBOUR.SLCONS_POLYGON.FID":28859,"SHAPE.AREA":4.9836995e-08,"SHAPE.LEN":0.0010217903037299698}},{"type":"Feature","id":28885,"geometry":{"type":"Polygon","coordinates":[[[-118.26072749999912,33.766306600000462],[-118.26073659999929,33.766306600000462],[-118.26073659999929,33.766301300000123],[-118.26073659999929,33.766288599999825],[-118.26073659999929,33.766268999999738],[-118.26073659999929,33.766219700000875],[-118.26073659999929,33.766216100000747],[-118.26073659999929,33.7662092999999],[-118.26055789999918,33.7662092999999],[-118.26055789999918,33.766214799999943],[-118.26055789999918,33.766256200000498],[-118.26055789999918,33.76630010000008],[-118.26055789999918,33.766306600000462],[-118.26064190000034,33.766306600000462],[-118.26065980000021,33.766306600000462],[-118.26072749999912,33.766306600000462]]]},"properties":{"OBJL":122,"CATSLC":"pier","COLOUR":null,"COLPAT":null,"CONDTN":null,"CONRAD":null,"CONVIS":null,"HEIGHT":null,"HORACC":null,"HORCLR":null,"HORLEN":null,"HORWID":null,"NATCON":null,"OBJNAM":null,"VERACC":null,"VERDAT":null,"VERLEN":null,"WATLEV":2,"INFORM":null,"SCAMIN":null,"SORDAT":"20011201","SORIND":"US,US,graph,Chart 18751","DSNM":"US5LGBDD.000","HARBOUR.SLCONS_POLYGON.FID":28885,"SHAPE.AREA":1.7387509999999999e-08,"SHAPE.LEN":0.00055199999999999997}},{"type":"Feature","id":28865,"geometry":{"type":"Polygon","coordinates":[[[-118.2510072999994,33.749212299999272],[-118.25094390000049,33.749301500000001],[-118.25129670000024,33.749434600000313],[-118.25134790000084,33.749392899999293],[-118.25147020000077,33.749443200000314],[-118.25146379999933,33.749494100000447],[-118.25170719999915,33.749593599999571],[-118.25176090000059,33.749676299999919],[-118.2518043,33.749537899999268],[-118.2510072999994,33.749212299999272]]]},"properties":{"OBJL":122,"CATSLC":"pier","COLOUR":null,"COLPAT":null,"CONDTN":2,"CONRAD":null,"CONVIS":null,"HEIGHT":null,"HORACC":null,"HORCLR":null,"HORLEN":null,"HORWID":null,"NATCON":null,"OBJNAM":null,"VERACC":null,"VERDAT":null,"VERLEN":null,"WATLEV":3,"INFORM":null,"SCAMIN":null,"SORDAT":"20070926","SORIND":"US,US,reprt,DD-9726","DSNM":"US5LGBCD.000","HARBOUR.SLCONS_POLYGON.FID":28865,"SHAPE.AREA":7.6736080000000005e-08,"SHAPE.LEN":0.0021036278562087899}},{"type":"Feature","id":28889,"geometry":{"type":"Polygon","coordinates":[[[-118.21211419999963,33.771961899999951],[-118.21209930000077,33.771926699999312],[-118.21217830000023,33.771889400000873],[-118.21216079999977,33.771860000000743],[-118.21212980000018,33.771807799999806],[-118.21186820000003,33.77191110000058],[-118.21188950000032,33.771962999999232],[-118.21190439999918,33.771999200000209],[-118.21199309999975,33.771969499999614],[-118.21200999999928,33.772004599999491],[-118.21201900000051,33.772022400000424],[-118.21211679999942,33.771974900000714],[-118.21212070000001,33.771973799999614],[-118.21211419999963,33.771961899999951]]]},"properties":{"OBJL":122,"CATSLC":"pier","COLOUR":null,"COLPAT":null,"CONDTN":2,"CONRAD":null,"CONVIS":null,"HEIGHT":null,"HORACC":null,"HORCLR":null,"HORLEN":null,"HORWID":null,"NATCON":null,"OBJNAM":null,"VERACC":null,"VERDAT":null,"VERLEN":null,"WATLEV":3,"INFORM":null,"SCAMIN":null,"SORDAT":"20011201","SORIND":"US,US,graph,Chart 18751","DSNM":"US5LGBDD.000","HARBOUR.SLCONS_POLYGON.FID":28889,"SHAPE.AREA":3.4544565000000006e-08,"SHAPE.LEN":0.00087579551536345402}},{"type":"Feature","id":28879,"geometry":{"type":"Polygon","coordinates":[[[-118.08670220000022,33.7321821000005],[-118.08666900000026,33.732129699999859],[-118.08657169999969,33.732171699999526],[-118.0865732000002,33.732175200000711],[-118.08657590000075,33.732194300000629],[-118.08671049999975,33.732195099999444],[-118.08670220000022,33.7321821000005]]]},"properties":{"OBJL":122,"CATSLC":"pier","COLOUR":null,"COLPAT":null,"CONDTN":2,"CONRAD":null,"CONVIS":null,"HEIGHT":null,"HORACC":null,"HORCLR":null,"HORLEN":null,"HORWID":null,"NATCON":null,"OBJNAM":null,"VERACC":null,"VERDAT":null,"VERLEN":null,"WATLEV":3,"INFORM":null,"SCAMIN":null,"SORDAT":"201004","SORIND":"US,US,graph,Chart 18749","DSNM":"US5LGBCF.000","HARBOUR.SLCONS_POLYGON.FID":28879,"SHAPE.AREA":5.5612499999999996e-09,"SHAPE.LEN":0.00034113387112874404}},{"type":"Feature","id":28035,"geometry":{"type":"Polygon","coordinates":[[[-118.48455920000015,33.994876000000659],[-118.48419830000057,33.994485900000655],[-118.48409530000026,33.994533099999899],[-118.48392899999999,33.994483700000274],[-118.48370319999958,33.994236200000159],[-118.48377690000052,33.994037799999205],[-118.48370199999954,33.993957000000592],[-118.48365569999987,33.993978900000002],[-118.48319420000007,33.994255100000373],[-118.48329609999928,33.994361099999878],[-118.48366999999962,33.994749900000897],[-118.48402499999975,33.995119999999588],[-118.48441830000047,33.995550199999343],[-118.48455429999922,33.995762700000341],[-118.4849936999999,33.995320300000458],[-118.48455920000015,33.994876000000659]]]},"properties":{"OBJL":122,"CATSLC":"pier","COLOUR":null,"COLPAT":null,"CONDTN":2,"CONRAD":null,"CONVIS":null,"HEIGHT":null,"HORACC":null,"HORCLR":null,"HORLEN":null,"HORWID":null,"NATCON":null,"OBJNAM":null,"VERACC":null,"VERDAT":null,"VERLEN":null,"WATLEV":4,"INFORM":null,"SCAMIN":null,"SORDAT":"20090317","SORIND":"US,US,graph,Chart 18744","DSNM":"US5CA63M.000","HARBOUR.SLCONS_POLYGON.FID":28035,"SHAPE.AREA":1.015288115e-06,"SHAPE.LEN":0.0053435615972361799}},{"type":"Feature","id":28855,"geometry":{"type":"Polygon","coordinates":[[[-118.28003159999935,33.709652699999424],[-118.28000109999994,33.709642100000565],[-118.27997110000069,33.70962580000014],[-118.27992789999917,33.709788300000582],[-118.27998160000061,33.709801299999526],[-118.28003650000028,33.709654399999636],[-118.28003159999935,33.709652699999424]]]},"properties":{"OBJL":122,"CATSLC":"pier","COLOUR":null,"COLPAT":null,"CONDTN":2,"CONRAD":null,"CONVIS":null,"HEIGHT":null,"HORACC":null,"HORCLR":null,"HORLEN":null,"HORWID":null,"NATCON":null,"OBJNAM":null,"VERACC":null,"VERDAT":null,"VERLEN":null,"WATLEV":3,"INFORM":null,"SCAMIN":null,"SORDAT":"20011201","SORIND":"US,US,graph,Chart 18751","DSNM":"US5LGBCC.000","HARBOUR.SLCONS_POLYGON.FID":28855,"SHAPE.AREA":1.0128569999999999e-08,"SHAPE.LEN":0.000451837134360169}},{"type":"Feature","id":28886,"geometry":{"type":"Polygon","coordinates":[[[-118.2666504000008,33.753401199999644],[-118.26601889999984,33.754083899999387],[-118.26556669999991,33.754569599999741],[-118.26504849999947,33.755126199999722],[-118.26440250000087,33.755821200000355],[-118.26378520000071,33.756476599999587],[-118.26383100000021,33.756505200000902],[-118.26388039999983,33.756536000000779],[-118.26393149999967,33.75649870000052],[-118.26400810000086,33.756543600000441],[-118.26401420000002,33.756537400000525],[-118.26402140000027,33.75653020000027],[-118.26406990000032,33.756481000000349],[-118.26414490000025,33.756405000000086],[-118.26420809999945,33.756340800000544],[-118.26427870000043,33.756272700000409],[-118.26454729999932,33.75602169999911],[-118.2645923,33.755961099999695],[-118.26464739999938,33.755900000000111],[-118.26480300000003,33.755727499999921],[-118.26502439999967,33.755477700000483],[-118.26506970000082,33.755424700000731],[-118.26523819999966,33.755240799999228],[-118.26532919999954,33.755141499999809],[-118.26557879999928,33.754853500000536],[-118.26562460000059,33.754800599999726],[-118.26582419999977,33.75459950000004],[-118.26607100000001,33.754346199999418],[-118.26610740000069,33.754308800000217],[-118.26611459999913,33.754300299999159],[-118.2661418000007,33.754267899999832],[-118.26615640000091,33.754250600000887],[-118.2660663000006,33.754193999999188],[-118.26603769999929,33.754138099999182],[-118.26653070000066,33.753620199999204],[-118.26669930000025,33.753432199999224],[-118.2666504000008,33.753401199999644]]]},"properties":{"OBJL":122,"CATSLC":"pier","COLOUR":null,"COLPAT":null,"CONDTN":2,"CONRAD":null,"CONVIS":null,"HEIGHT":null,"HORACC":null,"HORCLR":null,"HORLEN":null,"HORWID":null,"NATCON":null,"OBJNAM":null,"VERACC":null,"VERDAT":null,"VERLEN":null,"WATLEV":3,"INFORM":null,"SCAMIN":null,"SORDAT":"20211111","SORIND":"US,US,graph,GC-11787","DSNM":"US5LGBDD.000","HARBOUR.SLCONS_POLYGON.FID":28886,"SHAPE.AREA":7.5023946000000003e-07,"SHAPE.LEN":0.0088067864373626813}},{"type":"Feature","id":28862,"geometry":{"type":"Polygon","coordinates":[[[-118.23646679999911,33.71870300000046],[-118.23455260000082,33.719241700000566],[-118.23383590000049,33.719438599999194],[-118.23388309999973,33.719608499999595],[-118.23416270000052,33.72028119999959],[-118.23505320000004,33.722423600000184],[-118.23511820000022,33.722580199999356],[-118.23537939999915,33.723208600000362],[-118.23583289999988,33.724299699999392],[-118.23658959999921,33.726120200000878],[-118.23707909999939,33.727297900000849],[-118.23709899999994,33.727345699999205],[-118.23710570000003,33.727361900000687],[-118.23713209999914,33.727425499999299],[-118.2371693999994,33.727515200000198],[-118.23720660000072,33.727604899999278],[-118.23725820000072,33.72772889999942],[-118.23749710000084,33.727654800000892],[-118.23420819999956,33.719788700000208],[-118.2341252999995,33.719583100000818],[-118.23468599999978,33.71941920000063],[-118.2375080999991,33.718623299999308],[-118.23855569999978,33.718327900000077],[-118.2396305000002,33.718608200000745],[-118.2427432000004,33.726069799999095],[-118.24278369999956,33.726070799999434],[-118.24280870000075,33.726063100000829],[-118.2429075,33.726032500000656],[-118.24297769999976,33.726010700000188],[-118.2429118,33.725852100000338],[-118.24288100000012,33.725778199999695],[-118.24287360000017,33.725760400000581],[-118.24287360000017,33.725760200000877],[-118.2428734999994,33.725760100000116],[-118.24251379999987,33.724894900000436],[-118.2421063999991,33.723915099999431],[-118.24183430000085,33.723260700000537],[-118.24049750000086,33.720045699999901],[-118.24009649999971,33.719081299999743],[-118.23983050000061,33.718441499999244],[-118.23895380000067,33.718215099999725],[-118.23886119999952,33.718191199999637],[-118.23856089999936,33.718113599999924],[-118.23818329999995,33.718219899999895],[-118.2375078999994,33.718409999999494],[-118.23646679999911,33.71870300000046]]]},"properties":{"OBJL":122,"CATSLC":" ","COLOUR":null,"COLPAT":null,"CONDTN":null,"CONRAD":null,"CONVIS":null,"HEIGHT":null,"HORACC":null,"HORCLR":null,"HORLEN":null,"HORWID":null,"NATCON":null,"OBJNAM":null,"VERACC":null,"VERDAT":null,"VERLEN":null,"WATLEV":3,"INFORM":"Dike","SCAMIN":null,"SORDAT":"20041019","SORIND":"US,US,reprt,L-1543/04","DSNM":"US5LGBCD.000","HARBOUR.SLCONS_POLYGON.FID":28862,"SHAPE.AREA":5.3499204599999995e-06,"SHAPE.LEN":0.046427964716583406}},{"type":"Feature","id":28869,"geometry":{"type":"Polygon","coordinates":[[[-118.22089290000076,33.745516599999974],[-118.22086889999991,33.745696800000587],[-118.22096670000064,33.745705400000588],[-118.22106510000049,33.745714099999532],[-118.22108900000057,33.74553399999968],[-118.22101010000006,33.745527499999298],[-118.22089290000076,33.745516599999974]]]},"properties":{"OBJL":122,"CATSLC":"pier","COLOUR":null,"COLPAT":null,"CONDTN":2,"CONRAD":null,"CONVIS":null,"HEIGHT":null,"HORACC":null,"HORCLR":null,"HORLEN":null,"HORWID":null,"NATCON":null,"OBJNAM":null,"VERACC":null,"VERDAT":null,"VERLEN":null,"WATLEV":3,"INFORM":null,"SCAMIN":null,"SORDAT":"20011201","SORIND":"US,US,graph,Chart 18751","DSNM":"US5LGBCD.000","HARBOUR.SLCONS_POLYGON.FID":28869,"SHAPE.AREA":3.5700540000000002e-08,"SHAPE.LEN":0.00075730440537454999}}]}