{"type":"FeatureCollection","features":[{"type":"Feature","id":72024,"geometry":{"type":"Polygon","coordinates":[[[-118.44651579999999,33.980359799999974],[-118.44646519999998,33.980362000000014],[-118.446414,33.980365199999994],[-118.44641419999999,33.980397900000014],[-118.44622120000002,33.980482900000027],[-118.4458937,33.980649200000016],[-118.44554479999999,33.980821400000025],[-118.44542910000001,33.980876099999989],[-118.44525870000001,33.980958999999984],[-118.4449616,33.981102099999987],[-118.44457440000002,33.981291899999974],[-118.44452840000002,33.981313899999975],[-118.44413200000002,33.981503299999986],[-118.4437873,33.981668000000013],[-118.44349299999999,33.981808699999988],[-118.44320210000001,33.981947699999978],[-118.44295879999999,33.98206399999998],[-118.44278500000001,33.982150699999977],[-118.44305209999999,33.982536900000014],[-118.44307959999998,33.982573800000011],[-118.44308640000003,33.982574899999975],[-118.4436359,33.982678399999998],[-118.44403849999998,33.982754],[-118.44436250000001,33.982816500000013],[-118.44444220000003,33.982778300000007],[-118.44455349999998,33.982725000000016],[-118.44504239999998,33.982490700000028],[-118.44521329999998,33.982401799999991],[-118.44568329999998,33.982178499999975],[-118.44599260000001,33.982027300000027],[-118.44602609999998,33.982011800000009],[-118.44640659999999,33.981835699999976],[-118.44642069999998,33.981853100000023],[-118.44645980000001,33.981856199999982],[-118.44648740000002,33.981854499999997],[-118.44689620000003,33.981862999999976],[-118.44704419999999,33.981867599999987],[-118.44703149999998,33.981363999999985],[-118.44699429999997,33.981343900000013],[-118.4467247,33.981192899999996],[-118.44672450000002,33.980363199999999],[-118.44651579999999,33.980359799999974]],[[-118.44447270000001,33.982554999999991],[-118.44455649999998,33.982672900000011],[-118.44451240000001,33.982693400000016],[-118.44449049999997,33.982704699999999],[-118.44440759999998,33.982586200000014],[-118.44447270000001,33.982554999999991]]]},"properties":{"OBJECTID":72024,"OBJL":46,"DRVAL1":3,"DRVAL2":null,"OBJNAM":"Marina Del Rey Basin F","QUASOU":"11","SOUACC":null,"TECSOU":null,"VERDAT":null,"INFORM":null,"SCAMIN":null,"SORDAT":"200603","SORIND":"US,US,graph,Chart 18744","DSNM":"US5CA63M.000","SHAPE.AREA":4.923607325e-06,"SHAPE.LEN":0.011228290367294599}},{"type":"Feature","id":72021,"geometry":{"type":"Polygon","coordinates":[[[-118.44648760000001,33.977407500000027],[-118.44641159999998,33.977376400000026],[-118.44639760000001,33.977383700000019],[-118.44602759999998,33.977561900000012],[-118.44567039999998,33.977733899999976],[-118.44553969999998,33.977796800000021],[-118.44532579999998,33.977900799999986],[-118.44503789999999,33.978040000000021],[-118.4447442,33.978182300000014],[-118.44440209999999,33.978342199999986],[-118.44399700000002,33.978538500000013],[-118.44366710000003,33.978698500000007],[-118.44338620000002,33.978834500000005],[-118.44310080000002,33.978972199999987],[-118.44282449999997,33.979105500000003],[-118.44255370000002,33.979235599999981],[-118.44227059999997,33.979371700000002],[-118.44188370000001,33.979559400000028],[-118.44160599999998,33.979693399999974],[-118.44120459999999,33.979887099999985],[-118.44157139999999,33.980399900000009],[-118.4418402,33.980789300000026],[-118.44219220000002,33.981299299999989],[-118.44232729999999,33.981240000000014],[-118.44258389999999,33.981119200000023],[-118.44263999999998,33.981090900000027],[-118.44287750000001,33.980980199999976],[-118.44322010000002,33.980811700000004],[-118.44374329999999,33.980560400000002],[-118.44419360000001,33.980346399999974],[-118.44434430000001,33.980271800000025],[-118.44458989999998,33.980153799999982],[-118.44493390000002,33.97998960000001],[-118.44526409999997,33.979830499999991],[-118.44559570000001,33.97966839999998],[-118.44593700000001,33.979505599999982],[-118.44633800000003,33.9793138],[-118.44639840000002,33.979280700000004],[-118.44639910000001,33.979280399999993],[-118.44641000000001,33.979275400000006],[-118.44644269999998,33.979261800000018],[-118.44655010000002,33.979220999999995],[-118.44672759999997,33.979157999999984],[-118.44672600000001,33.978325900000016],[-118.44672589999999,33.977516999999978],[-118.44648760000001,33.977407500000027]]]},"properties":{"OBJECTID":72021,"OBJL":46,"DRVAL1":3,"DRVAL2":null,"OBJNAM":"Marina Del Rey Basin G","QUASOU":"11","SOUACC":null,"TECSOU":null,"VERDAT":null,"INFORM":null,"SCAMIN":null,"SORDAT":"200603","SORIND":"US,US,graph,Chart 18744","DSNM":"US5CA63M.000","SHAPE.AREA":9.4972005050000008e-06,"SHAPE.LEN":0.014506609704278599}},{"type":"Feature","id":72023,"geometry":{"type":"Polygon","coordinates":[[[-118.44345190000001,33.977398999999991],[-118.44336809999999,33.97727359999999],[-118.44372879999997,33.977114700000016],[-118.44377309999999,33.977186000000017],[-118.44380649999999,33.977231599999982],[-118.4448246,33.976734799999974],[-118.44492810000003,33.976684700000021],[-118.44501939999998,33.976640400000008],[-118.44538979999999,33.976458900000011],[-118.44604190000001,33.976139400000022],[-118.44619999999998,33.976069399999972],[-118.44629839999999,33.97602569999998],[-118.44638959999997,33.975982199999976],[-118.4461321,33.975698399999999],[-118.44602559999998,33.975554100000011],[-118.4459751,33.975489499999981],[-118.44593359999999,33.975429399999996],[-118.4456161,33.974915800000019],[-118.4456103,33.974918500000001],[-118.4455036,33.974969900000019],[-118.4451474,33.975146499999994],[-118.44472560000003,33.975349800000004],[-118.44464319999997,33.975390100000027],[-118.44458800000001,33.975417100000016],[-118.44438780000002,33.975517299999979],[-118.44421820000002,33.975595499999997],[-118.44393179999997,33.975737400000014],[-118.4437461,33.975818500000003],[-118.44351790000002,33.975928500000009],[-118.44346380000002,33.975956100000019],[-118.44318279999999,33.976101400000005],[-118.44289980000002,33.976230299999997],[-118.4428408,33.976258900000005],[-118.44277920000002,33.976287800000023],[-118.44269980000001,33.976324999999974],[-118.4426249,33.97636],[-118.44248870000001,33.97642380000002],[-118.44233350000002,33.976503600000001],[-118.4418723,33.976728799999989],[-118.44178640000001,33.976767699999982],[-118.44170109999999,33.976810600000022],[-118.44127470000001,33.977010099999973],[-118.44120850000002,33.97703869999998],[-118.4411614,33.977061100000014],[-118.44132439999998,33.977301800000021],[-118.44135729999999,33.977351399999975],[-118.4414003,33.977413899999988],[-118.44136109999999,33.977433500000018],[-118.44140929999998,33.977492400000017],[-118.44149759999999,33.977625900000021],[-118.44159000000002,33.977756499999998],[-118.44162899999998,33.977810900000009],[-118.44166799999999,33.977797500000008],[-118.44191050000001,33.978136500000005],[-118.4425397,33.977832700000022],[-118.44274589999998,33.977729000000011],[-118.44345190000001,33.977398999999991]],[[-118.4413113,33.977118700000005],[-118.44131640000001,33.977126999999996],[-118.44134880000001,33.977180099999998],[-118.44138149999998,33.977233099999978],[-118.4413419,33.977254099999982],[-118.44121910000001,33.977075800000023],[-118.4412671,33.977053399999988],[-118.44127170000002,33.977058399999976],[-118.4413113,33.977118700000005]]]},"properties":{"OBJECTID":72023,"OBJL":46,"DRVAL1":3,"DRVAL2":null,"OBJNAM":"Marina Del Rey Basin H","QUASOU":"11","SOUACC":null,"TECSOU":null,"VERDAT":null,"INFORM":null,"SCAMIN":null,"SORDAT":"200603","SORIND":"US,US,graph,Chart 18744","DSNM":"US5CA63M.000","SHAPE.AREA":6.3103155199999999e-06,"SHAPE.LEN":0.013448752978934501}},{"type":"Feature","id":71866,"geometry":{"type":"Polygon","coordinates":[[[-117.922595,33.617679699999997],[-117.9225179,33.61779660000002],[-117.92250710000002,33.617813000000012],[-117.92445629999997,33.617720200000008],[-117.92498399999999,33.617445299999986],[-117.92617089999999,33.617437600000017],[-117.92820110000002,33.62013619999999],[-117.9281368,33.620268199999998],[-117.92809269999998,33.620364800000004],[-117.92807060000001,33.620412900000019],[-117.92804319999999,33.620472899999982],[-117.9280144,33.620535700000005],[-117.9280033,33.6205602],[-117.92799189999999,33.620584899999983],[-117.92798679999999,33.6205961],[-117.92798340000002,33.620603399999993],[-117.92830529999998,33.620655699999986],[-117.92834859999999,33.620547499999986],[-117.92849960000001,33.620171299999981],[-117.92855129999998,33.620042599999977],[-117.92806359999997,33.619259600000021],[-117.9279315,33.619047399999999],[-117.92788039999999,33.618965399999979],[-117.92781719999999,33.618863900000008],[-117.92696649999999,33.617497899999989],[-117.92649410000001,33.616739399999972],[-117.926489,33.616731200000004],[-117.92647970000002,33.616731300000026],[-117.92630200000002,33.61673380000002],[-117.9249069,33.616753200000005],[-117.92487160000002,33.616807600000016],[-117.92476640000001,33.616969700000027],[-117.92458440000001,33.617250200000001],[-117.92417239999997,33.617337099999986],[-117.922595,33.617679699999997]]]},"properties":{"OBJECTID":71866,"OBJL":46,"DRVAL1":3.3000000000000003,"DRVAL2":null,"OBJNAM":"Turning Basin LOQ","QUASOU":"10","SOUACC":null,"TECSOU":null,"VERDAT":null,"INFORM":null,"SCAMIN":null,"SORDAT":"20180711","SORIND":"US,US,graph,DD-30739","DSNM":"US5CA1NR.000","SHAPE.AREA":3.7712659749999997e-06,"SHAPE.LEN":0.016883257146123497}},{"type":"Feature","id":71865,"geometry":{"type":"Polygon","coordinates":[[[-117.90821190000003,33.611521900000014],[-117.90813309999999,33.611640799999975],[-117.90813489999999,33.611641700000007],[-117.90815939999999,33.61165299999999],[-117.91184579999998,33.613361999999995],[-117.92225869999999,33.618189099999995],[-117.92226160000001,33.618184799999995],[-117.92234660000003,33.618055900000002],[-117.92234459999997,33.618055000000027],[-117.92232380000002,33.618045400000028],[-117.91472549999997,33.614532899999972],[-117.90823360000002,33.611531899999989],[-117.90821190000003,33.611521900000014]]]},"properties":{"OBJECTID":71865,"OBJL":46,"DRVAL1":4.5,"DRVAL2":null,"OBJNAM":"Lido Isle Reach ROQ","QUASOU":"10","SOUACC":null,"TECSOU":null,"VERDAT":null,"INFORM":null,"SCAMIN":null,"SORDAT":"20180711","SORIND":"US,US,graph,DD-30739","DSNM":"US5CA1NR.000","SHAPE.AREA":2.3269736499999998e-06,"SHAPE.LEN":0.031443706162281898}},{"type":"Feature","id":71859,"geometry":{"type":"Polygon","coordinates":[[[-117.89999999999998,33.605862500000001],[-117.89999999999998,33.606032900000002],[-117.90016429999997,33.606146099999989],[-117.90278690000002,33.607954500000005],[-117.9040938,33.608855600000027],[-117.90409390000002,33.608855699999992],[-117.90416429999999,33.608904300000006],[-117.90686210000001,33.610764500000016],[-117.90686240000002,33.610764700000004],[-117.90686260000001,33.610764800000027],[-117.90695210000001,33.610826499999973],[-117.90774879999998,33.611375800000019],[-117.90798940000002,33.611541799999998],[-117.90804200000002,33.611578000000009],[-117.90811660000003,33.611629400000027],[-117.90813309999999,33.611640799999975],[-117.90821190000003,33.611521900000014],[-117.90819870000001,33.611515699999984],[-117.90818380000002,33.611505500000021],[-117.908162,33.611490500000002],[-117.90703480000002,33.610713200000021],[-117.90703209999998,33.610711400000014],[-117.89999999999998,33.605862500000001]]]},"properties":{"OBJECTID":71859,"OBJL":46,"DRVAL1":4.9000000000000004,"DRVAL2":null,"OBJNAM":"Harbor Island Reach ROQ","QUASOU":"10","SOUACC":null,"TECSOU":null,"VERDAT":null,"INFORM":null,"SCAMIN":null,"SORDAT":"20180711","SORIND":"US,US,graph,DD-30739","DSNM":"US5CA1NR.000","SHAPE.AREA":1.391804015e-06,"SHAPE.LEN":0.020165474640979501}},{"type":"Feature","id":71880,"geometry":{"type":"Polygon","coordinates":[[[-117.88753050000003,33.601082500000018],[-117.88748140000001,33.601208799999995],[-117.89700679999999,33.603801599999997],[-117.89700699999997,33.60380090000001],[-117.89705800000002,33.603669799999977],[-117.88753050000003,33.601082500000018]]]},"properties":{"OBJECTID":71880,"OBJL":46,"DRVAL1":5.1000000000000005,"DRVAL2":null,"OBJNAM":"Balboa Reach RIQ","QUASOU":"10","SOUACC":null,"TECSOU":null,"VERDAT":null,"INFORM":null,"SCAMIN":null,"SORDAT":"20180711","SORIND":"US,US,graph,DD-30739","DSNM":"US5CA1NS.000","SHAPE.AREA":1.35927464e-06,"SHAPE.LEN":0.020021436982634699}},{"type":"Feature","id":71854,"geometry":{"type":"Polygon","coordinates":[[[-117.8831768,33.599864799999978],[-117.88316700000001,33.599856499999987],[-117.88195880000001,33.598834399999987],[-117.88195589999998,33.598835199999996],[-117.88156709999998,33.598937799999987],[-117.88287989999998,33.600000000000023],[-117.88372989999999,33.600000000000023],[-117.8831768,33.599864799999978]]]},"properties":{"OBJECTID":71854,"OBJL":46,"DRVAL1":6.2000000000000002,"DRVAL2":null,"OBJNAM":"Corona Del Mar Bend LIQ","QUASOU":"10","SOUACC":null,"TECSOU":null,"VERDAT":null,"INFORM":null,"SCAMIN":null,"SORDAT":"20180711","SORIND":"US,US,graph,DD-30739","DSNM":"US5CA1MS.000","SHAPE.AREA":5.6866229999999999e-07,"SHAPE.LEN":0.0051085873258082497}},{"type":"Feature","id":72020,"geometry":{"type":"Polygon","coordinates":[[[-118.45056749999998,33.971699600000022],[-118.45056749999998,33.972051599999986],[-118.45056749999998,33.972803699999986],[-118.45056749999998,33.972932200000002],[-118.45056749999998,33.973043800000028],[-118.45056749999998,33.973141800000008],[-118.45056749999998,33.973195499999974],[-118.4505681,33.973239799999988],[-118.45056979999998,33.973354299999983],[-118.45058569999998,33.973354200000017],[-118.45070779999998,33.973353900000006],[-118.45098330000002,33.973355799999979],[-118.4517128,33.973360700000001],[-118.4519287,33.973360700000001],[-118.4535679,33.973360700000001],[-118.45358479999999,33.973360700000001],[-118.45433400000002,33.973364100000026],[-118.45502420000003,33.973357799999974],[-118.45546089999999,33.973357299999975],[-118.45620930000001,33.973351700000023],[-118.45581750000002,33.972827100000018],[-118.45551669999998,33.972422699999981],[-118.45541900000001,33.972297500000025],[-118.45497970000002,33.971701199999984],[-118.45478409999998,33.971700300000009],[-118.45462839999999,33.971699600000022],[-118.45444279999998,33.971699600000022],[-118.45410829999997,33.971699600000022],[-118.45376929999998,33.971699600000022],[-118.45348530000001,33.971699600000022],[-118.45299410000001,33.971701199999984],[-118.45172789999998,33.971701199999984],[-118.45153620000002,33.971701199999984],[-118.45056749999998,33.971699600000022]]]},"properties":{"OBJECTID":72020,"OBJL":46,"DRVAL1":3,"DRVAL2":null,"OBJNAM":"Marina Del Rey Basin A","QUASOU":"11","SOUACC":null,"TECSOU":null,"VERDAT":null,"INFORM":null,"SCAMIN":null,"SORDAT":"200603","SORIND":"US,US,graph,Chart 18744","DSNM":"US5CA63M.000","SHAPE.AREA":8.3396720799999995e-06,"SHAPE.LEN":0.0137647271827393}},{"type":"Feature","id":72026,"geometry":{"type":"Polygon","coordinates":[[[-118.44948590000001,33.983362699999986],[-118.4494747,33.983468599999981],[-118.44946540000001,33.983592600000009],[-118.44945089999999,33.983710900000005],[-118.44944120000002,33.983781500000021],[-118.44952749999999,33.983795299999997],[-118.44953070000003,33.983797900000013],[-118.44964499999998,33.983817499999986],[-118.4497768,33.983834999999999],[-118.44997130000002,33.983834999999999],[-118.45043320000002,33.983834999999999],[-118.45059709999998,33.983833899999979],[-118.4511167,33.983830300000022],[-118.45115249999998,33.983830000000012],[-118.45163889999998,33.983833100000027],[-118.4519497,33.983834999999999],[-118.45221129999999,33.983825700000011],[-118.45236920000002,33.98381999999998],[-118.45266340000001,33.983800900000006],[-118.4527918,33.983792600000015],[-118.45312990000002,33.983772400000021],[-118.45358599999997,33.983745100000021],[-118.45404869999999,33.983717500000012],[-118.4544497,33.983693399999993],[-118.45459,33.983685200000025],[-118.4548494,33.983670200000006],[-118.45524870000003,33.983647099999985],[-118.45566009999999,33.983623099999988],[-118.45599099999998,33.983599099999992],[-118.45611539999999,33.983589800000004],[-118.45647639999999,33.983151799999973],[-118.45659499999999,33.983011099999999],[-118.45624729999997,33.982808900000009],[-118.45566889999998,33.982469400000014],[-118.4551596,33.982180799999981],[-118.45513979999998,33.982184000000018],[-118.45504849999998,33.982180700000015],[-118.45488669999997,33.982174799999996],[-118.45474230000002,33.982174799999996],[-118.45434710000001,33.982174799999996],[-118.45401459999999,33.982174799999996],[-118.4539618,33.982174900000018],[-118.45355690000002,33.982175600000005],[-118.45310039999998,33.98217649999998],[-118.45263899999998,33.982177400000012],[-118.45218740000001,33.982178999999974],[-118.45197359999997,33.982179799999983],[-118.45172600000001,33.982179799999983],[-118.45127189999999,33.982179799999983],[-118.4510416,33.982179799999983],[-118.45079090000002,33.982181299999979],[-118.4503133,33.982184099999984],[-118.4502784,33.982183799999973],[-118.44973040000002,33.982179099999996],[-118.44966340000002,33.982174699999973],[-118.44950219999998,33.982178200000021],[-118.44946920000001,33.982180000000028],[-118.44948119999998,33.983133599999974],[-118.4494823,33.98326320000001],[-118.44948529999999,33.983340699999985],[-118.44948599999998,33.983348400000011],[-118.44948590000001,33.983362699999986]],[[-118.45599750000002,33.983402899999987],[-118.45599720000001,33.983399599999984],[-118.45603,33.98339279999999],[-118.45605260000002,33.98338080000002],[-118.45607100000001,33.983534500000019],[-118.45603419999998,33.983544900000027],[-118.45590090000002,33.983582300000023],[-118.45589269999999,33.983539599999972],[-118.45600539999998,33.98350720000002],[-118.45599750000002,33.983402899999987]]]},"properties":{"OBJECTID":72026,"OBJL":46,"DRVAL1":3,"DRVAL2":null,"OBJNAM":"Marina Del Rey Basin E","QUASOU":"11","SOUACC":null,"TECSOU":null,"VERDAT":null,"INFORM":null,"SCAMIN":null,"SORDAT":"200603","SORIND":"US,US,graph,Chart 18744","DSNM":"US5CA63M.000","SHAPE.AREA":1.043492892e-05,"SHAPE.LEN":0.017050832295798998}},{"type":"Feature","id":71869,"geometry":{"type":"Polygon","coordinates":[[[-117.89999999999998,33.609382299999993],[-117.89999999999998,33.609536100000014],[-117.89999999999998,33.609544099999994],[-117.90008369999998,33.609544799999981],[-117.90068350000001,33.609351300000014],[-117.9010313,33.609351300000014],[-117.90102109999998,33.60934020000002],[-117.9009183,33.609228299999984],[-117.90085379999999,33.609234599999979],[-117.90056149999998,33.609263100000021],[-117.90031750000003,33.609336699999972],[-117.90005810000002,33.609377800000004],[-117.90002670000001,33.609382799999992],[-117.89999999999998,33.609382299999993]]]},"properties":{"OBJECTID":71869,"OBJL":46,"DRVAL1":2.5,"DRVAL2":null,"OBJNAM":"Balboa Island, North Channel ROQ","QUASOU":"10","SOUACC":null,"TECSOU":null,"VERDAT":null,"INFORM":null,"SCAMIN":null,"SORDAT":"20180711","SORIND":"US,US,graph,DD-30739","DSNM":"US5CA1NR.000","SHAPE.AREA":1.2807631e-07,"SHAPE.LEN":0.0023250576040542599}},{"type":"Feature","id":71864,"geometry":{"type":"Polygon","coordinates":[[[-117.89999999999998,33.605321199999992],[-117.89999999999998,33.605502899999976],[-117.90834239999998,33.611255200000016],[-117.9083741,33.611276999999973],[-117.90837599999998,33.611274100000003],[-117.90845150000001,33.611160100000006],[-117.9084287,33.611144200000012],[-117.9083933,33.611119599999995],[-117.90815939999999,33.610956999999985],[-117.90728410000003,33.610348499999986],[-117.90708860000001,33.610212600000011],[-117.90708749999999,33.610211800000002],[-117.906387,33.609724799999981],[-117.90542570000002,33.609056399999986],[-117.90524909999999,33.608933499999978],[-117.90511720000001,33.608841799999993],[-117.90511659999999,33.608841400000017],[-117.9048153,33.608631800000012],[-117.90481419999998,33.608631100000025],[-117.9047635,33.608595799999989],[-117.90466090000001,33.608524499999987],[-117.90379419999999,33.60792170000002],[-117.90353820000001,33.607746299999974],[-117.90353670000002,33.607745799999975],[-117.90353579999999,33.607745500000021],[-117.90349379999998,33.607716400000015],[-117.90342729999998,33.607670299999995],[-117.90331959999997,33.60759569999999],[-117.90299299999998,33.607369399999982],[-117.90297420000002,33.607359700000018],[-117.89999999999998,33.605321199999992]]]},"properties":{"OBJECTID":71864,"OBJL":46,"DRVAL1":4.9000000000000004,"DRVAL2":null,"OBJNAM":"Harbor Island Reach LOQ","QUASOU":"10","SOUACC":null,"TECSOU":null,"VERDAT":null,"INFORM":null,"SCAMIN":null,"SORDAT":"20180711","SORIND":"US,US,graph,DD-30739","DSNM":"US5CA1NR.000","SHAPE.AREA":1.568871975e-06,"SHAPE.LEN":0.020766366172740101}},{"type":"Feature","id":71886,"geometry":{"type":"Polygon","coordinates":[[[-117.89715460000002,33.603720699999997],[-117.89709909999999,33.603682400000025],[-117.8970956,33.603679999999997],[-117.89707959999998,33.603675699999997],[-117.89705800000002,33.603669799999977],[-117.89700699999997,33.60380090000001],[-117.89700679999999,33.603801599999997],[-117.89701159999998,33.603803000000028],[-117.89701250000002,33.603803299999981],[-117.89701439999999,33.603803900000003],[-117.89705889999999,33.603834500000005],[-117.89803869999997,33.604510100000027],[-117.89803979999999,33.60451089999998],[-117.89866719999998,33.60494349999999],[-117.89951769999999,33.605529999999987],[-117.89952039999997,33.605531799999994],[-117.89999999999998,33.605862500000001],[-117.89999999999998,33.605682699999988],[-117.89715460000002,33.603720699999997]]]},"properties":{"OBJECTID":71886,"OBJL":46,"DRVAL1":5.1000000000000005,"DRVAL2":null,"OBJNAM":"Harbor Island Reach RIQ","QUASOU":"10","SOUACC":null,"TECSOU":null,"VERDAT":null,"INFORM":null,"SCAMIN":null,"SORDAT":"20180711","SORIND":"US,US,graph,DD-30739","DSNM":"US5CA1NS.000","SHAPE.AREA":5.3284642499999996e-07,"SHAPE.LEN":0.0075225568678930895}},{"type":"Feature","id":71875,"geometry":{"type":"Polygon","coordinates":[[[-117.88191160000002,33.600000000000023],[-117.8825721,33.600502199999994],[-117.88280479999997,33.600542299999972],[-117.88293220000003,33.600564200000008],[-117.88372049999998,33.600700099999983],[-117.8840697,33.60076029999999],[-117.88742810000002,33.601338999999996],[-117.88743049999999,33.601339399999972],[-117.88748140000001,33.601208799999995],[-117.88739579999998,33.601192099999992],[-117.88277369999997,33.600289599999996],[-117.88276810000002,33.600285299999996],[-117.88265460000002,33.600197200000025],[-117.88240039999999,33.600000000000023],[-117.88191160000002,33.600000000000023]]]},"properties":{"OBJECTID":71875,"OBJL":46,"DRVAL1":4.9000000000000004,"DRVAL2":null,"OBJNAM":"Corona Del Mar Bend ROQ","QUASOU":"10","SOUACC":null,"TECSOU":null,"VERDAT":null,"INFORM":null,"SCAMIN":null,"SORDAT":"20180711","SORIND":"US,US,graph,DD-30739","DSNM":"US5CA1NS.000","SHAPE.AREA":1.1232861699999999e-06,"SHAPE.LEN":0.0116577743604154}},{"type":"Feature","id":71855,"geometry":{"type":"Polygon","coordinates":[[[-117.88156709999998,33.598937799999987],[-117.88156479999998,33.598938499999974],[-117.88117579999999,33.599043900000026],[-117.88116989999997,33.599045499999988],[-117.88240039999999,33.600000000000023],[-117.88287989999998,33.600000000000023],[-117.88156709999998,33.598937799999987]]]},"properties":{"OBJECTID":71855,"OBJL":46,"DRVAL1":6.4000000000000004,"DRVAL2":null,"OBJNAM":"Corona Del Mar Bend RIQ","QUASOU":"10","SOUACC":null,"TECSOU":null,"VERDAT":null,"INFORM":null,"SCAMIN":null,"SORDAT":"20180711","SORIND":"US,US,graph,DD-30739","DSNM":"US5CA1MS.000","SHAPE.AREA":5.1047367999999995e-07,"SHAPE.LEN":0.0041370505190355305}},{"type":"Feature","id":71867,"geometry":{"type":"Polygon","coordinates":[[[-117.92733930000003,33.613190099999997],[-117.92728879999999,33.613295100000016],[-117.92724099999998,33.613405999999998],[-117.92720930000002,33.613467800000024],[-117.927166,33.613552000000027],[-117.92714100000001,33.613602000000014],[-117.92713459999999,33.61361549999998],[-117.92713400000002,33.613616799999988],[-117.92710510000001,33.613676800000007],[-117.92707080000002,33.613748299999997],[-117.92703660000001,33.613819299999989],[-117.92699540000001,33.613904999999988],[-117.926852,33.614202900000009],[-117.92681649999997,33.614276599999982],[-117.92678549999999,33.614341000000024],[-117.92676,33.614394000000004],[-117.92644000000001,33.614449799999988],[-117.92627590000001,33.614478500000018],[-117.92622699999998,33.614486999999997],[-117.926648,33.615041000000019],[-117.92670099999998,33.614876999999979],[-117.9267992,33.614776300000017],[-117.92680530000001,33.614770000000021],[-117.92681800000003,33.614756999999997],[-117.92690119999997,33.614581799999996],[-117.92702400000002,33.614435000000014],[-117.92723899999999,33.614008000000013],[-117.927547,33.613317999999992],[-117.92755,33.613310000000013],[-117.92766,33.613064000000008],[-117.928,33.61235099999999],[-117.92774600000001,33.612345000000005],[-117.92770510000003,33.612429899999995],[-117.92760320000002,33.612641699999983],[-117.92755829999999,33.612734999999986],[-117.92751440000001,33.612826199999972],[-117.92746670000002,33.612925399999995],[-117.9273839,33.613097400000015],[-117.92733930000003,33.613190099999997]]]},"properties":{"OBJECTID":71867,"OBJL":46,"DRVAL1":2.8000000000000003,"DRVAL2":null,"OBJNAM":"Newport Bay","QUASOU":"10","SOUACC":null,"TECSOU":null,"VERDAT":null,"INFORM":null,"SCAMIN":null,"SORDAT":"20180711","SORIND":"US,US,graph,DD-30739","DSNM":"US5CA1NR.000","SHAPE.AREA":8.0477268499999992e-07,"SHAPE.LEN":0.0067919192407303606}},{"type":"Feature","id":71868,"geometry":{"type":"Polygon","coordinates":[[[-117.90845150000001,33.611160100000006],[-117.90837599999998,33.611274100000003],[-117.9083741,33.611276999999973],[-117.90838589999998,33.611285199999998],[-117.92248549999999,33.617802999999981],[-117.92250710000002,33.617813000000012],[-117.9225179,33.61779660000002],[-117.922595,33.617679699999997],[-117.9225768,33.617671299999984],[-117.9224658,33.617620199999976],[-117.92246569999998,33.617620100000011],[-117.92246549999999,33.617619999999988],[-117.92240980000003,33.617594399999973],[-117.91825920000002,33.615681100000018],[-117.9177803,33.615460299999995],[-117.90845150000001,33.611160100000006]]]},"properties":{"OBJECTID":71868,"OBJL":46,"DRVAL1":4.2000000000000002,"DRVAL2":null,"OBJNAM":"Lido Isle Reach LOQ","QUASOU":"10","SOUACC":null,"TECSOU":null,"VERDAT":null,"INFORM":null,"SCAMIN":null,"SORDAT":"20181107","SORIND":"US,US,graph,DD-30739","DSNM":"US5CA1NR.000","SHAPE.AREA":2.3273241950000004e-06,"SHAPE.LEN":0.031445075898081598}},{"type":"Feature","id":71856,"geometry":{"type":"Polygon","coordinates":[[[-117.90829230000003,33.611400500000002],[-117.90821369999998,33.61151910000001],[-117.90821190000003,33.611521900000014],[-117.90823360000002,33.611531899999989],[-117.91472549999997,33.614532899999972],[-117.92232380000002,33.618045400000028],[-117.92234459999997,33.618055000000027],[-117.92234660000003,33.618055900000002],[-117.92234680000001,33.618055599999991],[-117.9224269,33.617934400000024],[-117.92240470000002,33.617924200000004],[-117.90829230000003,33.611400500000002]]]},"properties":{"OBJECTID":71856,"OBJL":46,"DRVAL1":4.9000000000000004,"DRVAL2":null,"OBJNAM":"Lido Isle Reach RIQ","QUASOU":"10","SOUACC":null,"TECSOU":null,"VERDAT":null,"INFORM":null,"SCAMIN":null,"SORDAT":"20180711","SORIND":"US,US,graph,DD-30739","DSNM":"US5CA1NR.000","SHAPE.AREA":2.241129665e-06,"SHAPE.LEN":0.031434839861557803}},{"type":"Feature","id":71870,"geometry":{"type":"Polygon","coordinates":[[[-117.89999999999998,33.60913149999999],[-117.89999999999998,33.609260600000027],[-117.90000040000001,33.609260600000027],[-117.90028339999998,33.609226200000023],[-117.900485,33.609175600000015],[-117.90076859999999,33.609124699999995],[-117.90081550000002,33.609116299999982],[-117.90071269999999,33.609004400000003],[-117.90068120000001,33.609013100000027],[-117.90040850000003,33.609087999999986],[-117.90024920000002,33.609115599999996],[-117.90021180000002,33.609125399999982],[-117.90002029999999,33.609130900000025],[-117.89999999999998,33.60913149999999]]]},"properties":{"OBJECTID":71870,"OBJL":46,"DRVAL1":3.1000000000000001,"DRVAL2":null,"OBJNAM":"Balboa Island, North Channel LIQ","QUASOU":"10","SOUACC":null,"TECSOU":null,"VERDAT":null,"INFORM":null,"SCAMIN":null,"SORDAT":"20180711","SORIND":"US,US,graph,DD-30739","DSNM":"US5CA1NR.000","SHAPE.AREA":8.9529755000000006e-08,"SHAPE.LEN":0.0018378682957317901}},{"type":"Feature","id":71881,"geometry":{"type":"Polygon","coordinates":[[[-117.88748140000001,33.601208799999995],[-117.88743049999999,33.601339399999972],[-117.88743399999998,33.601340400000026],[-117.89025989999999,33.602109999999982],[-117.89640300000002,33.603783099999987],[-117.8969371,33.603928499999995],[-117.89695540000002,33.603933499999982],[-117.89699689999998,33.603826799999979],[-117.89700679999999,33.603801599999997],[-117.88748140000001,33.601208799999995]]]},"properties":{"OBJECTID":71881,"OBJL":46,"DRVAL1":5,"DRVAL2":null,"OBJNAM":"Balboa Reach ROQ","QUASOU":"10","SOUACC":null,"TECSOU":null,"VERDAT":null,"INFORM":null,"SCAMIN":null,"SORDAT":"20180711","SORIND":"US,US,graph,DD-30739","DSNM":"US5CA1NS.000","SHAPE.AREA":1.3831067500000001e-06,"SHAPE.LEN":0.020025535669678098}},{"type":"Feature","id":71874,"geometry":{"type":"Polygon","coordinates":[[[-117.89996059999999,33.609132600000009],[-117.8995898,33.609055099999978],[-117.8987032,33.609051899999997],[-117.89742819999998,33.609047400000009],[-117.8965781,33.609044299999994],[-117.8927549,33.609040199999981],[-117.89012300000002,33.609037300000011],[-117.88992680000001,33.609083699999985],[-117.88986039999998,33.609082100000023],[-117.88972589999997,33.609078899999986],[-117.88965259999998,33.609077200000002],[-117.88946979999997,33.609039800000005],[-117.88865750000002,33.609036000000003],[-117.88740439999998,33.608314399999983],[-117.88593630000003,33.606179800000007],[-117.88551760000001,33.605131099999994],[-117.88524100000001,33.604438300000027],[-117.88509950000002,33.604438500000015],[-117.88507600000003,33.60443859999998],[-117.88534829999998,33.605131799999981],[-117.88577909999998,33.606228900000019],[-117.8872819,33.608410499999991],[-117.88861930000002,33.609173800000008],[-117.8894775,33.609175999999991],[-117.88965880000001,33.609171199999992],[-117.88972439999998,33.609172600000022],[-117.88986299999999,33.609175499999992],[-117.88992919999998,33.609176900000023],[-117.88993060000001,33.609174900000028],[-117.89013419999998,33.609173300000009],[-117.89060799999999,33.609175100000016],[-117.89657849999998,33.609197199999983],[-117.89868100000001,33.609209700000008],[-117.89905099999999,33.609211899999991],[-117.8995888,33.609215099999972],[-117.89999999999998,33.609260600000027],[-117.89999999999998,33.60913149999999],[-117.89996059999999,33.609132600000009]]]},"properties":{"OBJECTID":71874,"OBJL":46,"DRVAL1":3.1000000000000001,"DRVAL2":null,"OBJNAM":"Balboa Island, North Channel LIQ","QUASOU":"10","SOUACC":null,"TECSOU":null,"VERDAT":null,"INFORM":null,"SCAMIN":null,"SORDAT":"20180711","SORIND":"US,US,graph,DD-30739","DSNM":"US5CA1NS.000","SHAPE.AREA":2.5664993350000001e-06,"SHAPE.LEN":0.0350627424818864}},{"type":"Feature","id":71850,"geometry":{"type":"Polygon","coordinates":[[[-117.88462290000001,33.599991299999999],[-117.88445999999999,33.59994690000002],[-117.8844047,33.599931799999979],[-117.88433329999998,33.599912300000028],[-117.88421929999998,33.599881299999993],[-117.88401449999998,33.599825500000009],[-117.88381379999998,33.599770799999988],[-117.8836526,33.599726900000007],[-117.88357889999997,33.599706799999979],[-117.88337840000003,33.59965219999998],[-117.8833702,33.599644899999987],[-117.8833396,33.59961770000001],[-117.88327399999997,33.599559499999998],[-117.88317669999998,33.599473100000012],[-117.88311679999998,33.599419800000021],[-117.88304920000002,33.599359800000002],[-117.88299019999999,33.599307399999987],[-117.88293540000001,33.599258599999985],[-117.8828896,33.599218000000008],[-117.88284220000003,33.599175800000012],[-117.88279799999998,33.599136600000008],[-117.88279599999998,33.599134800000002],[-117.88272769999998,33.599074200000018],[-117.88257420000002,33.598937799999987],[-117.8823544,33.598742500000014],[-117.88195880000001,33.598834399999987],[-117.88316700000001,33.599856499999987],[-117.8831768,33.599864799999978],[-117.88372989999999,33.600000000000023],[-117.88465509999997,33.600000000000023],[-117.88462290000001,33.599991299999999]]]},"properties":{"OBJECTID":71850,"OBJL":46,"DRVAL1":4.9000000000000004,"DRVAL2":null,"OBJNAM":"Corona Del Mar Bend LOQ","QUASOU":"10","SOUACC":null,"TECSOU":null,"VERDAT":null,"INFORM":null,"SCAMIN":null,"SORDAT":"20180711","SORIND":"US,US,graph,DD-30739","DSNM":"US5CA1MS.000","SHAPE.AREA":6.9359986000000004e-07,"SHAPE.LEN":0.00618904766167687}},{"type":"Feature","id":71853,"geometry":{"type":"Polygon","coordinates":[[[-117.88116989999997,33.599045499999988],[-117.88077340000001,33.599134699999979],[-117.88085640000003,33.599197699999991],[-117.88092310000002,33.599248499999987],[-117.88092319999998,33.599248499999987],[-117.88092820000003,33.599252299999989],[-117.88133920000001,33.599564799999996],[-117.88191160000002,33.600000000000023],[-117.88240039999999,33.600000000000023],[-117.88116989999997,33.599045499999988]]]},"properties":{"OBJECTID":71853,"OBJL":46,"DRVAL1":4.9000000000000004,"DRVAL2":null,"OBJNAM":"Corona Del Mar Bend ROQ","QUASOU":"10","SOUACC":null,"TECSOU":null,"VERDAT":null,"INFORM":null,"SCAMIN":null,"SORDAT":"20180711","SORIND":"US,US,graph,DD-30739","DSNM":"US5CA1MS.000","SHAPE.AREA":4.5554350500000002e-07,"SHAPE.LEN":0.0038823061156307102}},{"type":"Feature","id":72019,"geometry":{"type":"Polygon","coordinates":[[[-118.450785,33.974327500000015],[-118.45077450000002,33.974511800000016],[-118.45077450000002,33.975562299999979],[-118.45077450000002,33.975688199999979],[-118.45077450000002,33.975791700000002],[-118.45077459999999,33.975847600000009],[-118.4507749,33.975931600000024],[-118.45077509999999,33.975984100000005],[-118.45131830000003,33.975985200000025],[-118.4520579,33.975978999999995],[-118.45283019999999,33.975977999999998],[-118.45363159999999,33.975976899999978],[-118.45435420000001,33.975970099999984],[-118.45450520000003,33.97596870000001],[-118.45487170000001,33.975968099999989],[-118.45532009999999,33.975967500000024],[-118.4557231,33.975966900000003],[-118.45588780000003,33.975966599999992],[-118.45611810000003,33.975966900000003],[-118.45646779999998,33.975967299999979],[-118.45681739999998,33.975967700000012],[-118.45715719999998,33.975968000000023],[-118.45772199999999,33.97596870000001],[-118.45766739999999,33.975890100000015],[-118.45717589999998,33.975234600000022],[-118.45648840000001,33.974324700000011],[-118.45647300000002,33.974324599999989],[-118.45644979999997,33.974324299999978],[-118.45611489999999,33.974320499999976],[-118.45593489999999,33.974318499999981],[-118.4557077,33.974318499999981],[-118.45545090000002,33.974318499999981],[-118.45530350000001,33.974318900000014],[-118.45489930000002,33.974319900000012],[-118.45443599999999,33.974321099999997],[-118.45398169999999,33.974322200000017],[-118.45380030000001,33.974322700000016],[-118.45345350000002,33.974321599999996],[-118.45314009999998,33.974320599999999],[-118.45290469999998,33.974321099999997],[-118.45244739999998,33.974322200000017],[-118.45199600000001,33.97432329999998],[-118.45138530000003,33.974324700000011],[-118.45137340000002,33.974324799999977],[-118.45099870000001,33.97432839999999],[-118.450785,33.974327500000015]]]},"properties":{"OBJECTID":72019,"OBJL":46,"DRVAL1":3,"DRVAL2":null,"OBJNAM":"Marina Del Rey Basin B","QUASOU":"11","SOUACC":null,"TECSOU":null,"VERDAT":null,"INFORM":null,"SCAMIN":null,"SORDAT":"200603","SORIND":"US,US,graph,Chart 18744","DSNM":"US5CA63M.000","SHAPE.AREA":1.0461022569999999e-05,"SHAPE.LEN":0.016362768247442001}},{"type":"Feature","id":72022,"geometry":{"type":"Polygon","coordinates":[[[-118.45558510000001,33.978587800000014],[-118.45567790000001,33.978587300000015],[-118.45625369999999,33.978584300000023],[-118.45678099999998,33.978581500000018],[-118.45761670000002,33.978577099999995],[-118.45761670000002,33.978388300000006],[-118.45761670000002,33.978055799999993],[-118.45761670000002,33.97767349999998],[-118.45761670000002,33.977288799999997],[-118.45761670000002,33.977006200000005],[-118.45761670000002,33.976934299999982],[-118.45686940000002,33.976934299999982],[-118.4564618,33.976934299999982],[-118.45599959999998,33.976935099999992],[-118.4558662,33.976934299999982],[-118.45554679999998,33.97693529999998],[-118.45503939999998,33.976936799999976],[-118.45469070000001,33.976937799999973],[-118.45448069999998,33.976938200000006],[-118.45385640000001,33.976939200000004],[-118.45332910000002,33.976940099999979],[-118.45275609999999,33.976941000000011],[-118.45253559999998,33.976941399999987],[-118.45210909999997,33.97693750000002],[-118.45176040000001,33.976934299999982],[-118.4505527,33.976946800000007],[-118.44970749999999,33.976955599999997],[-118.4493564,33.97695520000002],[-118.4493655,33.977248400000008],[-118.44936890000002,33.977280199999996],[-118.44943080000002,33.977279199999998],[-118.44950210000002,33.977274399999999],[-118.44951370000001,33.977488400000027],[-118.44951589999999,33.977555900000027],[-118.44950269999998,33.97805169999998],[-118.44950340000003,33.97810149999998],[-118.44950269999998,33.978167100000007],[-118.44950130000001,33.978284700000017],[-118.44950019999999,33.978396999999973],[-118.4494995,33.978455600000018],[-118.44949830000002,33.978566100000023],[-118.44949789999998,33.978600500000027],[-118.4497116,33.978595799999994],[-118.4502316,33.978582300000028],[-118.45039179999998,33.978585699999996],[-118.45069489999997,33.978588100000024],[-118.45102930000002,33.978586099999973],[-118.45123230000002,33.978587800000014],[-118.45136380000002,33.978596600000003],[-118.45201040000001,33.978594600000008],[-118.45234979999998,33.978588999999999],[-118.45255689999999,33.978587500000003],[-118.4528775,33.978586000000007],[-118.4532749,33.978585199999998],[-118.45368250000001,33.978587699999991],[-118.45369410000001,33.978587800000014],[-118.4539676,33.978587800000014],[-118.4543524,33.978587800000014],[-118.45468039999997,33.97858819999999],[-118.45501940000003,33.978587800000014],[-118.45558510000001,33.978587800000014]]]},"properties":{"OBJECTID":72022,"OBJL":46,"DRVAL1":3,"DRVAL2":null,"OBJNAM":"Marina Del Rey Basin C","QUASOU":"11","SOUACC":null,"TECSOU":null,"VERDAT":null,"INFORM":null,"SCAMIN":null,"SORDAT":"200603","SORIND":"US,US,graph,Chart 18744","DSNM":"US5CA63M.000","SHAPE.AREA":1.3411274939999999e-05,"SHAPE.LEN":0.0198080830227866}},{"type":"Feature","id":71871,"geometry":{"type":"Polygon","coordinates":[[[-117.89999999999998,33.609260600000027],[-117.89999999999998,33.609382299999993],[-117.90002670000001,33.609382799999992],[-117.90005810000002,33.609377800000004],[-117.90031750000003,33.609336699999972],[-117.90056149999998,33.609263100000021],[-117.90085379999999,33.609234599999979],[-117.9009183,33.609228299999984],[-117.90081550000002,33.609116299999982],[-117.90076859999999,33.609124699999995],[-117.900485,33.609175600000015],[-117.90028339999998,33.609226200000023],[-117.90000040000001,33.609260600000027],[-117.89999999999998,33.609260600000027]]]},"properties":{"OBJECTID":71871,"OBJL":46,"DRVAL1":3.1000000000000001,"DRVAL2":null,"OBJNAM":"Balboa Island, North Channel RIQ","QUASOU":"10","SOUACC":null,"TECSOU":null,"VERDAT":null,"INFORM":null,"SCAMIN":null,"SORDAT":"20180711","SORIND":"US,US,graph,DD-30739","DSNM":"US5CA1NR.000","SHAPE.AREA":1.00234825e-07,"SHAPE.LEN":0.0020373276661349699}},{"type":"Feature","id":71852,"geometry":{"type":"Polygon","coordinates":[[[-117.87907469999999,33.588533100000006],[-117.87901870000002,33.588358599999992],[-117.87888770000001,33.58795090000001],[-117.87888359999999,33.587951799999985],[-117.87849130000001,33.588039900000012],[-117.881956,33.598825499999975],[-117.88195880000001,33.598834399999987],[-117.8823544,33.598742500000014],[-117.88235259999999,33.598737200000016],[-117.88218430000001,33.598213100000009],[-117.88211389999998,33.597993900000006],[-117.8820399,33.597763699999973],[-117.88191649999999,33.597379499999988],[-117.88189740000001,33.59732009999999],[-117.88184039999999,33.597142399999996],[-117.88180870000002,33.597043799999994],[-117.88176220000003,33.596899199999996],[-117.88170739999998,33.596728600000006],[-117.88162590000002,33.596474999999998],[-117.88162139999997,33.596460700000023],[-117.88149299999998,33.596061200000008],[-117.88140529999998,33.595788000000027],[-117.88138199999997,33.595715499999983],[-117.88135749999998,33.595639300000016],[-117.88127600000001,33.595385700000008],[-117.88117740000001,33.5950785],[-117.88106629999999,33.594732899999997],[-117.88096380000002,33.594413900000006],[-117.88090920000002,33.594243899999981],[-117.88087719999999,33.594144299999982],[-117.8803029,33.592356199999983],[-117.88023299999998,33.592138700000021],[-117.88016370000003,33.591923000000008],[-117.88009629999999,33.591713200000015],[-117.8800908,33.591696000000013],[-117.88000620000003,33.591432699999984],[-117.87995539999997,33.591274499999997],[-117.87989499999998,33.591086500000017],[-117.87985850000001,33.590973099999985],[-117.87982640000001,33.590872999999988],[-117.8797884,33.590754899999979],[-117.87976680000003,33.590687399999979],[-117.87969429999998,33.59046189999998],[-117.87965120000001,33.590327800000011],[-117.8791311,33.588708600000018],[-117.87910190000002,33.588617499999998],[-117.8790937,33.588592000000006],[-117.87908629999998,33.588569199999995],[-117.87907469999999,33.588533100000006]]]},"properties":{"OBJECTID":71852,"OBJL":46,"DRVAL1":3.7000000000000002,"DRVAL2":null,"OBJNAM":"Entrance Channel LOQ","QUASOU":"10","SOUACC":null,"TECSOU":null,"VERDAT":null,"INFORM":null,"SCAMIN":null,"SORDAT":"20200424","SORIND":"US,US,graph,DD-32753","DSNM":"US5CA1MS.000","SHAPE.AREA":4.587070245e-06,"SHAPE.LEN":0.023484917038199399}},{"type":"Feature","id":71888,"geometry":{"type":"Polygon","coordinates":[[[-117.8998029,33.605186100000026],[-117.89899009999999,33.604628999999989],[-117.8983326,33.604178300000001],[-117.89723570000001,33.603426500000012],[-117.89722060000003,33.603422399999999],[-117.89716060000001,33.603406000000007],[-117.89710939999998,33.603538000000015],[-117.89715000000001,33.603548900000021],[-117.89717669999999,33.603556099999992],[-117.89718549999998,33.603562199999999],[-117.8972445,33.603602899999998],[-117.89999999999998,33.605502899999976],[-117.89999999999998,33.605321199999992],[-117.8998029,33.605186100000026]]]},"properties":{"OBJECTID":71888,"OBJL":46,"DRVAL1":4.9000000000000004,"DRVAL2":null,"OBJNAM":"Harbor Island Reach LOQ","QUASOU":"10","SOUACC":null,"TECSOU":null,"VERDAT":null,"INFORM":null,"SCAMIN":null,"SORDAT":"20180711","SORIND":"US,US,graph,DD-30739","DSNM":"US5CA1NS.000","SHAPE.AREA":5.0199165499999993e-07,"SHAPE.LEN":0.0072515649119063701}},{"type":"Feature","id":71879,"geometry":{"type":"Polygon","coordinates":[[[-117.8995888,33.609215099999972],[-117.89905099999999,33.609211899999991],[-117.89868100000001,33.609209700000008],[-117.89657849999998,33.609197199999983],[-117.89060799999999,33.609175100000016],[-117.89013419999998,33.609173300000009],[-117.88993060000001,33.609174900000028],[-117.88992919999998,33.609176900000023],[-117.88986299999999,33.609175499999992],[-117.88972439999998,33.609172600000022],[-117.88965880000001,33.609171199999992],[-117.8894775,33.609175999999991],[-117.88861930000002,33.609173800000008],[-117.8872819,33.608410499999991],[-117.88577909999998,33.606228900000019],[-117.88534829999998,33.605131799999981],[-117.88507600000003,33.60443859999998],[-117.88504469999998,33.60443859999998],[-117.88491099999999,33.604438899999991],[-117.88517910000002,33.60513259999999],[-117.88562189999999,33.606277900000009],[-117.88715939999997,33.608506700000021],[-117.8885813,33.60931149999999],[-117.88948540000001,33.609312299999999],[-117.88966499999998,33.609265300000004],[-117.889723,33.609266300000002],[-117.88986560000001,33.609268900000018],[-117.88993160000001,33.609270100000003],[-117.89014539999999,33.609309199999984],[-117.8965791,33.609349899999984],[-117.89865880000002,33.609367299999974],[-117.89958780000001,33.609375],[-117.89999999999998,33.609382299999993],[-117.89999999999998,33.609260600000027],[-117.8995888,33.609215099999972]]]},"properties":{"OBJECTID":71879,"OBJL":46,"DRVAL1":3.1000000000000001,"DRVAL2":null,"OBJNAM":"Balboa Island, North Channel RIQ","QUASOU":"10","SOUACC":null,"TECSOU":null,"VERDAT":null,"INFORM":null,"SCAMIN":null,"SORDAT":"20180711","SORIND":"US,US,graph,DD-30739","DSNM":"US5CA1NS.000","SHAPE.AREA":2.6010775150000002e-06,"SHAPE.LEN":0.0355253846364997}},{"type":"Feature","id":76218,"geometry":{"type":"Polygon","coordinates":[[[-118.10943759999998,33.715390300000024],[-118.10451569999998,33.721075400000018],[-118.10450100000003,33.721092499999997],[-118.10383400000001,33.721867099999997],[-118.10235469999998,33.724152500000002],[-118.10215349999999,33.724463399999991],[-118.10215249999999,33.724464899999987],[-118.10202079999999,33.72466350000002],[-118.10188260000001,33.724877100000015],[-118.10144350000002,33.725555999999983],[-118.10129819999997,33.725780699999973],[-118.10094670000001,33.726324200000022],[-118.10083659999998,33.726494399999979],[-118.1007674,33.726601399999993],[-118.1007103,33.726689700000009],[-118.10064390000002,33.726762300000019],[-118.10061510000003,33.726793799999996],[-118.10055149999999,33.726863299999991],[-118.1005467,33.726870500000018],[-118.10054409999998,33.726874399999986],[-118.10054020000001,33.726880300000005],[-118.10050790000003,33.726928999999984],[-118.10050280000002,33.72693670000001],[-118.1004021,33.727047599999992],[-118.10057849999998,33.727151400000025],[-118.1008162,33.726988300000016],[-118.10081789999998,33.726987199999996],[-118.10260099999999,33.724509000000012],[-118.10263429999998,33.724463399999991],[-118.10370469999998,33.722996099999989],[-118.10398889999999,33.722628100000009],[-118.10441350000002,33.722098500000016],[-118.10500539999998,33.721404199999995],[-118.1050912,33.721307899999999],[-118.10933510000001,33.716547699999978],[-118.11006830000002,33.715647199999978],[-118.10943759999998,33.715390300000024]]]},"properties":{"OBJECTID":76218,"OBJL":46,"DRVAL1":9.5,"DRVAL2":null,"OBJNAM":"Anaheim Bay Harbor Channel Entrance ROQ","QUASOU":"10","SOUACC":null,"TECSOU":null,"VERDAT":null,"INFORM":null,"SCAMIN":null,"SORDAT":"20260311","SORIND":"US,US,graph,E01595","DSNM":"US5LGBCF.000","SHAPE.AREA":7.9208516099999994e-06,"SHAPE.LEN":0.0306088298952032}},{"type":"Feature","id":71858,"geometry":{"type":"Polygon","coordinates":[[[-117.9224269,33.617934400000024],[-117.92234680000001,33.618055599999991],[-117.92234660000003,33.618055900000002],[-117.92515509999998,33.618860499999982],[-117.92555440000001,33.618859299999997],[-117.92744019999998,33.62027710000001],[-117.92745760000003,33.620293800000013],[-117.92749140000001,33.620326200000022],[-117.92752259999997,33.620356000000015],[-117.92748319999998,33.620396500000027],[-117.92738229999998,33.620500199999981],[-117.92737770000002,33.620504900000014],[-117.92768119999999,33.620554299999981],[-117.927685,33.620548199999973],[-117.9277055,33.620515399999988],[-117.92786949999999,33.620254499999987],[-117.92787449999997,33.620246500000007],[-117.92786969999997,33.62024150000002],[-117.92586189999997,33.618148599999984],[-117.9250687,33.618153500000005],[-117.92434479999997,33.618182400000023],[-117.9224269,33.617934400000024]]]},"properties":{"OBJECTID":71858,"OBJL":46,"DRVAL1":5,"DRVAL2":null,"OBJNAM":"Turning Basin RIQ","QUASOU":"10","SOUACC":null,"TECSOU":null,"VERDAT":null,"INFORM":null,"SCAMIN":null,"SORDAT":"20180711","SORIND":"US,US,graph,DD-30739","DSNM":"US5CA1NR.000","SHAPE.AREA":2.89475107e-06,"SHAPE.LEN":0.013177298474586499}},{"type":"Feature","id":71872,"geometry":{"type":"Polygon","coordinates":[[[-117.90026010000003,33.609011099999975],[-117.90020340000001,33.609029000000021],[-117.90013320000003,33.609047999999973],[-117.90005230000003,33.609064699999976],[-117.90002490000001,33.609063499999991],[-117.90000909999998,33.609057899999982],[-117.89999999999998,33.609054700000002],[-117.89999999999998,33.60913149999999],[-117.90002029999999,33.609130900000025],[-117.90021180000002,33.609125399999982],[-117.90024920000002,33.609115599999996],[-117.90040850000003,33.609087999999986],[-117.90068120000001,33.609013100000027],[-117.90071269999999,33.609004400000003],[-117.90061969999999,33.60890310000002],[-117.90033039999997,33.60901100000001],[-117.90032939999998,33.60901100000001],[-117.90026010000003,33.609011099999975]]]},"properties":{"OBJECTID":71872,"OBJL":46,"DRVAL1":2.1000000000000001,"DRVAL2":null,"OBJNAM":"Balboa Island, North Channel LOQ","QUASOU":"10","SOUACC":null,"TECSOU":null,"VERDAT":null,"INFORM":null,"SCAMIN":null,"SORDAT":"20180711","SORIND":"US,US,graph,DD-30739","DSNM":"US5CA1NR.000","SHAPE.AREA":6.6312075000000012e-08,"SHAPE.LEN":0.00158971053648094}},{"type":"Feature","id":71849,"geometry":{"type":"Polygon","coordinates":[[[-117.87809479999999,33.588128900000015],[-117.87769839999999,33.588217799999995],[-117.87800929999997,33.589187600000002],[-117.87802599999998,33.589239899999995],[-117.87803589999999,33.589270699999986],[-117.8802819,33.596275800000001],[-117.88050509999999,33.596972100000016],[-117.8807109,33.597613899999999],[-117.88116559999997,33.599032299999976],[-117.88116719999999,33.59903730000002],[-117.88116989999997,33.599045499999988],[-117.88117579999999,33.599043900000026],[-117.88156479999998,33.598938499999974],[-117.88156709999998,33.598937799999987],[-117.88156379999998,33.59892769999999],[-117.87809479999999,33.588128900000015]]]},"properties":{"OBJECTID":71849,"OBJL":46,"DRVAL1":5.5,"DRVAL2":null,"OBJNAM":"Entrance Channel RIQ","QUASOU":"10","SOUACC":null,"TECSOU":null,"VERDAT":null,"INFORM":null,"SCAMIN":null,"SORDAT":"20200424","SORIND":"US,US,graph,DD-32753","DSNM":"US5CA1MS.000","SHAPE.AREA":4.6340636549999994e-06,"SHAPE.LEN":0.023541321386144301}},{"type":"Feature","id":71848,"geometry":{"type":"Polygon","coordinates":[[[-117.87769839999999,33.588217799999995],[-117.87730319999997,33.588306499999987],[-117.87730190000002,33.588306799999998],[-117.8773382,33.588419999999985],[-117.87750119999998,33.588928399999986],[-117.87753099999998,33.589021199999991],[-117.87753099999998,33.589021399999979],[-117.87755870000001,33.589107800000022],[-117.8776125,33.58927540000002],[-117.87765419999999,33.589405699999986],[-117.87765680000001,33.589413799999988],[-117.87766360000001,33.589434700000027],[-117.87767029999998,33.589455699999974],[-117.87768069999998,33.589488300000028],[-117.87768449999999,33.589500199999975],[-117.8778681,33.590072799999973],[-117.87822240000003,33.591177700000003],[-117.87830939999998,33.591449300000022],[-117.87873719999999,33.592783399999973],[-117.87938739999998,33.594811499999992],[-117.87940179999998,33.594856400000026],[-117.87944770000001,33.594999700000017],[-117.87956889999998,33.595377799999994],[-117.87966519999998,33.595678099999986],[-117.87990760000002,33.596434199999976],[-117.87996889999999,33.596625300000028],[-117.8799927,33.5966995],[-117.88003639999999,33.596835899999974],[-117.8801181,33.597090700000024],[-117.88013439999997,33.597141599999986],[-117.88014779999997,33.597183200000018],[-117.88015949999999,33.597219800000005],[-117.88021400000002,33.597389700000008],[-117.88032049999998,33.597721799999988],[-117.88037070000001,33.597878499999979],[-117.88045670000002,33.598146799999995],[-117.88047660000001,33.598208800000009],[-117.88077320000002,33.599133999999992],[-117.88077340000001,33.599134699999979],[-117.88116989999997,33.599045499999988],[-117.88116719999999,33.59903730000002],[-117.88116559999997,33.599032299999976],[-117.8807109,33.597613899999999],[-117.88050509999999,33.596972100000016],[-117.8802819,33.596275800000001],[-117.87803589999999,33.589270699999986],[-117.87802599999998,33.589239899999995],[-117.87800929999997,33.589187600000002],[-117.87769839999999,33.588217799999995]]]},"properties":{"OBJECTID":71848,"OBJL":46,"DRVAL1":2.1000000000000001,"DRVAL2":null,"OBJNAM":"Entrance Channel ROQ","QUASOU":"10","SOUACC":null,"TECSOU":null,"VERDAT":null,"INFORM":null,"SCAMIN":null,"SORDAT":"20200424","SORIND":"US,US,graph,DD-32753","DSNM":"US5CA1MS.000","SHAPE.AREA":4.6018293399999998e-06,"SHAPE.LEN":0.023554164044516102}},{"type":"Feature","id":71878,"geometry":{"type":"Polygon","coordinates":[[[-117.88763569999998,33.600812000000019],[-117.88758669999999,33.600938100000008],[-117.88758489999998,33.600942599999996],[-117.89710939999998,33.603538000000015],[-117.89716060000001,33.603406000000007],[-117.8878982,33.600883399999987],[-117.88781469999998,33.600860699999998],[-117.88763569999998,33.600812000000019]]]},"properties":{"OBJECTID":71878,"OBJL":46,"DRVAL1":4.9000000000000004,"DRVAL2":null,"OBJNAM":"Balboa Reach LOQ","QUASOU":"10","SOUACC":null,"TECSOU":null,"VERDAT":null,"INFORM":null,"SCAMIN":null,"SORDAT":"20180711","SORIND":"US,US,graph,DD-30739","DSNM":"US5CA1NS.000","SHAPE.AREA":1.3833415650000001e-06,"SHAPE.LEN":0.020025308517442299}},{"type":"Feature","id":72025,"geometry":{"type":"Polygon","coordinates":[[[-118.44971829999997,33.98121279999998],[-118.44987170000002,33.98121279999998],[-118.45004899999998,33.981211700000017],[-118.45035259999997,33.98120990000001],[-118.4504455,33.98120990000001],[-118.45082000000002,33.98120990000001],[-118.451232,33.98120990000001],[-118.45162800000003,33.98120990000001],[-118.45193949999998,33.981208600000002],[-118.45235630000002,33.981206999999984],[-118.45257240000001,33.981207499999982],[-118.45310610000001,33.98120879999999],[-118.45352020000001,33.98120990000001],[-118.45362729999999,33.981209499999977],[-118.45414110000002,33.981207600000005],[-118.4546684,33.981204100000014],[-118.45506449999999,33.981204199999979],[-118.45509179999999,33.981204100000014],[-118.45545909999998,33.981204100000014],[-118.45552739999999,33.981204100000014],[-118.45554979999997,33.98120879999999],[-118.45570509999999,33.981296999999984],[-118.4558131,33.981349200000011],[-118.45588429999998,33.981275299999993],[-118.455893,33.981265800000017],[-118.45594999999997,33.981152699999996],[-118.45607919999998,33.980953600000021],[-118.45669729999997,33.979999799999973],[-118.45669199999998,33.979749099999992],[-118.45669529999998,33.979551700000002],[-118.45643480000001,33.979553399999986],[-118.45617149999998,33.979554699999994],[-118.45589339999998,33.97955619999999],[-118.45556099999999,33.979557899999975],[-118.4555378,33.979557999999997],[-118.45522199999999,33.979554800000017],[-118.45496630000002,33.979552200000001],[-118.4548254,33.979553500000009],[-118.45442220000001,33.97955730000001],[-118.45402890000003,33.979560900000024],[-118.45390680000003,33.979560499999991],[-118.45356609999999,33.979559400000028],[-118.45323079999997,33.979558199999985],[-118.45318559999998,33.979557999999997],[-118.45283599999999,33.979558800000007],[-118.45237500000002,33.979559900000027],[-118.45197180000002,33.979560699999979],[-118.45188239999999,33.979560900000024],[-118.45140220000002,33.979560300000003],[-118.45100109999998,33.979559800000004],[-118.45067239999997,33.979559300000005],[-118.4503292,33.979558899999972],[-118.44999430000001,33.979558399999974],[-118.4497149,33.979557999999997],[-118.44966490000002,33.979557999999997],[-118.44948749999998,33.979558199999985],[-118.4494866,33.97963900000002],[-118.44948399999998,33.979886700000009],[-118.44948240000002,33.980034999999987],[-118.44948160000001,33.9801061],[-118.44947589999998,33.980633599999976],[-118.44947450000001,33.980954399999973],[-118.44947339999999,33.981212500000026],[-118.44965430000002,33.981212200000016],[-118.44971829999997,33.98121279999998]]]},"properties":{"OBJECTID":72025,"OBJL":46,"DRVAL1":3,"DRVAL2":null,"OBJNAM":"Marina Del Rey Basin D","QUASOU":"11","SOUACC":null,"TECSOU":null,"VERDAT":null,"INFORM":null,"SCAMIN":null,"SORDAT":"200911","SORIND":"US,US,graph,BP-189432","DSNM":"US5CA63M.000","SHAPE.AREA":1.1466437505e-05,"SHAPE.LEN":0.0173019907222553}},{"type":"Feature","id":72027,"geometry":{"type":"Polygon","coordinates":[[[-118.44949789999998,33.978600500000027],[-118.44949830000002,33.978566100000023],[-118.4494995,33.978455600000018],[-118.44950019999999,33.978396999999973],[-118.44950130000001,33.978284700000017],[-118.44950269999998,33.978167100000007],[-118.44950340000003,33.97810149999998],[-118.44950269999998,33.97805169999998],[-118.44951589999999,33.977555900000027],[-118.44951370000001,33.977488400000027],[-118.44950210000002,33.977274399999999],[-118.44943080000002,33.977279199999998],[-118.44936890000002,33.977280199999996],[-118.4493655,33.977248400000008],[-118.4493564,33.97695520000002],[-118.44935400000003,33.976877399999978],[-118.44932260000002,33.976437299999986],[-118.44662929999998,33.976439400000004],[-118.44641580000001,33.976439000000028],[-118.44641660000002,33.976516600000025],[-118.44640900000002,33.976996100000008],[-118.44641159999998,33.977376400000026],[-118.44648760000001,33.977407500000027],[-118.44672589999999,33.977516999999978],[-118.44672600000001,33.978325900000016],[-118.44672759999997,33.979157999999984],[-118.44655010000002,33.979220999999995],[-118.44644269999998,33.979261800000018],[-118.44641000000001,33.979275400000006],[-118.44639910000001,33.979280399999993],[-118.44641280000002,33.979297299999985],[-118.44641050000001,33.979579600000022],[-118.44641289999998,33.980114399999991],[-118.446414,33.980365199999994],[-118.44646519999998,33.980362000000014],[-118.44651579999999,33.980359799999974],[-118.44672450000002,33.980363199999999],[-118.4467247,33.981192899999996],[-118.44699429999997,33.981343900000013],[-118.44703149999998,33.981363999999985],[-118.44704419999999,33.981867599999987],[-118.44689620000003,33.981862999999976],[-118.44648740000002,33.981854499999997],[-118.44645980000001,33.981856199999982],[-118.44642069999998,33.981853100000023],[-118.44641569999999,33.982097899999985],[-118.44641569999999,33.983212900000012],[-118.4464577,33.983220399999993],[-118.44697539999999,33.983313599999974],[-118.44731710000002,33.983375000000024],[-118.44759010000001,33.983424200000002],[-118.4477564,33.983458799999994],[-118.44810130000002,33.983530599999995],[-118.44831790000001,33.983571600000005],[-118.4484387,33.983594499999981],[-118.44857280000002,33.983623899999998],[-118.44860319999998,33.983628500000009],[-118.44866159999998,33.983637400000021],[-118.44875059999998,33.983652899999981],[-118.44892329999999,33.983685999999977],[-118.44910010000001,33.983715000000018],[-118.4491658,33.983728699999972],[-118.44920969999998,33.983735500000023],[-118.44927230000002,33.983748999999989],[-118.44936860000001,33.983769800000005],[-118.44944120000002,33.983781500000021],[-118.44945089999999,33.983710900000005],[-118.44946540000001,33.983592600000009],[-118.4494747,33.983468599999981],[-118.44948590000001,33.983362699999986],[-118.44948599999998,33.983348400000011],[-118.44948529999999,33.983340699999985],[-118.4494823,33.98326320000001],[-118.44948119999998,33.983133599999974],[-118.44946920000001,33.982180000000028],[-118.44950219999998,33.982178200000021],[-118.44966340000002,33.982174699999973],[-118.44973040000002,33.982179099999996],[-118.44972860000001,33.982152499999984],[-118.4497283,33.982148999999993],[-118.44972180000002,33.982080800000006],[-118.44970260000002,33.981819400000006],[-118.44971829999997,33.98121279999998],[-118.44965430000002,33.981212200000016],[-118.44947339999999,33.981212500000026],[-118.44947450000001,33.980954399999973],[-118.44947589999998,33.980633599999976],[-118.44948160000001,33.9801061],[-118.44948240000002,33.980034999999987],[-118.44948399999998,33.979886700000009],[-118.4494866,33.97963900000002],[-118.44948749999998,33.979558199999985],[-118.44966490000002,33.979557999999997],[-118.4497149,33.979557999999997],[-118.44971179999999,33.979530899999986],[-118.44971179999999,33.9794895],[-118.44971179999999,33.978703100000018],[-118.44971229999999,33.978619200000026],[-118.4497116,33.978595799999994],[-118.44949789999998,33.978600500000027]],[[-118.4476075,33.982010000000002],[-118.44760630000002,33.982089200000019],[-118.44749919999998,33.982090000000028],[-118.44750329999999,33.98201210000002],[-118.4476075,33.982010000000002]]]},"properties":{"OBJECTID":72027,"OBJL":46,"DRVAL1":3.1000000000000001,"DRVAL2":null,"OBJNAM":"Marina Del Rey Channel","QUASOU":"10","SOUACC":null,"TECSOU":null,"VERDAT":null,"INFORM":null,"SCAMIN":null,"SORDAT":"20180911","SORIND":"US,US,graph,DD-30145","DSNM":"US5CA63M.000","SHAPE.AREA":2.0799452479999997e-05,"SHAPE.LEN":0.0231369109088333}},{"type":"Feature","id":71860,"geometry":{"type":"Polygon","coordinates":[[[-117.92234660000003,33.618055900000002],[-117.92226160000001,33.618184799999995],[-117.92225869999999,33.618189099999995],[-117.92718960000002,33.620474399999978],[-117.92737770000002,33.620504900000014],[-117.92738229999998,33.620500199999981],[-117.92748319999998,33.620396500000027],[-117.92752259999997,33.620356000000015],[-117.92749140000001,33.620326200000022],[-117.92745760000003,33.620293800000013],[-117.92744019999998,33.62027710000001],[-117.92555440000001,33.618859299999997],[-117.92515509999998,33.618860499999982],[-117.92234660000003,33.618055900000002]]]},"properties":{"OBJECTID":71860,"OBJL":46,"DRVAL1":5,"DRVAL2":null,"OBJNAM":"Turning Basin ROQ","QUASOU":"10","SOUACC":null,"TECSOU":null,"VERDAT":null,"INFORM":null,"SCAMIN":null,"SORDAT":"20180711","SORIND":"US,US,graph,DD-30739","DSNM":"US5CA1NR.000","SHAPE.AREA":2.5980203499999999e-06,"SHAPE.LEN":0.0117868386835474}},{"type":"Feature","id":71861,"geometry":{"type":"Polygon","coordinates":[[[-117.89999999999998,33.605682699999988],[-117.89999999999998,33.605862500000001],[-117.90703209999998,33.610711400000014],[-117.90703480000002,33.610713200000021],[-117.908162,33.611490500000002],[-117.90818380000002,33.611505500000021],[-117.90819870000001,33.611515699999984],[-117.90821190000003,33.611521900000014],[-117.90821369999998,33.61151910000001],[-117.90829230000003,33.611400500000002],[-117.90825189999998,33.611372599999982],[-117.89999999999998,33.605682699999988]]]},"properties":{"OBJECTID":71861,"OBJL":46,"DRVAL1":5.1000000000000005,"DRVAL2":null,"OBJNAM":"Harbor Island Reach RIQ","QUASOU":"10","SOUACC":null,"TECSOU":null,"VERDAT":null,"INFORM":null,"SCAMIN":null,"SORDAT":"20180711","SORIND":"US,US,graph,DD-30739","DSNM":"US5CA1NR.000","SHAPE.AREA":1.4839476499999999e-06,"SHAPE.LEN":0.020371287441243204}},{"type":"Feature","id":71887,"geometry":{"type":"Polygon","coordinates":[[[-117.8972445,33.603602899999998],[-117.89718549999998,33.603562199999999],[-117.89717669999999,33.603556099999992],[-117.89715000000001,33.603548900000021],[-117.89710939999998,33.603538000000015],[-117.89705930000002,33.603666599999997],[-117.89705800000002,33.603669799999977],[-117.89707959999998,33.603675699999997],[-117.8970956,33.603679999999997],[-117.89709909999999,33.603682400000025],[-117.89715460000002,33.603720699999997],[-117.89999999999998,33.605682699999988],[-117.89999999999998,33.605502899999976],[-117.8972445,33.603602899999998]]]},"properties":{"OBJECTID":71887,"OBJL":46,"DRVAL1":5.1000000000000005,"DRVAL2":null,"OBJNAM":"Harbor Island Reach LIQ","QUASOU":"10","SOUACC":null,"TECSOU":null,"VERDAT":null,"INFORM":null,"SCAMIN":null,"SORDAT":"20180711","SORIND":"US,US,graph,DD-30739","DSNM":"US5CA1NS.000","SHAPE.AREA":5.2254777499999995e-07,"SHAPE.LEN":0.0073872961279967406}},{"type":"Feature","id":71884,"geometry":{"type":"Polygon","coordinates":[[[-117.89952039999997,33.605531799999994],[-117.89951769999999,33.605529999999987],[-117.89866719999998,33.60494349999999],[-117.89803979999999,33.60451089999998],[-117.89803869999997,33.604510100000027],[-117.89705889999999,33.603834500000005],[-117.89701439999999,33.603803900000003],[-117.89701250000002,33.603803299999981],[-117.89701159999998,33.603803000000028],[-117.89700679999999,33.603801599999997],[-117.89699689999998,33.603826799999979],[-117.89695540000002,33.603933499999982],[-117.8971348,33.6040572],[-117.89794549999999,33.604616200000009],[-117.8979463,33.604616799999974],[-117.89856479999997,33.605043299999977],[-117.89943,33.605639800000006],[-117.89952649999998,33.605706300000008],[-117.89999999999998,33.606032900000002],[-117.89999999999998,33.605862500000001],[-117.89952039999997,33.605531799999994]]]},"properties":{"OBJECTID":71884,"OBJL":46,"DRVAL1":4.9000000000000004,"DRVAL2":null,"OBJNAM":"Harbor Island Reach ROQ","QUASOU":"10","SOUACC":null,"TECSOU":null,"VERDAT":null,"INFORM":null,"SCAMIN":null,"SORDAT":"20180711","SORIND":"US,US,graph,DD-30739","DSNM":"US5CA1NS.000","SHAPE.AREA":5.1421085499999997e-07,"SHAPE.LEN":0.007644675562265721}},{"type":"Feature","id":71873,"geometry":{"type":"Polygon","coordinates":[[[-117.88287989999998,33.600000000000023],[-117.88296780000002,33.60007109999998],[-117.8829753,33.600077199999987],[-117.88745060000002,33.601064000000008],[-117.88751330000002,33.601077799999985],[-117.88753050000003,33.601082500000018],[-117.88753409999998,33.601073299999996],[-117.88758489999998,33.600942599999996],[-117.88751000000002,33.600924299999974],[-117.88372989999999,33.600000000000023],[-117.88287989999998,33.600000000000023]]]},"properties":{"OBJECTID":71873,"OBJL":46,"DRVAL1":6.2000000000000002,"DRVAL2":null,"OBJNAM":"Corona Del Mar Bend LIQ","QUASOU":"10","SOUACC":null,"TECSOU":null,"VERDAT":null,"INFORM":null,"SCAMIN":null,"SORDAT":"20180711","SORIND":"US,US,graph,DD-30739","DSNM":"US5CA1NS.000","SHAPE.AREA":8.8120683999999996e-07,"SHAPE.LEN":0.0097562287162027}},{"type":"Feature","id":72018,"geometry":{"type":"Polygon","coordinates":[[[-118.44971240000001,33.976865099999998],[-118.44971270000002,33.976856300000009],[-118.4497149,33.975997600000028],[-118.45033790000002,33.975983100000008],[-118.45049,33.975983400000018],[-118.45077509999999,33.975984100000005],[-118.4507749,33.975931600000024],[-118.45077459999999,33.975847600000009],[-118.45077450000002,33.975791700000002],[-118.45077450000002,33.975688199999979],[-118.45077450000002,33.975562299999979],[-118.45077450000002,33.974511800000016],[-118.450785,33.974327500000015],[-118.45066279999998,33.974327099999982],[-118.45063240000002,33.974325000000022],[-118.4501755,33.974328000000014],[-118.44970069999999,33.97432409999999],[-118.44970139999998,33.974299799999983],[-118.44970139999998,33.97423120000002],[-118.44970210000002,33.974110999999994],[-118.44969909999998,33.974009700000011],[-118.44969950000001,33.973388999999997],[-118.44970499999999,33.973348499999986],[-118.45000529999999,33.973355599999991],[-118.45013449999999,33.973354900000004],[-118.45056979999998,33.973354299999983],[-118.4505681,33.973239799999988],[-118.45056749999998,33.973195499999974],[-118.45056749999998,33.973141800000008],[-118.45056749999998,33.973043800000028],[-118.45056749999998,33.972932200000002],[-118.45056749999998,33.972803699999986],[-118.45056749999998,33.972051599999986],[-118.45056749999998,33.971699600000022],[-118.45053519999999,33.971699600000022],[-118.45038030000001,33.971699100000023],[-118.44994209999999,33.971702100000016],[-118.44985680000002,33.97170460000001],[-118.44970979999999,33.971704499999987],[-118.44951639999999,33.971712400000001],[-118.44951659999998,33.971731299999988],[-118.44971179999999,33.971733200000017],[-118.44985600000001,33.971729100000005],[-118.44985500000001,33.971762300000023],[-118.44945869999998,33.971764300000018],[-118.44946970000001,33.972256099999981],[-118.4494287,33.972255500000017],[-118.44940639999999,33.972255700000005],[-118.4493248,33.972222999999985],[-118.44932610000001,33.972323399999993],[-118.44932260000002,33.976437299999986],[-118.44935400000003,33.976877399999978],[-118.4493564,33.97695520000002],[-118.44970749999999,33.976955599999997],[-118.44971240000001,33.976865099999998]]]},"properties":{"OBJECTID":72018,"OBJL":46,"DRVAL1":4.5,"DRVAL2":null,"OBJNAM":"Marina Del Rey Channel","QUASOU":"11","SOUACC":null,"TECSOU":null,"VERDAT":null,"INFORM":null,"SCAMIN":null,"SORDAT":"200603","SORIND":"US,US,graph,Chart 18744","DSNM":"US5CA63M.000","SHAPE.AREA":5.1063030299999999e-06,"SHAPE.LEN":0.0158222405749644}},{"type":"Feature","id":72028,"geometry":{"type":"Polygon","coordinates":[[[-118.44641580000001,33.976439000000028],[-118.44662929999998,33.976439400000004],[-118.44932260000002,33.976437299999986],[-118.44932610000001,33.972323399999993],[-118.4493248,33.972222999999985],[-118.44940639999999,33.972255700000005],[-118.44941019999999,33.971711599999992],[-118.44935479999998,33.971712200000013],[-118.4493597,33.971561800000018],[-118.44939929999998,33.971059099999991],[-118.44942220000001,33.971006299999999],[-118.44944020000003,33.970981499999994],[-118.44945710000002,33.970977800000014],[-118.44957269999998,33.970973599999979],[-118.44958109999999,33.970963200000028],[-118.44959949999998,33.970929800000022],[-118.44960900000001,33.970891300000005],[-118.4496039,33.970804199999975],[-118.44959949999998,33.970735400000024],[-118.44961999999998,33.970690699999977],[-118.44963730000001,33.970637500000009],[-118.44963849999999,33.970551399999977],[-118.44964429999999,33.970516299999986],[-118.44964340000001,33.970494799999983],[-118.44963969999998,33.970474899999999],[-118.44964249999998,33.970398499999988],[-118.44964299999998,33.970395699999983],[-118.44966520000003,33.970359200000019],[-118.4496785,33.970319599999982],[-118.44967759999997,33.970306900000026],[-118.4496747,33.970218799999998],[-118.44964099999999,33.970201799999984],[-118.4495101,33.970193400000028],[-118.44946069999997,33.970151499999986],[-118.44945710000002,33.970135900000002],[-118.44947480000002,33.970127600000012],[-118.44709019999999,33.970122300000014],[-118.44689679999999,33.970124800000008],[-118.44687900000002,33.970135700000014],[-118.44682219999999,33.9701594],[-118.44683040000001,33.970166199999994],[-118.44683040000001,33.970185700000002],[-118.44682030000001,33.970191999999997],[-118.44680840000001,33.970197400000018],[-118.4467937,33.970195900000022],[-118.44639480000001,33.970191699999987],[-118.44639919999997,33.970314099999996],[-118.44640379999998,33.970440699999983],[-118.446348,33.970442199999979],[-118.44634980000001,33.970560700000021],[-118.44641840000003,33.970558100000005],[-118.44641840000003,33.97045159999999],[-118.44644720000002,33.970453099999986],[-118.44644540000002,33.970313599999997],[-118.446485,33.970313599999997],[-118.44648489999997,33.97032710000002],[-118.44648460000002,33.970448999999974],[-118.44648389999998,33.970742499999972],[-118.44648360000002,33.970862199999999],[-118.44648330000001,33.970972800000027],[-118.44648319999999,33.971030499999983],[-118.44648369999999,33.971096999999986],[-118.446485,33.971258499999976],[-118.44644540000002,33.971258499999976],[-118.44644540000002,33.970738100000005],[-118.44642019999998,33.970738100000005],[-118.44641840000003,33.970615099999975],[-118.44634079999997,33.970617699999991],[-118.44634980000001,33.970874100000003],[-118.44640199999998,33.970875599999999],[-118.44640559999999,33.9714156],[-118.4464036,33.971643700000016],[-118.44640020000003,33.972036600000024],[-118.44640559999999,33.972206099999994],[-118.44640559999999,33.972567500000025],[-118.44640079999999,33.972874699999977],[-118.44640140000001,33.972949299999982],[-118.44640020000003,33.973042899999996],[-118.44639480000001,33.973293300000023],[-118.44639840000002,33.97384390000002],[-118.44640329999999,33.974043600000016],[-118.44640470000002,33.974103599999978],[-118.44640559999999,33.974137900000017],[-118.44640349999997,33.974196899999981],[-118.44640779999997,33.974255599999992],[-118.44640779999997,33.974539600000014],[-118.44623730000001,33.974620099999981],[-118.4461531,33.974658599999998],[-118.44612960000001,33.97467039999998],[-118.44590149999999,33.974776799999972],[-118.44577839999999,33.974834699999974],[-118.44564339999999,33.974903799999993],[-118.44562530000002,33.974911500000019],[-118.4456161,33.974915800000019],[-118.44593359999999,33.975429399999996],[-118.4459751,33.975489499999981],[-118.44602559999998,33.975554100000011],[-118.4461321,33.975698399999999],[-118.44638959999997,33.975982199999976],[-118.4463983,33.976005499999985],[-118.44641580000001,33.976439000000028]],[[-118.44647559999999,33.972327199999995],[-118.44647559999999,33.972477200000014],[-118.44647559999999,33.972496200000023],[-118.44643400000001,33.972495700000024],[-118.44644039999997,33.972029099999986],[-118.44645700000001,33.972029099999986],[-118.44655219999999,33.972029099999986],[-118.4465467,33.971736599999986],[-118.44669379999999,33.971736599999986],[-118.4466989,33.972060800000008],[-118.44649579999998,33.972064499999988],[-118.4464931,33.972132400000021],[-118.44669260000001,33.972133100000008],[-118.44669060000001,33.972187000000019],[-118.4464734,33.972185299999978],[-118.44647559999999,33.972327199999995]],[[-118.44664879999999,33.97290559999999],[-118.44670059999999,33.972907200000009],[-118.44669770000002,33.972990999999979],[-118.44644410000001,33.972992200000022],[-118.44643380000002,33.972992299999987],[-118.44643380000002,33.972948400000007],[-118.44643380000002,33.972907799999973],[-118.4464524,33.972907899999996],[-118.44664879999999,33.97290559999999]],[[-118.44669099999999,33.973257400000023],[-118.44669149999999,33.973328999999978],[-118.44647250000003,33.973330799999985],[-118.44647300000003,33.973292800000024],[-118.44644449999998,33.973290599999984],[-118.44644440000002,33.973283600000002],[-118.44644410000001,33.973257699999976],[-118.44665450000002,33.97325699999999],[-118.44669099999999,33.973257400000023]],[[-118.44659960000001,33.974200199999984],[-118.44659769999998,33.974004499999978],[-118.44662449999998,33.974001699999974],[-118.44665429999998,33.974004200000024],[-118.4466496,33.974519799999996],[-118.44660270000003,33.974519799999996],[-118.44659960000001,33.974200199999984]],[[-118.44631809999998,33.974701100000004],[-118.44646840000001,33.974918800000012],[-118.44648119999999,33.974934899999994],[-118.44645609999998,33.974946299999999],[-118.44655510000001,33.975085200000024],[-118.44643259999998,33.975137299999972],[-118.44616180000003,33.974753200000009],[-118.44619130000001,33.974743499999988],[-118.44620859999998,33.97473789999998],[-118.44628160000002,33.974714100000028],[-118.44631809999998,33.974701100000004]]]},"properties":{"OBJECTID":72028,"OBJL":46,"DRVAL1":3.6000000000000001,"DRVAL2":null,"OBJNAM":"Marina Del Rey Main Channel","QUASOU":"10","SOUACC":null,"TECSOU":null,"VERDAT":null,"INFORM":"Speed limits are posted on uncharted White and Orange can buoys in the improved channel.","SCAMIN":null,"SORDAT":"20200708","SORIND":"US,US,graph,DD-33134","DSNM":"US5CA63M.000","SHAPE.AREA":1.9124530829999997e-05,"SHAPE.LEN":0.0281894460199392}},{"type":"Feature","id":76216,"geometry":{"type":"Polygon","coordinates":[[[-118.1112498,33.716189600000007],[-118.10636640000001,33.721759899999995],[-118.10525539999998,33.72302719999999],[-118.10510849999997,33.723199399999999],[-118.10494840000001,33.723366100000021],[-118.10417460000002,33.724142799999981],[-118.10385669999999,33.724463399999991],[-118.10237360000002,33.725934499999994],[-118.10114800000002,33.727165599999978],[-118.10094320000002,33.727355799999998],[-118.10118670000003,33.727465900000027],[-118.10128739999999,33.727322000000015],[-118.10130550000002,33.727305000000001],[-118.1013193,33.7272921],[-118.10134820000002,33.727254599999981],[-118.10135389999999,33.7272471],[-118.10169969999998,33.72693670000001],[-118.1017913,33.726854500000002],[-118.10265870000001,33.7260761],[-118.10329439999998,33.725506300000006],[-118.10447770000002,33.724464800000021],[-118.10447900000003,33.724463599999979],[-118.10447929999998,33.724463399999991],[-118.1045858,33.724367799999982],[-118.10465429999999,33.724306300000023],[-118.10571570000002,33.723364300000014],[-118.10600579999999,33.723118100000022],[-118.10668550000003,33.722325500000011],[-118.10722140000001,33.721700699999985],[-118.11179060000001,33.716436699999974],[-118.1112498,33.716189600000007]]]},"properties":{"OBJECTID":76216,"OBJL":46,"DRVAL1":10,"DRVAL2":null,"OBJNAM":"Anaheim Bay Harbor Channel Entrance LOQ","QUASOU":"10","SOUACC":null,"TECSOU":null,"VERDAT":null,"INFORM":null,"SCAMIN":null,"SORDAT":"20260311","SORIND":"US,US,graph,E01595","DSNM":"US5LGBCF.000","SHAPE.AREA":7.6256682100000002e-06,"SHAPE.LEN":0.031399953449486505}},{"type":"Feature","id":76217,"geometry":{"type":"Polygon","coordinates":[[[-118.11006830000002,33.715647199999978],[-118.10933510000001,33.716547699999978],[-118.1050912,33.721307899999999],[-118.10500539999998,33.721404199999995],[-118.10441350000002,33.722098500000016],[-118.10398889999999,33.722628100000009],[-118.10370469999998,33.722996099999989],[-118.10263429999998,33.724463399999991],[-118.10260099999999,33.724509000000012],[-118.10081789999998,33.726987199999996],[-118.1008162,33.726988300000016],[-118.10057849999998,33.727151400000025],[-118.10079760000002,33.727274200000011],[-118.1008137,33.727283199999988],[-118.10094320000002,33.727355799999998],[-118.10114800000002,33.727165599999978],[-118.10237360000002,33.725934499999994],[-118.10385669999999,33.724463399999991],[-118.10417460000002,33.724142799999981],[-118.10494840000001,33.723366100000021],[-118.10510849999997,33.723199399999999],[-118.10525539999998,33.72302719999999],[-118.10636640000001,33.721759899999995],[-118.1112498,33.716189600000007],[-118.11006830000002,33.715647199999978]]]},"properties":{"OBJECTID":76217,"OBJL":46,"DRVAL1":11.4,"DRVAL2":null,"OBJNAM":"Anaheim Bay Harbor Channel Entrance MH","QUASOU":"10","SOUACC":null,"TECSOU":null,"VERDAT":null,"INFORM":"Depth for a width of 243.8-85.3 meters/800-280 feet","SCAMIN":null,"SORDAT":"20260311","SORIND":"US,US,graph,E01595","DSNM":"US5LGBCF.000","SHAPE.AREA":1.5974177325e-05,"SHAPE.LEN":0.031861911667090403}},{"type":"Feature","id":71857,"geometry":{"type":"Polygon","coordinates":[[[-117.92786969999997,33.62024150000002],[-117.92787449999997,33.620246500000007],[-117.92786949999999,33.620254499999987],[-117.9277055,33.620515399999988],[-117.927685,33.620548199999973],[-117.92768119999999,33.620554299999981],[-117.92798340000002,33.620603399999993],[-117.92798679999999,33.6205961],[-117.92799189999999,33.620584899999983],[-117.9280033,33.6205602],[-117.9280144,33.620535700000005],[-117.92804319999999,33.620472899999982],[-117.92807060000001,33.620412900000019],[-117.92809269999998,33.620364800000004],[-117.9281368,33.620268199999998],[-117.92820110000002,33.62013619999999],[-117.92617089999999,33.617437600000017],[-117.92498399999999,33.617445299999986],[-117.92445629999997,33.617720200000008],[-117.92250710000002,33.617813000000012],[-117.92243189999999,33.617926699999998],[-117.9224269,33.617934400000024],[-117.92434479999997,33.618182400000023],[-117.9250687,33.618153500000005],[-117.92586189999997,33.618148599999984],[-117.92786969999997,33.62024150000002]]]},"properties":{"OBJECTID":71857,"OBJL":46,"DRVAL1":4.2000000000000002,"DRVAL2":null,"OBJNAM":"Turning Basin LIQ","QUASOU":"10","SOUACC":null,"TECSOU":null,"VERDAT":null,"INFORM":null,"SCAMIN":null,"SORDAT":"20180711","SORIND":"US,US,graph,DD-30739","DSNM":"US5CA1NR.000","SHAPE.AREA":3.3448485950000003e-06,"SHAPE.LEN":0.0147996826842559}},{"type":"Feature","id":71851,"geometry":{"type":"Polygon","coordinates":[[[-117.87849130000001,33.588039900000012],[-117.87848839999998,33.588040499999977],[-117.87809479999999,33.588128900000015],[-117.88156379999998,33.59892769999999],[-117.88156709999998,33.598937799999987],[-117.88195589999998,33.598835199999996],[-117.88195880000001,33.598834399999987],[-117.881956,33.598825499999975],[-117.87849130000001,33.588039900000012]]]},"properties":{"OBJECTID":71851,"OBJL":46,"DRVAL1":6.2000000000000002,"DRVAL2":null,"OBJNAM":"Entrance Channel LIQ","QUASOU":"10","SOUACC":null,"TECSOU":null,"VERDAT":null,"INFORM":null,"SCAMIN":null,"SORDAT":"20200424","SORIND":"US,US,graph,DD-32753","DSNM":"US5CA1MS.000","SHAPE.AREA":4.5913888449999999e-06,"SHAPE.LEN":0.023502181310859502}},{"type":"Feature","id":71877,"geometry":{"type":"Polygon","coordinates":[[[-117.88758489999998,33.600942599999996],[-117.88753409999998,33.601073299999996],[-117.88753050000003,33.601082500000018],[-117.89705800000002,33.603669799999977],[-117.89705930000002,33.603666599999997],[-117.89710939999998,33.603538000000015],[-117.88758489999998,33.600942599999996]]]},"properties":{"OBJECTID":71877,"OBJL":46,"DRVAL1":5.1000000000000005,"DRVAL2":null,"OBJNAM":"Balboa Reach LIQ","QUASOU":"10","SOUACC":null,"TECSOU":null,"VERDAT":null,"INFORM":null,"SCAMIN":null,"SORDAT":"20180711","SORIND":"US,US,graph,DD-30739","DSNM":"US5CA1NS.000","SHAPE.AREA":1.4311913650000001e-06,"SHAPE.LEN":0.0200359178658235}},{"type":"Feature","id":71883,"geometry":{"type":"Polygon","coordinates":[[[-117.89998450000002,33.609049200000015],[-117.89994280000002,33.609029000000021],[-117.8998881,33.60900989999999],[-117.89983339999998,33.608999200000028],[-117.89979529999999,33.608988500000009],[-117.89976200000001,33.608970699999986],[-117.89971439999999,33.608940899999993],[-117.899675,33.608902999999998],[-117.89967100000001,33.608901800000012],[-117.89872409999998,33.608902699999987],[-117.89671679999998,33.608904699999982],[-117.89405479999999,33.608907299999998],[-117.8901219,33.608911200000023],[-117.88989220000002,33.609021400000017],[-117.88985869999999,33.609021400000017],[-117.88972799999999,33.609021499999983],[-117.88972680000001,33.609020999999984],[-117.8894651,33.60891190000001],[-117.88870969999999,33.608912599999996],[-117.88754510000001,33.60823019999998],[-117.88754410000001,33.608228800000006],[-117.8860828,33.606110100000024],[-117.88606970000001,33.60609119999998],[-117.88601920000002,33.605957199999978],[-117.88570779999998,33.605130299999985],[-117.88545040000002,33.604446699999983],[-117.88545779999998,33.604437899999994],[-117.88540599999999,33.604438000000016],[-117.88524100000001,33.604438300000027],[-117.88551760000001,33.605131099999994],[-117.88593630000003,33.606179800000007],[-117.88740439999998,33.608314399999983],[-117.88865750000002,33.609036000000003],[-117.88946979999997,33.609039800000005],[-117.88965259999998,33.609077200000002],[-117.88972589999997,33.609078899999986],[-117.88986039999998,33.609082100000023],[-117.88992680000001,33.609083699999985],[-117.89012300000002,33.609037300000011],[-117.8927549,33.609040199999981],[-117.8965781,33.609044299999994],[-117.89742819999998,33.609047400000009],[-117.8987032,33.609051899999997],[-117.8995898,33.609055099999978],[-117.89996059999999,33.609132600000009],[-117.89999999999998,33.60913149999999],[-117.89999999999998,33.609054700000002],[-117.89998450000002,33.609049200000015]]]},"properties":{"OBJECTID":71883,"OBJL":46,"DRVAL1":2.1000000000000001,"DRVAL2":null,"OBJNAM":"Balboa Island, North Channel LOQ","QUASOU":"10","SOUACC":null,"TECSOU":null,"VERDAT":null,"INFORM":null,"SCAMIN":null,"SORDAT":"20180711","SORIND":"US,US,graph,DD-30739","DSNM":"US5CA1NS.000","SHAPE.AREA":2.4356472199999998e-06,"SHAPE.LEN":0.034659472261952699}},{"type":"Feature","id":71885,"geometry":{"type":"Polygon","coordinates":[[[-117.88372989999999,33.600000000000023],[-117.88751000000002,33.600924299999974],[-117.88758489999998,33.600942599999996],[-117.88758669999999,33.600938100000008],[-117.88763569999998,33.600812000000019],[-117.88756619999998,33.60079300000001],[-117.88641719999998,33.600480000000005],[-117.88627969999999,33.600442600000008],[-117.88612130000001,33.600399400000015],[-117.88493870000002,33.600077300000009],[-117.8849171,33.60007139999999],[-117.88483530000002,33.600049099999978],[-117.88465509999997,33.600000000000023],[-117.88372989999999,33.600000000000023]]]},"properties":{"OBJECTID":71885,"OBJL":46,"DRVAL1":4.9000000000000004,"DRVAL2":null,"OBJNAM":"Corona Del Mar Bend LOQ","QUASOU":"10","SOUACC":null,"TECSOU":null,"VERDAT":null,"INFORM":null,"SCAMIN":null,"SORDAT":"20180711","SORIND":"US,US,graph,DD-30739","DSNM":"US5CA1NS.000","SHAPE.AREA":6.5140027000000005e-07,"SHAPE.LEN":0.0081231253252797703}},{"type":"Feature","id":71882,"geometry":{"type":"Polygon","coordinates":[[[-117.88240039999999,33.600000000000023],[-117.88265460000002,33.600197200000025],[-117.88276810000002,33.600285299999996],[-117.88277369999997,33.600289599999996],[-117.88739579999998,33.601192099999992],[-117.88748140000001,33.601208799999995],[-117.88753050000003,33.601082500000018],[-117.88751330000002,33.601077799999985],[-117.88745060000002,33.601064000000008],[-117.8829753,33.600077199999987],[-117.88296780000002,33.60007109999998],[-117.88287989999998,33.600000000000023],[-117.88240039999999,33.600000000000023]]]},"properties":{"OBJECTID":71882,"OBJL":46,"DRVAL1":6.4000000000000004,"DRVAL2":null,"OBJNAM":"Corona Del Mar Bend RIQ","QUASOU":"10","SOUACC":null,"TECSOU":null,"VERDAT":null,"INFORM":null,"SCAMIN":null,"SORDAT":"20180711","SORIND":"US,US,graph,DD-30739","DSNM":"US5CA1NS.000","SHAPE.AREA":9.9433727499999996e-07,"SHAPE.LEN":0.010671628466236999}},{"type":"Feature","id":72029,"geometry":{"type":"Polygon","coordinates":[[[-118.44950419999998,33.970040299999994],[-118.4495192,33.969995499999982],[-118.44961599999999,33.969699800000001],[-118.44980190000001,33.969307500000014],[-118.45003530000002,33.968891699999972],[-118.4503019,33.96850139999998],[-118.45046200000002,33.9683134],[-118.45046539999998,33.96830940000001],[-118.45060519999998,33.968147999999985],[-118.45087869999998,33.967887800000028],[-118.45111079999998,33.967676799999992],[-118.45162929999998,33.967292900000018],[-118.45184540000002,33.967150899999979],[-118.45208059999999,33.967021799999998],[-118.45238089999998,33.966858999999999],[-118.45258310000003,33.966761899999995],[-118.45371490000002,33.966221800000028],[-118.45470160000002,33.965754800000013],[-118.45548350000001,33.965387899999996],[-118.45572249999998,33.965275700000007],[-118.45573139999999,33.965271400000006],[-118.45587339999997,33.965203799999983],[-118.45591100000001,33.965185899999994],[-118.4563134,33.965000299999986],[-118.45635750000002,33.964979900000003],[-118.45688869999998,33.964710599999989],[-118.45722619999998,33.964554599999985],[-118.45784270000001,33.964260700000011],[-118.4579511,33.964208999999983],[-118.45804909999998,33.964162299999998],[-118.45861650000001,33.963899700000013],[-118.46018889999999,33.963144699999987],[-118.4604344,33.96302750000001],[-118.46076399999998,33.962870000000009],[-118.46138869999999,33.9625767],[-118.46157729999999,33.962488099999973],[-118.46156760000002,33.96247360000001],[-118.461546,33.962441300000023],[-118.46151750000001,33.962398599999972],[-118.46149930000001,33.962371299999973],[-118.46144809999998,33.962294699999973],[-118.4614282,33.96226489999998],[-118.46070040000001,33.961175000000026],[-118.4606483,33.961100400000021],[-118.46063800000002,33.961085700000012],[-118.46057180000003,33.960988199999974],[-118.46055940000002,33.960972200000015],[-118.46054350000003,33.96095170000001],[-118.4604837,33.960874600000011],[-118.46034539999999,33.960938800000008],[-118.46007759999998,33.961063000000024],[-118.45989750000001,33.961146499999984],[-118.459722,33.961230399999977],[-118.45908100000003,33.961521600000026],[-118.4584529,33.96182060000001],[-118.45825889999998,33.961911900000018],[-118.4580808,33.961995800000011],[-118.45751430000001,33.962253499999974],[-118.45712350000002,33.962433099999998],[-118.45672710000002,33.962615099999994],[-118.45650269999999,33.962718199999983],[-118.45611380000003,33.962898699999982],[-118.45541379999997,33.963223500000026],[-118.45517849999999,33.963332600000001],[-118.4549955,33.963417499999991],[-118.45424459999998,33.963806200000022],[-118.45354800000001,33.964165100000002],[-118.45337000000001,33.9642695],[-118.4526659,33.964648399999987],[-118.4523135,33.964837999999986],[-118.45189690000001,33.965063100000009],[-118.45156359999999,33.965249700000015],[-118.45080789999997,33.965678099999991],[-118.44929059999998,33.9665301],[-118.44923410000001,33.96656569999999],[-118.44892220000003,33.966725300000007],[-118.44888589999999,33.966749300000004],[-118.4484956,33.966979999999978],[-118.44808760000001,33.96720590000001],[-118.44808690000002,33.967206299999987],[-118.44751869999999,33.967526700000008],[-118.44740380000002,33.967595500000016],[-118.44739800000002,33.967600100000027],[-118.44727929999999,33.967694699999981],[-118.44716019999998,33.9677954],[-118.44710350000003,33.967865599999982],[-118.44700820000003,33.968001399999991],[-118.44698670000002,33.968047099999978],[-118.446935,33.968157000000019],[-118.4468837,33.968330999999978],[-118.44687210000001,33.968491599999993],[-118.44688919999999,33.969843400000002],[-118.44689679999999,33.970124800000008],[-118.44709019999999,33.970122300000014],[-118.44947480000002,33.970127600000012],[-118.44950419999998,33.970040299999994]]]},"properties":{"OBJECTID":72029,"OBJL":46,"DRVAL1":3.2000000000000002,"DRVAL2":null,"OBJNAM":"Marina Del Rey Entrance Channel","QUASOU":"10","SOUACC":null,"TECSOU":null,"VERDAT":null,"INFORM":"Speed limits are posted on uncharted White and Orange can buoys in the improved channel.","SCAMIN":null,"SORDAT":"20200708","SORIND":"US,US,graph,DD-33134","DSNM":"US5CA63M.000","SHAPE.AREA":3.3296437629999995e-05,"SHAPE.LEN":0.036649681948804004}},{"type":"Feature","id":71863,"geometry":{"type":"Polygon","coordinates":[[[-117.9083741,33.611276999999973],[-117.90829480000002,33.611396800000023],[-117.90829230000003,33.611400500000002],[-117.92240470000002,33.617924200000004],[-117.9224269,33.617934400000024],[-117.92243189999999,33.617926699999998],[-117.92250710000002,33.617813000000012],[-117.92248549999999,33.617802999999981],[-117.90838589999998,33.611285199999998],[-117.9083741,33.611276999999973]]]},"properties":{"OBJECTID":71863,"OBJL":46,"DRVAL1":4.9000000000000004,"DRVAL2":null,"OBJNAM":"Lido Isle Reach LIQ","QUASOU":"10","SOUACC":null,"TECSOU":null,"VERDAT":null,"INFORM":null,"SCAMIN":null,"SORDAT":"20180711","SORIND":"US,US,graph,DD-30739","DSNM":"US5CA1NR.000","SHAPE.AREA":2.2411691350000002e-06,"SHAPE.LEN":0.031436739045903002}},{"type":"Feature","id":71862,"geometry":{"type":"Polygon","coordinates":[[[-117.89999999999998,33.605502899999976],[-117.89999999999998,33.605682699999988],[-117.90825189999998,33.611372599999982],[-117.90829230000003,33.611400500000002],[-117.90829480000002,33.611396800000023],[-117.9083741,33.611276999999973],[-117.90834239999998,33.611255200000016],[-117.89999999999998,33.605502899999976]]]},"properties":{"OBJECTID":71862,"OBJL":46,"DRVAL1":5.1000000000000005,"DRVAL2":null,"OBJNAM":"Harbor Island Reach LIQ","QUASOU":"10","SOUACC":null,"TECSOU":null,"VERDAT":null,"INFORM":null,"SCAMIN":null,"SORDAT":"20180711","SORIND":"US,US,graph,DD-30739","DSNM":"US5CA1NR.000","SHAPE.AREA":1.4983223599999999e-06,"SHAPE.LEN":0.020572257598392599}},{"type":"Feature","id":71876,"geometry":{"type":"Polygon","coordinates":[[[-117.89958780000001,33.609375],[-117.89865880000002,33.609367299999974],[-117.8965791,33.609349899999984],[-117.89014539999999,33.609309199999984],[-117.88993160000001,33.609270100000003],[-117.88986560000001,33.609268900000018],[-117.889723,33.609266300000002],[-117.88966499999998,33.609265300000004],[-117.88948540000001,33.609312299999999],[-117.8885813,33.60931149999999],[-117.88715939999997,33.608506700000021],[-117.88562189999999,33.606277900000009],[-117.88517910000002,33.60513259999999],[-117.88491099999999,33.604438899999991],[-117.88475899999997,33.604439200000002],[-117.8850205,33.605133299999977],[-117.8854652,33.606313999999998],[-117.88704899999999,33.608609800000011],[-117.88704960000001,33.60861060000002],[-117.88799879999999,33.609166800000025],[-117.88828940000002,33.609337100000005],[-117.88842729999999,33.609417800000017],[-117.88850289999999,33.609462199999996],[-117.88914149999999,33.609462199999996],[-117.88948820000002,33.609462199999996],[-117.88971290000001,33.609358100000009],[-117.8897217,33.609353999999996],[-117.88972790000003,33.609351199999992],[-117.88986790000001,33.609351199999992],[-117.8898921,33.609351199999992],[-117.88992400000001,33.609363099999996],[-117.89019020000001,33.609462300000018],[-117.89206039999999,33.609477900000002],[-117.89250399999997,33.609481599999981],[-117.89325009999999,33.609487800000011],[-117.89363400000002,33.609490999999991],[-117.89447339999998,33.609497999999974],[-117.89463929999999,33.609499400000004],[-117.89473939999999,33.609500200000014],[-117.89484390000001,33.609501099999989],[-117.8949465,33.60950200000002],[-117.8952031,33.609504099999981],[-117.89546710000002,33.609506300000021],[-117.89569469999998,33.609508199999993],[-117.89593980000001,33.609510300000011],[-117.89628540000001,33.609513100000015],[-117.89662290000001,33.609515999999985],[-117.89684419999998,33.609517799999992],[-117.89703450000002,33.609519400000011],[-117.89952799999998,33.609540200000026],[-117.89999999999998,33.609544099999994],[-117.89999999999998,33.609536100000014],[-117.89999999999998,33.609382299999993],[-117.89958780000001,33.609375]]]},"properties":{"OBJECTID":71876,"OBJL":46,"DRVAL1":2.5,"DRVAL2":null,"OBJNAM":"Balboa Island, North Channel ROQ","QUASOU":"10","SOUACC":null,"TECSOU":null,"VERDAT":null,"INFORM":null,"SCAMIN":null,"SORDAT":"20180711","SORIND":"US,US,graph,DD-30739","DSNM":"US5CA1NS.000","SHAPE.AREA":2.7749998899999999e-06,"SHAPE.LEN":0.036075444668207002}}]}