{
"type": "FeatureCollection",
"name": "land_la_long_beach",
"crs": { "type": "name", "properties": { "name": "urn:ogc:def:crs:OGC:1.3:CRS84" } },
"features": [
{ "type": "Feature", "properties": { }, "geometry": { "type": "Polygon", "coordinates": [ [ [ -117.824574, 33.561672 ], [ -117.880251, 33.59288 ], [ -117.93022, 33.607918 ], [ -117.978505, 33.635972 ], [ -118.090536, 33.730977 ], [ -118.117387, 33.743607 ], [ -118.152581, 33.758765 ], [ -118.173639, 33.763283 ], [ -118.185533, 33.757507 ], [ -118.198967, 33.764036 ], [ -118.20721, 33.763834 ], [ -118.192498, 33.752309 ], [ -118.186618, 33.741484 ], [ -118.185189, 33.732372 ], [ -118.192863, 33.731729 ], [ -118.202479, 33.739266 ], [ -118.202745, 33.746575 ], [ -118.209735, 33.742287 ], [ -118.213827, 33.749045 ], [ -118.221506, 33.770901 ], [ -118.230702, 33.76911 ], [ -118.240336, 33.767583 ], [ -118.250091, 33.763684 ], [ -118.254552, 33.765401 ], [ -118.260365, 33.760403 ], [ -118.269514, 33.753597 ], [ -118.27677, 33.756616 ], [ -118.273791, 33.750289 ], [ -118.278317, 33.738746 ], [ -118.274472, 33.723755 ], [ -118.272206, 33.715277 ], [ -118.282441, 33.716237 ], [ -118.281725, 33.711683 ], [ -118.276084, 33.707712 ], [ -118.28269, 33.708 ], [ -118.291307, 33.703208 ], [ -118.300882, 33.709849 ], [ -118.317518, 33.71399 ], [ -118.33146, 33.720051 ], [ -118.354817, 33.726265 ], [ -118.362286, 33.735687 ], [ -118.376079, 33.737157 ], [ -118.385001, 33.740116 ], [ -118.394189, 33.736687 ], [ -118.401358, 33.735559 ], [ -118.404808, 33.740049 ], [ -118.412041, 33.741678 ], [ -118.415217, 33.75441 ], [ -118.422783, 33.763799 ], [ -118.427569, 33.773731 ], [ -118.421819, 33.783944 ], [ -118.409303, 33.791124 ], [ -118.408636, 33.798003 ], [ -118.395715, 33.805654 ], [ -118.3918, 33.817647 ], [ -118.391388, 33.835941 ], [ -118.397211, 33.844023 ], [ -118.399673, 33.851265 ], [ -118.409916, 33.87342 ], [ -118.424946, 33.905513 ], [ -118.444651, 33.949408 ], [ -118.482655, 33.99901 ], [ -118.483998247667586, 34.0 ], [ -117.8, 34.0 ], [ -117.8, 33.545150580959323 ], [ -117.824574, 33.561672 ] ] ] } },
{ "type": "Feature", "properties": { }, "geometry": { "type": "Polygon", "coordinates": [ [ [ -118.226578, 33.76545 ], [ -118.223919, 33.756067 ], [ -118.243878, 33.750844 ], [ -118.236346, 33.728046 ], [ -118.250134, 33.723618 ], [ -118.245571, 33.714879 ], [ -118.257629, 33.716554 ], [ -118.261326, 33.725 ], [ -118.259126, 33.729407 ], [ -118.24432, 33.734291 ], [ -118.248994, 33.749427 ], [ -118.253854, 33.746219 ], [ -118.251107, 33.736269 ], [ -118.260562, 33.733454 ], [ -118.268615, 33.728931 ], [ -118.270859, 33.73964 ], [ -118.267506, 33.747029 ], [ -118.254989, 33.758083 ], [ -118.25032, 33.757555 ], [ -118.245547, 33.759683 ], [ -118.234676, 33.763153 ], [ -118.226578, 33.76545 ] ] ] } },
{ "type": "Feature", "properties": { }, "geometry": { "type": "Polygon", "coordinates": [ [ [ -118.520789, 33.427515 ], [ -118.530673, 33.428581 ], [ -118.535085, 33.429312 ], [ -118.542988, 33.432923 ], [ -118.550886, 33.433254 ], [ -118.559226, 33.432854 ], [ -118.566736, 33.436856 ], [ -118.572851, 33.437907 ], [ -118.57373, 33.440455 ], [ -118.574117, 33.446614 ], [ -118.579049, 33.448476 ], [ -118.584383, 33.452864 ], [ -118.589607, 33.460096 ], [ -118.595881, 33.466706 ], [ -118.602116, 33.47147 ], [ -118.603913, 33.476589 ], [ -118.596868, 33.476973 ], [ -118.586779, 33.475571 ], [ -118.578003, 33.476351 ], [ -118.569625, 33.474537 ], [ -118.563436, 33.473427 ], [ -118.545938, 33.475029 ], [ -118.540675, 33.475783 ], [ -118.535861, 33.477278 ], [ -118.530103, 33.469976 ], [ -118.524378, 33.466715 ], [ -118.517748, 33.459782 ], [ -118.508058, 33.454681 ], [ -118.499706, 33.451813 ], [ -118.499683, 33.448154 ], [ -118.49877, 33.442666 ], [ -118.493061, 33.441589 ], [ -118.490442, 33.443422 ], [ -118.485637, 33.444877 ], [ -118.48433, 33.447094 ], [ -118.476901, 33.447445 ], [ -118.472499, 33.441964 ], [ -118.468076, 33.442409 ], [ -118.462824, 33.439844 ], [ -118.45754, 33.43511 ], [ -118.450054, 33.431862 ], [ -118.444791, 33.428584 ], [ -118.437308, 33.429363 ], [ -118.433853, 33.427155 ], [ -118.429443, 33.428283 ], [ -118.42112, 33.427948 ], [ -118.394449, 33.415963 ], [ -118.389098, 33.417461 ], [ -118.382599, 33.410526 ], [ -118.379375, 33.410183 ], [ -118.374028, 33.410207 ], [ -118.369206, 33.408393 ], [ -118.368303, 33.405102 ], [ -118.366908, 33.398882 ], [ -118.369581, 33.39485 ], [ -118.368289, 33.389003 ], [ -118.363376, 33.388278 ], [ -118.355131, 33.377346 ], [ -118.343628, 33.366762 ], [ -118.331757, 33.359113 ], [ -118.326514, 33.348901 ], [ -118.326344, 33.344608 ], [ -118.322765, 33.343132 ], [ -118.317255, 33.343429 ], [ -118.308665, 33.33642 ], [ -118.304344, 33.319269 ], [ -118.307854, 33.318724 ], [ -118.310584, 33.314231 ], [ -118.30434, 33.30904 ], [ -118.312128, 33.305542 ], [ -118.314709, 33.301629 ], [ -118.320867228971977, 33.3 ], [ -118.330174950591072, 33.3 ], [ -118.346017, 33.305231 ], [ -118.354947, 33.312945 ], [ -118.364003, 33.315048 ], [ -118.374796, 33.319512 ], [ -118.396096, 33.3201 ], [ -118.410466, 33.320372 ], [ -118.422664, 33.316634 ], [ -118.443835, 33.318827 ], [ -118.463586, 33.323514 ], [ -118.472771, 33.332943 ], [ -118.484244, 33.346075 ], [ -118.489582, 33.358499 ], [ -118.4844, 33.368414 ], [ -118.486165, 33.372428 ], [ -118.480072, 33.380143 ], [ -118.474872, 33.382371 ], [ -118.479324, 33.38675 ], [ -118.487232, 33.402812 ], [ -118.484523, 33.405381 ], [ -118.48715, 33.408304 ], [ -118.486346, 33.415968 ], [ -118.490735, 33.419625 ], [ -118.497756, 33.421431 ], [ -118.503908, 33.423225 ], [ -118.510496, 33.423938 ], [ -118.515654, 33.423005 ], [ -118.520789, 33.427515 ] ] ] } }
]
}
