{
"type": "FeatureCollection",
"name": "land_houston",
"crs": { "type": "name", "properties": { "name": "urn:ogc:def:crs:OGC:1.3:CRS84" } },
"features": [
{ "type": "Feature", "properties": { }, "geometry": { "type": "Polygon", "coordinates": [ [ [ -94.654286, 29.45189 ], [ -94.690745, 29.428616 ], [ -94.742421, 29.374661 ], [ -94.762766, 29.366523 ], [ -94.786204, 29.370307 ], [ -94.790639, 29.380032 ], [ -94.782053, 29.393378 ], [ -94.700999, 29.462795 ], [ -94.67516, 29.474799 ], [ -94.651601, 29.478258 ], [ -94.640126, 29.481431 ], [ -94.630035, 29.485663 ], [ -94.622426, 29.490058 ], [ -94.5926, 29.517564 ], [ -94.580881, 29.524237 ], [ -94.572133, 29.526435 ], [ -94.521881, 29.523993 ], [ -94.504465, 29.526028 ], [ -94.491811, 29.534125 ], [ -94.48526, 29.552151 ], [ -94.485951, 29.566107 ], [ -94.494944, 29.558783 ], [ -94.510121, 29.549018 ], [ -94.529652, 29.555569 ], [ -94.545522, 29.568427 ], [ -94.561431, 29.574612 ], [ -94.605448, 29.55265 ], [ -94.695232, 29.538959 ], [ -94.736819, 29.528477 ], [ -94.755235, 29.524271 ], [ -94.77905, 29.529877 ], [ -94.787429, 29.540714 ], [ -94.78508, 29.546934 ], [ -94.773754, 29.541801 ], [ -94.761274, 29.543918 ], [ -94.749458, 29.561038 ], [ -94.735779, 29.579235 ], [ -94.716138, 29.611408 ], [ -94.70311, 29.650438 ], [ -94.692741, 29.69634 ], [ -94.69547, 29.718123 ], [ -94.702144, 29.735306 ], [ -94.703532, 29.751362 ], [ -94.710176, 29.760518 ], [ -94.719494, 29.776551 ], [ -94.734055, 29.782241 ], [ -94.744627, 29.782206 ], [ -94.760458, 29.776416 ], [ -94.773655, 29.772928 ], [ -94.794792, 29.771705 ], [ -94.806743, 29.781989 ], [ -94.82649, 29.768144 ], [ -94.826386, 29.749787 ], [ -94.848661, 29.717578 ], [ -94.862984, 29.683106 ], [ -94.876076, 29.665842 ], [ -94.90641, 29.657682 ], [ -94.919597, 29.655327 ], [ -94.931556, 29.666741 ], [ -94.938317, 29.689653 ], [ -94.948915, 29.69419 ], [ -94.966172, 29.704434 ], [ -94.999176, 29.71601 ], [ -95.015502, 29.7203 ], [ -95.026745, 29.736094 ], [ -95.033993, 29.748461 ], [ -95.05228, 29.749748 ], [ -95.064076, 29.712877 ], [ -95.050328, 29.707026 ], [ -95.036812, 29.704343 ], [ -95.028824, 29.697497 ], [ -95.018488, 29.695484 ], [ -95.008947, 29.693465 ], [ -94.99858, 29.68663 ], [ -94.985801, 29.674985 ], [ -95.008696, 29.659714 ], [ -95.015723, 29.644522 ], [ -95.010031, 29.625953 ], [ -94.984519, 29.60612 ], [ -94.989195, 29.594387 ], [ -95.005442, 29.578599 ], [ -95.015981, 29.568915 ], [ -95.023915, 29.542182 ], [ -94.983911, 29.513819 ], [ -94.907798, 29.49631 ], [ -94.914873, 29.488006 ], [ -94.923506, 29.475558 ], [ -94.936391, 29.480048 ], [ -94.950592, 29.473782 ], [ -94.965077, 29.469631 ], [ -94.965077, 29.462795 ], [ -94.948232, 29.451972 ], [ -94.947092, 29.43537 ], [ -94.942942, 29.422024 ], [ -94.917307, 29.421129 ], [ -94.917307, 29.428616 ], [ -94.921498, 29.432115 ], [ -94.921986, 29.433987 ], [ -94.921783, 29.43651 ], [ -94.919586, 29.43651 ], [ -94.918324, 29.436998 ], [ -94.918202, 29.44009 ], [ -94.917307, 29.442288 ], [ -94.889556, 29.400824 ], [ -94.878774, 29.393866 ], [ -94.865793, 29.39175 ], [ -94.821116, 29.373969 ], [ -94.824941, 29.372789 ], [ -94.828277, 29.37226 ], [ -94.831288, 29.370754 ], [ -94.834096, 29.366523 ], [ -94.849436, 29.375963 ], [ -94.870351, 29.380845 ], [ -94.888824, 29.375963 ], [ -94.896799, 29.35635 ], [ -94.901357, 29.334621 ], [ -94.912913, 29.315579 ], [ -94.928212, 29.307563 ], [ -94.943959, 29.318793 ], [ -94.950795, 29.318793 ], [ -94.955149, 29.306342 ], [ -94.964467, 29.297797 ], [ -94.984934, 29.284613 ], [ -94.987864, 29.283881 ], [ -94.996205, 29.285224 ], [ -94.999176, 29.284613 ], [ -94.999867, 29.281968 ], [ -94.998647, 29.273749 ], [ -94.999176, 29.270982 ], [ -95.065175, 29.204169 ], [ -95.071395510615034, 29.2 ], [ -95.146016829493078, 29.2 ], [ -95.153147, 29.200873 ], [ -95.170522, 29.20893 ], [ -95.162913, 29.200629 ], [ -95.162599484369565, 29.2 ], [ -95.4, 29.2 ], [ -95.4, 29.9 ], [ -94.4, 29.9 ], [ -94.4, 29.552566563029369 ], [ -94.654286, 29.45189 ] ] ] } },
{ "type": "Feature", "properties": { }, "geometry": { "type": "Polygon", "coordinates": [ [ [ -94.724409, 29.333155 ], [ -94.891655, 29.224862 ], [ -94.936315500387749, 29.2 ], [ -94.979374116738612, 29.2 ], [ -94.967765, 29.207876 ], [ -94.943099, 29.22286 ], [ -94.928741, 29.236891 ], [ -94.920725, 29.250474 ], [ -94.917226, 29.255316 ], [ -94.875111, 29.284613 ], [ -94.866811, 29.299954 ], [ -94.86205, 29.305121 ], [ -94.839833, 29.310492 ], [ -94.83788, 29.311265 ], [ -94.828033, 29.317613 ], [ -94.821645, 29.331122 ], [ -94.82429, 29.343329 ], [ -94.841542, 29.346096 ], [ -94.841542, 29.352932 ], [ -94.836497, 29.352362 ], [ -94.835276, 29.35399 ], [ -94.835276, 29.356838 ], [ -94.834096, 29.359768 ], [ -94.831939, 29.360175 ], [ -94.82787, 29.359768 ], [ -94.827016, 29.353949 ], [ -94.81428, 29.352932 ], [ -94.724409, 29.333155 ] ] ] } }
]
}
